{"type":"FeatureCollection", "features": [
{"type":"Feature","geometry":{"type":"Polygon","coordinates":[[[17.98,59.329],[17.773,59.414],[17.809,59.553],[17.372,59.496],[17.063,59.569],[16.574,59.612],[16.473,59.519],[16.742,59.431],[16.914,59.446],[17.371,59.295],[17.876,59.271],[17.98,59.329]]]},"properties":{"scalerank":0,"featurecla":"Lake","name":"Mälaren","name_alt":"Lake Malar","note":"","admin":"","namepar":"","min_zoom":2,"min_label":3.7,"name_abb":"Mälaren","label":"Mälaren","wikidataid":"Q184492","name_ar":"بحيرة مالارين","name_bn":"মালারেন","name_de":"Mälaren","name_en":"Mälaren","name_es":"Mälar","name_fr":"Mälar","name_el":"Μέλαρεν","name_hi":"मालारेन","name_hu":"Mälaren-tó","name_id":"Mälaren","name_it":"Mälaren","name_ja":"メーラレン湖","name_ko":"멜라렌호","name_nl":"Mälarmeer","name_pl":"Melar","name_pt":"Mälaren","name_ru":"Меларен","name_sv":"Mälaren","name_tr":"Mälaren","name_vi":"Mälaren","name_zh":"梅拉伦湖","ne_id":1159122891,"name_fa":"دریاچه مئلارن","name_he":"מלארן","name_uk":"Меларен","name_ur":"مالارین","name_zht":"梅拉倫湖"}},
{"type":"Feature","geometry":{"type":"Polygon","coordinates":[[[29.837,61.226],[30.409,60.928],[30.528,60.812],[30.534,60.63],[30.724,60.562],[30.957,60.264],[31.109,60.146],[31.106,59.928],[31.51,59.92],[31.548,60.072],[31.699,60.236],[32.057,60.227],[32.362,60.148],[32.612,60.245],[32.677,60.392],[32.944,60.643],[32.527,61.118],[31.899,61.324],[31.365,61.627],[31.098,61.62],[30.852,61.775],[30.466,61.487],[30.285,61.517],[30.174,61.314],[29.837,61.226]]]},"properties":{"scalerank":0,"featurecla":"Lake","name":"Lake Ladoga","name_alt":"","note":"","admin":"","namepar":"","min_zoom":1,"min_label":3,"name_abb":"L. Ladoga","label":"Lake Ladoga","wikidataid":"Q15288","name_ar":"بحيرة لادوغا","name_bn":"লাডোগা হ্রদ","name_de":"Ladogasee","name_en":"Ladoga","name_es":"Ládoga","name_fr":"Ladoga","name_el":"Λάντογκα","name_hi":"लादोगा झील","name_hu":"Ladoga-tó","name_id":"Ladoga","name_it":"Ladoga","name_ja":"ラドガ湖","name_ko":"라도가호","name_nl":"Ladogameer","name_pl":"Ładoga","name_pt":"Ladoga","name_ru":"Ладожское озеро","name_sv":"Ladoga","name_tr":"Ladoga","name_vi":"Ladoga","name_zh":"拉多加湖","ne_id":1159113095,"name_fa":"دریاچه لادوگا","name_he":"ימת לדוגה","name_uk":"Ладозьке озеро","name_ur":"جھیل لاڈوگا","name_zht":"拉多加湖"}},
{"type":"Feature","geometry":{"type":"Polygon","coordinates":[[[14.038,59.083],[14.046,59.314],[13.628,59.39],[13.278,59.357],[13.103,59.274],[13.244,58.93],[12.818,59.082],[12.6,58.846],[12.607,58.617],[12.329,58.434],[12.624,58.382],[13.041,58.604],[13.24,58.515],[13.358,58.617],[13.8,58.722],[13.975,58.865],[14.038,59.083]]]},"properties":{"scalerank":0,"featurecla":"Lake","name":"Vänern","name_alt":"","note":"","admin":"","namepar":"","min_zoom":1.7,"min_label":3.6,"name_abb":"Vänern","label":"Vänern","wikidataid":"Q173596","name_ar":"بحيرة فنرن","name_bn":"ভেনার্ন","name_de":"Vänern","name_en":"Vänern","name_es":"Vänern","name_fr":"Vänern","name_el":"Βένερν","name_hi":"वेनर्न","name_hu":"Vänern-tó","name_id":"Vänern","name_it":"Vänern","name_ja":"ヴェーネルン湖","name_ko":"베네른호","name_nl":"Vänermeer","name_pl":"Wener","name_pt":"Vänern","name_ru":"Венерн","name_sv":"Vänern","name_tr":"Vänern","name_vi":"Vänern","name_zh":"维纳恩湖","ne_id":1159113235,"name_fa":"دریاچه ونرن","name_he":"ונן","name_uk":"Венерн","name_ur":"وینرن","name_zht":"維納恩湖"}},
{"type":"Feature","geometry":{"type":"Polygon","coordinates":[[[36.419,61.392],[36.061,61.654],[35.748,62],[34.536,62],[34.562,61.824],[34.388,61.796],[34.772,61.601],[35.457,61.356],[35.611,61.197],[35.583,61.034],[35.142,61.077],[34.974,61.212],[34.796,61.096],[35.184,61.005],[35.45,61.023],[35.551,60.938],[35.88,60.948],[36.279,61.114],[36.395,61.206],[36.419,61.392]]]},"properties":{"scalerank":0,"featurecla":"Lake","name":"Lake Onega","name_alt":"","note":"","admin":"","namepar":"","min_zoom":1.7,"min_label":3.6,"name_abb":"L. Onega","label":"Lake Onega","wikidataid":"Q166162","name_ar":"بحيرة أونيغا","name_bn":"লেক ওনেগা","name_de":"Onegasee","name_en":"Onega","name_es":"Onega","name_fr":"Onega","name_el":"Λίμνη Ονέγκα","name_hi":"ओनेगा झील","name_hu":"Onyega-tó","name_id":"Onega","name_it":"Onega","name_ja":"オネガ湖","name_ko":"오네가호","name_nl":"Onegameer","name_pl":"Onega","name_pt":"Onega","name_ru":"Онежское озеро","name_sv":"Onega","name_tr":"Onega","name_vi":"Onega","name_zh":"奥涅加湖","ne_id":1159113251,"name_fa":"دریاچه اونگا","name_he":"ימת אונגה","name_uk":"Онезьке озеро","name_ur":"جھیل اونیگا","name_zht":"奧涅加湖"}},
{"type":"Feature","geometry":{"type":"Polygon","coordinates":[[[5.867,52.563],[5.613,52.684],[5.657,52.851],[5.42,52.874],[5.398,53.042],[5.068,52.923],[5.247,52.73],[5.066,52.624],[5.04,52.344],[5.495,52.252],[5.87,52.485],[5.867,52.563]],[[5.801,52.466],[5.499,52.302],[5.169,52.379],[5.658,52.588],[5.801,52.466]]]},"properties":{"scalerank":0,"featurecla":"Alkaline Lake","name":"IJsselmeer","name_alt":"","note":"","admin":"admin-0","namepar":"","min_zoom":2,"min_label":3.7,"name_abb":"IJsselmeer","label":"IJsselmeer","wikidataid":"Q4121","name_ar":"بحيرة آيسل","name_bn":"ইজসেলমীর","name_de":"IJsselmeer","name_en":"IJsselmeer","name_es":"Ĳsselmeer","name_fr":"IJsselmeer","name_el":"Άισελμιρ","name_hi":"आईजेसेल्मीर","name_hu":"IJsselmeer","name_id":"IJsselmeer","name_it":"IJsselmeer","name_ja":"アイセル湖","name_ko":"에이설호","name_nl":"IJsselmeer","name_pl":"IJsselmeer","name_pt":"IJsselmeer","name_ru":"Эйсселмер","name_sv":"IJsselmeer","name_tr":"IJsselmeer","name_vi":"Hồ IJsselmeer","name_zh":"艾瑟爾湖","ne_id":1159126631,"name_fa":"دریاچه آیسل","name_he":"אייסלמיר","name_uk":"Ейсселмер","name_ur":"اسیلمیر","name_zht":"艾瑟爾湖"}},
{"type":"Feature","geometry":{"type":"Polygon","coordinates":[[[38.681,58.108],[38.692,58.207],[39.005,58.358],[38.989,58.496],[38.753,58.547],[38.119,58.955],[37.645,59.157],[37.777,58.926],[37.996,58.862],[37.988,58.672],[37.565,58.553],[37.897,58.292],[38.221,58.237],[38.383,58.122],[38.681,58.108]]]},"properties":{"scalerank":0,"featurecla":"Reservoir","name":"Rybinsk Reservoir","name_alt":"","note":"","admin":"","namepar":"","min_zoom":2,"min_label":3.7,"name_abb":"Rybinsk Res.","label":"Rybinsk Reservoir","wikidataid":"Q375029","name_ar":"خزان ريبنسك","name_bn":"রাইবিনস্ক জলাধার","name_de":"Rybinsker Stausee","name_en":"Rybinsk","name_es":"Rybinsk","name_fr":"Rybinsk","name_el":"Τεχνητή Λίμνη Ρύμπινσκ","name_hi":"रायबिंस्क जलाशय","name_hu":"Ribinszk-víztározó","name_id":"Reservoir Rybinsk","name_it":"Rybinsk","name_ja":"ルイビンスク人造湖","name_ko":"리빈스크 레저보어","name_nl":"Stuwmeer van Rybinsk","name_pl":"Zbiornik Rybiński","name_pt":"Represa de Rybinsk","name_ru":"Рыбинское водохранилище","name_sv":"Rybinskreservoaren","name_tr":"Rıbinsk Baraj","name_vi":"Hồ Rybinsk","name_zh":"雷賓斯克水庫","ne_id":1159124965,"name_fa":"مخزن سد ریبینسک","name_he":"מאגר ריבינסק","name_uk":"Рибінське водосховище","name_ur":"رائےبنسک ریزروائر","name_zht":"雷賓斯克水庫"}},
{"type":"Feature","geometry":{"type":"Polygon","coordinates":[[[19.764,54.434],[19.929,54.517],[20.084,54.673],[19.988,54.71],[19.717,54.482],[19.764,54.434]]]},"properties":{"scalerank":0,"featurecla":"Alkaline Lake","name":"Kaliningradskiy Zaliv","name_alt":"","note":"","admin":"","namepar":"","min_zoom":3,"min_label":4,"name_abb":"Kaliningradskiy Zaliv","label":"Kaliningradskiy Zaliv","wikidataid":"Q5605","name_ar":"فيستولا لاجون","name_bn":"কালিনিনগ্র্যাদস্কি জালিভ","name_de":"Frisches Haff","name_en":"Vistula Lagoon","name_es":"del Vístula","name_fr":"Lagune de la Vistule","name_el":"Λιμνοθάλασσα του Βιστούλα","name_hi":"कलिनिन्ग्राद्स्की ज़ालिव","name_hu":"Kalinyingradszkij Zaliv","name_id":"Kaliningradskiy Zaliv","name_it":"della Vistola","name_ja":"ヴィスワ潟","name_ko":"비스툴라 석호","name_nl":"Wislahaf","name_pl":"Zalew Wiślany","name_pt":"Lagoa do Vístula","name_ru":"Калининградский залив","name_sv":"Frisches Haff","name_tr":"Vistül Lagünü","name_vi":"Phá Vistula","name_zh":"维斯图拉潟湖","ne_id":1159126681,"name_fa":"کالینینگرادسکی زالیو","name_he":"לגונת ויסטולה","name_uk":"Віслинська затока","name_ur":"کالینینگراڈسکی زالیو","name_zht":"维斯图拉潟湖"}},
{"type":"Feature","geometry":{"type":"Polygon","coordinates":[[[19.717,54.482],[19.503,54.381],[19.279,54.338],[19.347,54.268],[19.481,54.3],[19.764,54.434],[19.717,54.482]]]},"properties":{"scalerank":0,"featurecla":"Alkaline Lake","name":"Zalev Wislany","name_alt":"Zalew Wislany","note":"","admin":"","namepar":"","min_zoom":3,"min_label":4,"name_abb":"Zalew Wislany","label":"Zalev Wislany","wikidataid":"Q5605","name_ar":"زاليو ويسلاني","name_bn":"জালেউ উইসলানি","name_de":"Frisches Haff","name_en":"Vistula Lagoon","name_es":"del Vístula","name_fr":"Lagune de la Vistule","name_el":"Λιμνοθάλασσα του Βιστούλα","name_hi":"ज़ालेव विस्लानी","name_hu":"Zalew Wislany","name_id":"Zalew Wislany","name_it":"della Vistola","name_ja":"ヴィスワ潟","name_ko":"비스툴라 석호","name_nl":"Wislahaf","name_pl":"Zalew Wiślany","name_pt":"Lagoa do Vístula","name_ru":"Калининградский залив","name_sv":"Frisches Haff","name_tr":"Vistül Lagünü","name_vi":"Phá Vistula","name_zh":"维斯图拉潟湖","ne_id":1159126693,"name_fa":"زاله ویسلانی","name_he":"לגונת ויסטולה","name_uk":"Віслинська затока","name_ur":"زیلیو وسلانی","name_zht":"维斯图拉潟湖"}},
{"type":"Feature","geometry":{"type":"Polygon","coordinates":[[[43.261,33.728],[43.478,33.729],[43.467,33.95],[43.066,34.258],[43.106,33.915],[43.261,33.728]]]},"properties":{"scalerank":0,"featurecla":"Lake","name":"Lake Tharthar","name_alt":"","note":"","admin":"","namepar":"","min_zoom":3,"min_label":4,"name_abb":"Buhayrat ath Tharthar","label":"Buhayrat ath Tharthar","wikidataid":"Q1640519","name_ar":"منخفض الثرثار","name_bn":"বুহায়রত আথ থর্থর","name_de":"Tharthar","name_en":"Tharthar","name_es":"Tharthar","name_fr":"du Thartar","name_el":"Μπουχαϊράτ ατ Ταρτάρ","name_hi":"बुहारत अथ थारथार","name_hu":"Buhayrat ath Tharthar","name_id":"Tharthar","name_it":"Buhayrat ath Thartar","name_ja":"サルサール湖","name_ko":"부하이라트 타르타르","name_nl":"Tharthar","name_pl":"Jezioro Tharthar","name_pt":"Tharthar","name_ru":"Тартар","name_sv":"Tharthar","name_tr":"Buhayrat ath Tharthar","name_vi":"Tharthar","name_zh":"塞尔萨尔湖","ne_id":1159123125,"name_fa":"دریاچه ثرثار","name_he":"בוהאיראט אט טארטאר","name_uk":"Озеро Тартар","name_ur":"بوحیرت اتھ تھرتھار","name_zht":"塞尔萨尔湖"}},
{"type":"Feature","geometry":{"type":"Polygon","coordinates":[[[43.878,32.688],[43.72,32.808],[43.55,33.079],[43.469,33.011],[43.438,32.715],[43.482,32.642],[43.793,32.535],[43.878,32.688]]]},"properties":{"scalerank":0,"featurecla":"Alkaline Lake","name":"Razzaza Lake","name_alt":"Lake Razazah","note":"","admin":"","namepar":"Lake Milh","min_zoom":3,"min_label":4,"name_abb":"L. Razazah","label":"Lake Razazah","wikidataid":"Q2007652","name_ar":"بحيرة الرزازة","name_bn":"লেক রাজাজাহ","name_de":"Razzaza","name_en":"Milh","name_es":"Razzaza","name_fr":"Lake Milh","name_el":"Λίμνη Ραζαζά","name_hi":"रज़ाज़ाह झील","name_hu":"Razazah-tó","name_id":"Danau Razazah","name_it":"Milh","name_ja":"ミル湖","name_ko":"레이크라자자","name_nl":"Lake Milh","name_pl":"Jezioro Razazah","name_pt":"Lago Razzaza","name_ru":"Эль-Мильх","name_sv":"Razzaza","name_tr":"Razazah Gölü","name_vi":"Hồ Razazah","name_zh":"赖扎宰湖","ne_id":1159126735,"name_fa":"دریاچه رزازه","name_he":"אגם רזאזה","name_uk":"озеро Разаза","name_ur":"جھیل رازازا","name_zht":"赖扎宰湖"}},
{"type":"Feature","geometry":{"type":"Polygon","coordinates":[[[35.585,31.724],[35.421,31.619],[35.403,31.348],[35.545,31.359],[35.585,31.724]]]},"properties":{"scalerank":0,"featurecla":"Alkaline Lake","name":"Dead Sea","name_alt":"","note":"","admin":"","namepar":"","min_zoom":3,"min_label":4,"name_abb":"Dead Sea","label":"Dead Sea","wikidataid":"Q23883","name_ar":"البحر الميت","name_bn":"মৃত সাগর","name_de":"Totes Meer","name_en":"Dead Sea","name_es":"mar Muerto","name_fr":"mer Morte","name_el":"Νεκρά θάλασσα","name_hi":"मृत सागर","name_hu":"Holt-tenger","name_id":"Laut Mati","name_it":"Mar Morto","name_ja":"死海","name_ko":"사해","name_nl":"Dode Zee","name_pl":"Morze Martwe","name_pt":"Mar Morto","name_ru":"Мёртвое море","name_sv":"Döda havet","name_tr":"Lut","name_vi":"Biển Chết","name_zh":"死海","ne_id":1159126747,"name_fa":"دریای مرده","name_he":"ים המלח","name_uk":"Мертве море","name_ur":"بحیرہ مردار","name_zht":"死海"}},
{"type":"Feature","geometry":{"type":"Polygon","coordinates":[[[27.497,58.184],[27.624,58.014],[27.911,57.896],[28.169,57.915],[28.097,58.044],[27.865,58.173],[27.569,58.215],[27.497,58.184]]]},"properties":{"scalerank":0,"featurecla":"Lake","name":"Lake Pskov","name_alt":"Pihkva järv|Pskovskoe Ozero","note":"","admin":"admin-0","namepar":"","min_zoom":3,"min_label":4,"name_abb":"L. Pskov","label":"Pskov","wikidataid":"Q1144905","name_ar":"بحيرة بسكوف","name_bn":"লেক পস্কভ","name_de":"Pleskauer","name_en":"Pihkva","name_es":"Pskos","name_fr":"Pihkva","name_el":"Λίμνη Πσκοβ","name_hi":"पस्कोव झील","name_hu":"Pszkovi-tó","name_id":"Danau Pskov","name_it":"Lago di Pskov","name_ja":"プスコフ湖","name_ko":"프스콥스코예호","name_nl":"Pskovskoe ozero","name_pl":"Jezioro Pskowskie","name_pt":"Lago Peipus","name_ru":"Псковское озеро","name_sv":"Pskovsjön","name_tr":"Pskov Gölü","name_vi":"Hồ Pskov","name_zh":"普斯科夫湖","ne_id":1159113451,"name_fa":"دریاچه پسکوف","name_he":"אגם פסקוב","name_uk":"Псковське озеро","name_ur":"جھیل سکوو","name_zht":"普斯科夫湖"}},
{"type":"Feature","geometry":{"type":"Polygon","coordinates":[[[45.666,37.742],[45.436,37.806],[45.487,38.073],[45.357,38.264],[45.106,38.264],[45.171,38.144],[45.087,37.885],[45.234,37.764],[45.292,37.438],[45.365,37.227],[45.536,37.135],[45.663,37.288],[45.831,37.341],[45.858,37.426],[45.666,37.742]]]},"properties":{"scalerank":0,"featurecla":"Alkaline Lake","name":"Lake Urmia","name_alt":"","note":"","admin":"","namepar":"","min_zoom":4,"min_label":5,"name_abb":"L. Urmia","label":"Lake Urmia","wikidataid":"Q199551","name_ar":"بحيرة أرومية","name_bn":"উর্মিয়া হ্রদ","name_de":"Urmiasee","name_en":"Urmia","name_es":"Urmía","name_fr":"Ourmia","name_el":"Λίμνη Ούρμια","name_hi":"उर्मिया झील","name_hu":"Urmia-tó","name_id":"Urmia","name_it":"Urmia","name_ja":"オルーミーイェ湖","name_ko":"우르미아호","name_nl":"Urmiameer","name_pl":"Urmia","name_pt":"Urmia","name_ru":"Урмия","name_sv":"Urmiasjön","name_tr":"Urmiye","name_vi":"Urmia","name_zh":"尔米亚湖","ne_id":1159126761,"name_fa":"دریاچه ارومیه","name_he":"ימת אורמיה","name_uk":"Урмія","name_ur":"بحیرہ ارومیہ","name_zht":"爾米亞湖"}},
{"type":"Feature","geometry":{"type":"Polygon","coordinates":[[[27.569,58.215],[27.583,58.306],[27.821,58.485],[27.748,58.912],[27.524,59.007],[27.107,58.954],[26.966,58.806],[27.157,58.648],[27.237,58.452],[27.497,58.184],[27.569,58.215]]]},"properties":{"scalerank":0,"featurecla":"Lake","name":"Lake Peipus","name_alt":"Lake Peipsi-Pihkva","note":"","admin":"admin-0","namepar":"","min_zoom":4,"min_label":5,"name_abb":"L. Peipus","label":"Lake Peipus","wikidataid":"Q19253","name_ar":"بحيرة بيبوس","name_bn":"লেক পেইপুস","name_de":"Peipussee","name_en":"Peipus","name_es":"Peipus","name_fr":"Peïpous","name_el":"Πέιπους","name_hi":"पीपुस झील","name_hu":"Peipus-Pszkovi-tó","name_id":"Peipsi","name_it":"dei Ciudi","name_ja":"ペイプシ湖","name_ko":"페이푸스호","name_nl":"Peipusmeer","name_pl":"Pejpus","name_pt":"Peipus","name_ru":"Псковско-Чудское озеро","name_sv":"Peipus","name_tr":"Peipus","name_vi":"Peipus","name_zh":"楚德湖","ne_id":1159113563,"name_fa":"دریاچه پیپوس","name_he":"אגם פייפסי","name_uk":"Чудсько-Псковське озеро","name_ur":"جھیل پائیپس","name_zht":"楚德湖"}},
{"type":"Feature","geometry":{"type":"Polygon","coordinates":[[[33.167,49.019],[33.194,49.119],[32.754,49.485],[32.632,49.382],[32.114,49.541],[31.9,49.513],[32.408,49.302],[32.77,49.116],[33.167,49.019]]]},"properties":{"scalerank":0,"featurecla":"Reservoir","name":"Kremenchuk Reservoir","name_alt":"","note":"","admin":"","namepar":"","min_zoom":4,"min_label":5,"name_abb":"Kremenchuk Res.","label":"Kremenchuk Reservoir","wikidataid":"Q1431500","name_ar":"خزان كريمنشوك","name_bn":"ক্রেমেনচুক রিজার্ভার","name_de":"Krementschuker Stausee","name_en":"Kremenchuk","name_es":"Kremenchuk","name_fr":"Krementchouk","name_el":"Τεχνητή Λίμνη Κρεμεντσουκ","name_hi":"क्रेमेनचुक जलाशय","name_hu":"Kremencsuk-víztározó","name_id":"Reservoir Kremenchuk","name_it":"Serbatoio Kremenchuk","name_ja":"クレメンチュク貯水池","name_ko":"크레멘추크 레저보어","name_nl":"Kremenchuk","name_pl":"Zbiornik Kremieńczucki","name_pt":"Represa de Kremenchuk","name_ru":"Кременчугское водохранилище","name_sv":"Krementjukdammen","name_tr":"Kremenchuk Rezervuarı","name_vi":"Hồ Kremenchuk","name_zh":"克列缅丘格水库","ne_id":1159125001,"name_fa":"مخزن سد کرمنچوک","name_he":"מאגר קרמנצ'וק","name_uk":"Кременчуцьке водосховище","name_ur":"کریمینچک ریزروائر","name_zht":"克列緬丘格水庫"}},
{"type":"Feature","geometry":{"type":"Polygon","coordinates":[[[33.458,38.854],[33.424,39.056],[33.293,38.967],[33.158,38.772],[33.236,38.667],[33.533,38.523],[33.674,38.712],[33.458,38.854]]]},"properties":{"scalerank":0,"featurecla":"Alkaline Lake","name":"Lake Tuz","name_alt":"","note":"","admin":"","namepar":"","min_zoom":4,"min_label":5,"name_abb":"L. Tuz","label":"Lake Tuz","wikidataid":"Q211823","name_ar":"بحيرة طوز","name_bn":"লেক তুজ","name_de":"Tuz","name_en":"Tuz","name_es":"Tuz","name_fr":"Tuz","name_el":"Λίμνη Τουζ","name_hi":"तुज़ झील","name_hu":"Tuz-tó","name_id":"Danau Tuz","name_it":"Salato","name_ja":"トゥズ湖","name_ko":"레이크 투즈","name_nl":"Tuz","name_pl":"Tuz","name_pt":"Tuz","name_ru":"Туз","name_sv":"Tuz","name_tr":"Tuz","name_vi":"Tuz","name_zh":"图兹湖","ne_id":1159126815,"name_fa":"دریاچه توز","name_he":"ימת טוז","name_uk":"Туз","name_ur":"جھیل ٹز","name_zht":"圖茲湖"}},
{"type":"Feature","geometry":{"type":"Polygon","coordinates":[[[27.535,60.938],[27.744,60.95],[27.849,60.984],[27.81,61.044],[27.579,60.984],[27.535,60.938]]]},"properties":{"scalerank":0,"featurecla":"Lake","name":"","name_alt":"","note":"_untitled_22","admin":"","namepar":"","min_zoom":4,"min_label":5,"name_abb":"","label":"","wikidataid":"","name_ar":"","name_bn":"","name_de":"","name_en":"","name_es":"","name_fr":"","name_el":"","name_hi":"","name_hu":"","name_id":"","name_it":"","name_ja":"","name_ko":"","name_nl":"","name_pl":"","name_pt":"","name_ru":"","name_sv":"","name_tr":"","name_vi":"","name_zh":"","ne_id":1159113653,"name_fa":"","name_he":"","name_uk":"","name_ur":"","name_zht":""}},
{"type":"Feature","geometry":{"type":"Polygon","coordinates":[[[30.868,61.974],[31.02,61.929],[31.027,62],[30.868,61.974]]]},"properties":{"scalerank":0,"featurecla":"Lake","name":"","name_alt":"","note":"_untitled_2","admin":"","namepar":"","min_zoom":4,"min_label":5,"name_abb":"","label":"","wikidataid":"","name_ar":"","name_bn":"","name_de":"","name_en":"","name_es":"","name_fr":"","name_el":"","name_hi":"","name_hu":"","name_id":"","name_it":"","name_ja":"","name_ko":"","name_nl":"","name_pl":"","name_pt":"","name_ru":"","name_sv":"","name_tr":"","name_vi":"","name_zh":"","ne_id":1159113979,"name_fa":"","name_he":"","name_uk":"","name_ur":"","name_zht":""}},
{"type":"Feature","geometry":{"type":"Polygon","coordinates":[[[31.531,58.23],[31.637,58.388],[31.298,58.477],[31.17,58.359],[30.876,58.214],[31.394,58.142],[31.531,58.23]]]},"properties":{"scalerank":0,"featurecla":"Lake","name":"Lake Il'Men'","name_alt":"","note":"","admin":"","namepar":"","min_zoom":4,"min_label":5,"name_abb":"L. Il'Men'","label":"Lake Il'Men'","wikidataid":"Q203462","name_ar":"بحيرة إيلمين","name_bn":"লেক ইল'মেন","name_de":"Ilmensee","name_en":"Ilmen","name_es":"Ilmen","name_fr":"Ilmen","name_el":"Λίμνη Ιλλ-Μεν","name_hi":"इल'मेन' झील","name_hu":"Ilmeny-tó","name_id":"Ilmen","name_it":"Il'men'","name_ja":"イリメニ湖","name_ko":"일멘호","name_nl":"Ilmenmeer","name_pl":"Ilmień","name_pt":"Ilmen","name_ru":"Ильмень","name_sv":"Ilmen","name_tr":"İlmen","name_vi":"Hồ Il'Men'","name_zh":"伊尔门湖","ne_id":1159123281,"name_fa":"دریاچه ایلمن","name_he":"אגם אילמן","name_uk":"Ільмень","name_ur":"جھیل آئیمین","name_zht":"伊爾門湖"}},
{"type":"Feature","geometry":{"type":"Polygon","coordinates":[[[6.874,46.432],[6.588,46.529],[6.344,46.458],[6.336,46.361],[6.874,46.432]]]},"properties":{"scalerank":0,"featurecla":"Lake","name":"Lake Geneva","name_alt":"Lac Léman","note":"","admin":"","namepar":"","min_zoom":4,"min_label":5,"name_abb":"L. Geneva","label":"Lake Geneva","wikidataid":"Q6403","name_ar":"بحيرة ليمان","name_bn":"লেক জেনেভা","name_de":"Genfersee","name_en":"Geneva","name_es":"Lemán","name_fr":"Léman","name_el":"Λίμνη της Γενεύης","name_hi":"जेनेवा झील","name_hu":"Genfi-tó","name_id":"Jenewa","name_it":"Lemano","name_ja":"レマン湖","name_ko":"레만호","name_nl":"Meer van Genève","name_pl":"Jezioro Genewskie","name_pt":"Léman","name_ru":"Женевское озеро","name_sv":"Genèvesjön","name_tr":"Cenevre","name_vi":"Genève","name_zh":"萊芒湖","ne_id":1159114143,"name_fa":"دریاچه لمان","name_he":"אגם ז'נבה","name_uk":"Женевське озеро","name_ur":"جھیل جینیوا","name_zht":"萊芒湖"}},
{"type":"Feature","geometry":{"type":"Polygon","coordinates":[[[-6.488,54.723],[-6.585,54.56],[-6.354,54.502],[-6.318,54.709],[-6.488,54.723]]]},"properties":{"scalerank":0,"featurecla":"Lake","name":"Lough Neagh","name_alt":"","note":"","admin":"","namepar":"","min_zoom":4,"min_label":5,"name_abb":"Lough Neagh","label":"Lough Neagh","wikidataid":"Q206942","name_ar":"بحيرة لوك ناي","name_bn":"লাফ নেইহ","name_de":"Neagh","name_en":"Neagh","name_es":"Neagh","name_fr":"Neagh","name_el":"Λοχ Νέι","name_hi":"लफ नेघ","name_hu":"Lough Neagh","name_id":"Neagh","name_it":"Neagh","name_ja":"ネイ湖","name_ko":"러프 네이그","name_nl":"Neagh","name_pl":"Neagh","name_pt":"Neagh","name_ru":"Лох-Ней","name_sv":"Neagh","name_tr":"Neagh","name_vi":"Hồ Lough Neagh","name_zh":"内湖","ne_id":1159114155,"name_fa":"لخ نی","name_he":"לוך ניי","name_uk":"Лох-Ней","name_ur":"لف نیاگھ","name_zht":"內湖"}},
{"type":"Feature","geometry":{"type":"Polygon","coordinates":[[[14.933,58.784],[14.632,58.68],[14.507,58.561],[14.213,58.15],[14.121,57.925],[14.245,57.809],[14.499,58.085],[14.686,58.395],[14.946,58.511],[14.933,58.784]]]},"properties":{"scalerank":0,"featurecla":"Lake","name":"Vättern","name_alt":"","note":"","admin":"","namepar":"","min_zoom":4,"min_label":5,"name_abb":"Vättern","label":"Vättern","wikidataid":"Q188195","name_ar":"بحيرة فترن","name_bn":"ভ্যাটার্ন","name_de":"Vättern","name_en":"Vättern","name_es":"Vättern","name_fr":"Vättern","name_el":"Βέτερν","name_hi":"वैटर्न","name_hu":"Vättern-tó","name_id":"Vättern","name_it":"Vättern","name_ja":"ヴェッテルン湖","name_ko":"베테른호","name_nl":"Vättermeer","name_pl":"Wetter","name_pt":"Vättern","name_ru":"Веттерн","name_sv":"Vättern","name_tr":"Vättern","name_vi":"Hồ Vättern","name_zh":"韦特恩湖","ne_id":1159114173,"name_fa":"دریاچه وترن","name_he":"אגם וטרן","name_uk":"Веттерн","name_ur":"ویٹرن","name_zht":"韋特恩湖"}},
{"type":"Feature","geometry":{"type":"Polygon","coordinates":[[[42.989,38.346],[43.148,38.337],[43.318,38.489],[43.186,38.603],[43.292,38.813],[43.531,38.898],[43.436,38.988],[43.152,38.948],[43.079,38.809],[42.526,38.745],[42.353,38.5],[42.683,38.457],[42.882,38.477],[42.989,38.346]]]},"properties":{"scalerank":0,"featurecla":"Alkaline Lake","name":"Lake Van","name_alt":"","note":"","admin":"","namepar":"","min_zoom":4,"min_label":5,"name_abb":"L. Van","label":"Lake Van","wikidataid":"Q126307","name_ar":"بحيرة وان","name_bn":"লেক ভ্যান","name_de":"Vansee","name_en":"Van","name_es":"Van","name_fr":"Van","name_el":"Βαν","name_hi":"वान झील","name_hu":"Van-tó","name_id":"Van","name_it":"Van","name_ja":"ヴァン湖","name_ko":"반호","name_nl":"Vanmeer","name_pl":"Wan","name_pt":"Van","name_ru":"Ван","name_sv":"Vansjön","name_tr":"Van","name_vi":"Van","name_zh":"凡湖","ne_id":1159126829,"name_fa":"دریاچه وان","name_he":"ימת ואן","name_uk":"Ван","name_ur":"جھیل وان","name_zht":"凡湖"}},
{"type":"Feature","geometry":{"type":"Polygon","coordinates":[[[27.037,61.662],[26.9,61.753],[26.873,61.902],[26.575,61.937],[26.29,61.854],[26.77,61.666],[27.037,61.662]]]},"properties":{"scalerank":0,"featurecla":"Lake","name":"","name_alt":"","note":"_untitled_25","admin":"","namepar":"","min_zoom":4.7,"min_label":6,"name_abb":"","label":"","wikidataid":"","name_ar":"","name_bn":"","name_de":"","name_en":"","name_es":"","name_fr":"","name_el":"","name_hi":"","name_hu":"","name_id":"","name_it":"","name_ja":"","name_ko":"","name_nl":"","name_pl":"","name_pt":"","name_ru":"","name_sv":"","name_tr":"","name_vi":"","name_zh":"","ne_id":1159114377,"name_fa":"","name_he":"","name_uk":"","name_ur":"","name_zht":""}},
{"type":"Feature","geometry":{"type":"Polygon","coordinates":[[[16.404,59.309],[15.728,59.298],[15.921,59.194],[16.404,59.309]]]},"properties":{"scalerank":0,"featurecla":"Lake","name":"Hjälmaren","name_alt":"","note":"","admin":"","namepar":"","min_zoom":4.7,"min_label":6,"name_abb":"Hjälmaren","label":"Hjälmaren","wikidataid":"Q211425","name_ar":"هجالمارين","name_bn":"হজল্মারেন","name_de":"Hjälmaren","name_en":"Hjälmaren","name_es":"Hjälmaren","name_fr":"Hjälmaren","name_el":"Χγιελμαρέν","name_hi":"हल्मारेने","name_hu":"Hjälmaren","name_id":"Hjälmaren","name_it":"Hjälmaren","name_ja":"イェルマレン湖","name_ko":"옐마렌호","name_nl":"Hjälmarmeer","name_pl":"Hjälmar","name_pt":"Hjälmaren","name_ru":"Ельмарен","name_sv":"Hjälmaren","name_tr":"Hjälmaren","name_vi":"Hồ Hjälmaren","name_zh":"耶尔马伦湖","ne_id":1159114391,"name_fa":"هیلمارن","name_he":"ילמארן","name_uk":"Єльмарен","name_ur":"جالمارین","name_zht":"耶爾馬倫湖"}},
{"type":"Feature","geometry":{"type":"Polygon","coordinates":[[[37.232,60.164],[37.469,60.088],[37.968,60.086],[37.981,60.239],[37.737,60.329],[37.4,60.289],[37.232,60.164]]]},"properties":{"scalerank":0,"featurecla":"Lake","name":"Lake Beloye","name_alt":"","note":"","admin":"","namepar":"","min_zoom":4.7,"min_label":6,"name_abb":"L. Beloye","label":"Lake Beloye","wikidataid":"Q953140","name_ar":"بحيرة بيلوي","name_bn":"লেক বেলোয়ে","name_de":"Weißer","name_en":"Beloe","name_es":"Béloye","name_fr":"Beloïe","name_el":"Λίμνη Μπελόε","name_hi":"बेलोये झील","name_hu":"Beloye-tó","name_id":"Danau Beloye","name_it":"Bianco","name_ja":"ベロエ湖","name_ko":"레이크 벨로예","name_nl":"Belojemeer","name_pl":"Jezioro Białe","name_pt":"Lago Beloye","name_ru":"Белое озеро","name_sv":"Beloje ozero","name_tr":"Beyaz Göl","name_vi":"Hồ Beloye","name_zh":"白湖","ne_id":1159114573,"name_fa":"دریاچه بلویه","name_he":"אגם בלויה","name_uk":"Біле озеро","name_ur":"جھیل بیل اوئے","name_zht":"白湖"}},
{"type":"Feature","geometry":{"type":"Polygon","coordinates":[[[17.586,46.766],[18.143,46.963],[18.078,47.055],[17.586,46.766]]]},"properties":{"scalerank":0,"featurecla":"Lake","name":"Lake Balaton","name_alt":"","note":"","admin":"","namepar":"","min_zoom":4.7,"min_label":6,"name_abb":"L. Balaton","label":"Lake Balaton","wikidataid":"Q6383","name_ar":"بالاتون","name_bn":"লেক বালাতোন","name_de":"Balaton","name_en":"Balaton","name_es":"Balaton","name_fr":"Balaton","name_el":"Μπάλατον","name_hi":"बालाटोन झील","name_hu":"Balaton","name_id":"Balaton","name_it":"Balaton","name_ja":"バラトン湖","name_ko":"벌러톤호","name_nl":"Balatonmeer","name_pl":"Balaton","name_pt":"Balaton","name_ru":"Балатон","name_sv":"Balaton","name_tr":"Balaton","name_vi":"Balaton","name_zh":"巴拉顿湖","ne_id":1159114609,"name_fa":"دریاچه بالاتون","name_he":"אגם בלטון","name_uk":"Балатон","name_ur":"جھیل بالاٹون","name_zht":"巴拉顿湖"}},
{"type":"Feature","geometry":{"type":"Polygon","coordinates":[[[38.651,61.344],[38.837,61.207],[38.917,61.445],[38.651,61.344]]]},"properties":{"scalerank":0,"featurecla":"Lake","name":"","name_alt":"","note":"_untitled_16","admin":"","namepar":"","min_zoom":4.7,"min_label":6,"name_abb":"","label":"","wikidataid":"","name_ar":"","name_bn":"","name_de":"","name_en":"","name_es":"","name_fr":"","name_el":"","name_hi":"","name_hu":"","name_id":"","name_it":"","name_ja":"","name_ko":"","name_nl":"","name_pl":"","name_pt":"","name_ru":"","name_sv":"","name_tr":"","name_vi":"","name_zh":"","ne_id":1159114823,"name_fa":"","name_he":"","name_uk":"","name_ur":"","name_zht":""}},
{"type":"Feature","geometry":{"type":"Polygon","coordinates":[[[26.143,58.327],[25.928,58.305],[26.051,58.146],[26.143,58.327]]]},"properties":{"scalerank":0,"featurecla":"Lake","name":"Võrtsjärv","name_alt":"","note":"","admin":"","namepar":"","min_zoom":4.7,"min_label":6,"name_abb":"Võrtsjärv","label":"Võrtsjärv","wikidataid":"Q211516","name_ar":"فورجاف","name_bn":"ভর্টসজার্ভ","name_de":"Võrtsjärv","name_en":"Võrtsjärv","name_es":"Võrtsjärv","name_fr":"Võrtsjärv","name_el":"Βίρτσγιαρβ","name_hi":"वोर्त्स्जार्व","name_hu":"Võrts-tó","name_id":"Võrtsjärv","name_it":"Võrtsjärv","name_ja":"ヴォルツ湖","name_ko":"페르트스야르프","name_nl":"Võrtsjärv","name_pl":"Võrtsjärv","name_pt":"Võrtsjärv","name_ru":"Выртсъярв","name_sv":"Võrtsjärv","name_tr":"Võrtsjärv","name_vi":"Hồ Võrtsjärv","name_zh":"沃尔茨湖","ne_id":1159115043,"name_fa":"دریاچه وورتسیارو","name_he":"אגם וורטסיארב","name_uk":"Виртс'ярв","name_ur":"وورٹسجارو","name_zht":"沃爾茨湖"}},
{"type":"Feature","geometry":{"type":"Polygon","coordinates":[[[44.99,40.515],[45.183,40.385],[45.313,40.149],[45.651,40.195],[45.602,40.318],[45.373,40.479],[45.015,40.614],[44.99,40.515]]]},"properties":{"scalerank":0,"featurecla":"Lake","name":"Lake Sevan","name_alt":"Lake Sevana","note":"","admin":"","namepar":"","min_zoom":4.7,"min_label":6,"name_abb":"L. Sevan","label":"Lake Sevan","wikidataid":"Q181932","name_ar":"بحيرة سيفان","name_bn":"লেক সেভেন","name_de":"Sewansee","name_en":"Sevan","name_es":"Sevan","name_fr":"Sevan","name_el":"λίμνη Σεβάν","name_hi":"सेवन झील","name_hu":"Szeván-tó","name_id":"Sevan","name_it":"Sevan","name_ja":"セヴァン湖","name_ko":"세반호","name_nl":"Sevanmeer","name_pl":"Sewan","name_pt":"Sevan","name_ru":"Севан","name_sv":"Sevansjön","name_tr":"Sevan","name_vi":"Sevan","name_zh":"塞凡湖","ne_id":1159115109,"name_fa":"دریاچه سوان","name_he":"ימת סוואן","name_uk":"Севан","name_ur":"جھیل سیوان","name_zht":"塞凡湖"}},
{"type":"Feature","geometry":{"type":"Polygon","coordinates":[[[47.608,30.689],[47.5,30.809],[47.29,30.772],[46.748,30.903],[46.822,30.725],[47.104,30.74],[47.491,30.663],[47.608,30.689]]]},"properties":{"scalerank":0,"featurecla":"Alkaline Lake","name":"Lake Hammar","name_alt":"","note":"","admin":"","namepar":"","min_zoom":4.7,"min_label":6,"name_abb":"L. Hammar","label":"Lake Hammar","wikidataid":"Q2668029","name_ar":"هور الحمّار","name_bn":"লেক হ্যামার","name_de":"Hammar-See","name_en":"Hammar","name_es":"Hammar","name_fr":"Al-hammar","name_el":"Λίμνη Χαμάρ","name_hi":"हमार झील","name_hu":"Hammar-tó","name_id":"Danau Hammar","name_it":"Lake Hammar","name_ja":"ハンマール湖","name_ko":"레이크 함마르","name_nl":"Lake Hammar","name_pl":"Jezioro Hammar","name_pt":"Lago Hammar","name_ru":"Эль-Хаммар","name_sv":"Hammar","name_tr":"Hamar","name_vi":"Hồ Hammar","name_zh":"哈马尔湖","ne_id":1159126873,"name_fa":"هور حمار","name_he":"אגם האמר","name_uk":"озеро Гаммар","name_ur":"جھیل حمار","name_zht":"哈马尔湖"}},
{"type":"Feature","geometry":{"type":"Polygon","coordinates":[[[39.267,59.783],[39.402,59.624],[39.734,59.48],[39.707,59.634],[39.267,59.783]]]},"properties":{"scalerank":0,"featurecla":"Reservoir","name":"Ozero Kubenskoye","name_alt":"","note":"_untitled_26","admin":"","namepar":"","min_zoom":4.7,"min_label":6,"name_abb":"Oz. Kubenskoye","label":"Ozero Kubenskoye","wikidataid":"Q1463552","name_ar":"بحيرة كوبنسكوي","name_bn":"ওজেরো কুবেন্সকোয়ে","name_de":"Kubenasee","name_en":"Kubenskoe","name_es":"Kubenskoye","name_fr":"Koubenskoïe","name_el":"Οζέρο Κουμπενσκόγιε","name_hi":"ओज़ेरो कुबेन्सकोये","name_hu":"Kubenszkoje-tó","name_id":"Danau Kubenskoye","name_it":"Kubenskoe","name_ja":"クベンスコエ湖","name_ko":"오제로 쿠벤스코예","name_nl":"Koebenskoe ozero","name_pl":"Jezioro Kubieńskie","name_pt":"Lago Kubenskoye","name_ru":"Кубенское озеро","name_sv":"Ozero Kubenskoje","name_tr":"Kubena","name_vi":"Hồ Ozero Kubenskoye","name_zh":"库边斯科耶湖","ne_id":1159125041,"name_fa":"اوزرو کوبنسکویه","name_he":"אגם קובנסקויה","name_uk":"Кубенське озеро","name_ur":"اوزیرو کوبینسکوئے","name_zht":"庫邊斯科耶湖"}},
{"type":"Feature","geometry":{"type":"Polygon","coordinates":[[[9.731,47.527],[9.113,47.772],[9.25,47.598],[9.452,47.514],[9.731,47.527]]]},"properties":{"scalerank":0,"featurecla":"Lake","name":"Bodensee","name_alt":"Lake Constance","note":"","admin":"admin-0","namepar":"","min_zoom":4.7,"min_label":6,"name_abb":"Bodensee","label":"Bodensee","wikidataid":"Q4127","name_ar":"بحيرة كونستانس","name_bn":"বোদেন্সি","name_de":"Bodensee","name_en":"Constance","name_es":"Constanza","name_fr":"Constance","name_el":"Λίμνη Κωνσταντίας","name_hi":"बोडेनसी","name_hu":"Boden-tó","name_id":"Konstanz","name_it":"Costanza","name_ja":"ボーデン湖","name_ko":"보덴호","name_nl":"Bodenmeer","name_pl":"Jezioro Bodeńskie","name_pt":"Constança","name_ru":"Боденское озеро","name_sv":"Bodensjön","name_tr":"Konstanz","name_vi":"Bodensee","name_zh":"博登湖","ne_id":1159114259,"name_fa":"دریاچه کنستانس","name_he":"ימת קונסטנץ","name_uk":"Боденське озеро","name_ur":"جھیل کونسٹانس","name_zht":"博登湖"}},
{"type":"Feature","geometry":{"type":"Polygon","coordinates":[[[23.241,61.417],[23.053,61.429],[23.046,61.386],[23.241,61.417]]]},"properties":{"scalerank":0,"featurecla":"Lake","name":"","name_alt":"","note":"_untitled_23","admin":"","namepar":"","min_zoom":4.7,"min_label":6,"name_abb":"","label":"","wikidataid":"","name_ar":"","name_bn":"","name_de":"","name_en":"","name_es":"","name_fr":"","name_el":"","name_hi":"","name_hu":"","name_id":"","name_it":"","name_ja":"","name_ko":"","name_nl":"","name_pl":"","name_pt":"","name_ru":"","name_sv":"","name_tr":"","name_vi":"","name_zh":"","ne_id":1159114461,"name_fa":"","name_he":"","name_uk":"","name_ur":"","name_zht":""}},
{"type":"Feature","geometry":{"type":"Polygon","coordinates":[[[35.522,31.177],[35.446,31.232],[35.377,31.178],[35.417,31.104],[35.522,31.177]]]},"properties":{"scalerank":0,"featurecla":"Alkaline Lake","name":"Dead Sea","name_alt":"","note":"_untitled_13","admin":"","namepar":"","min_zoom":4.7,"min_label":6,"name_abb":"Dead Sea","label":"Dead Sea","wikidataid":"Q23883","name_ar":"البحر الميت","name_bn":"মৃত সাগর","name_de":"Totes Meer","name_en":"Dead Sea","name_es":"mar Muerto","name_fr":"mer Morte","name_el":"Νεκρά θάλασσα","name_hi":"मृत सागर","name_hu":"Holt-tenger","name_id":"Laut Mati","name_it":"Mar Morto","name_ja":"死海","name_ko":"사해","name_nl":"Dode Zee","name_pl":"Morze Martwe","name_pt":"Mar Morto","name_ru":"Мёртвое море","name_sv":"Döda havet","name_tr":"Lut","name_vi":"Biển Chết","name_zh":"死海","ne_id":1159126865,"name_fa":"دریای مرده","name_he":"ים המלח","name_uk":"Мертве море","name_ur":"بحیرہ مردار","name_zht":"死海"}},
{"type":"Feature","geometry":{"type":"Polygon","coordinates":[[[35.632,32.782],[35.623,32.878],[35.565,32.892],[35.534,32.803],[35.632,32.782]]]},"properties":{"scalerank":0,"featurecla":"Lake","name":"Sea of Galilee","name_alt":"","note":"","admin":"","namepar":"","min_zoom":4.7,"min_label":6,"name_abb":"Sea of Galilee","label":"Sea of Galilee","wikidataid":"Q126982","name_ar":"بحيرة طبريا","name_bn":"গালীল সাগর","name_de":"Genezareth","name_en":"Sea of Galilee","name_es":"mar de Galilea","name_fr":"Tibériade","name_el":"Θάλασσα της Γαλιλαίας","name_hi":"गलील सागर","name_hu":"Galileai-tenger","name_id":"Galilea","name_it":"Tiberiade","name_ja":"ガリラヤ湖","name_ko":"갈릴리 호","name_nl":"Meer van Tiberias","name_pl":"Jezioro Tyberiadzkie","name_pt":"Mar da Galileia","name_ru":"Тивериадское озеро","name_sv":"Galileiska sjön","name_tr":"Taberiye","name_vi":"Biển Galilee","name_zh":"加利利海","ne_id":1159114879,"name_fa":"دریاچه طبریه","name_he":"הכנרת","name_uk":"Тиверіадське озеро","name_ur":"بحیرہ طبريہ","name_zht":"加利利海"}},
{"type":"Feature","geometry":{"type":"Polygon","coordinates":[[[35.399,45.255],[34.84,45.843],[34.754,46.131],[34.164,46.203],[33.885,46.06],[34.363,46],[34.38,45.901],[34.618,45.915],[34.645,45.837],[35,45.631],[35.089,45.358],[35.399,45.255]]]},"properties":{"scalerank":2,"featurecla":"Alkaline Lake","name":"Syvash","name_alt":"","note":"","admin":"","namepar":"","min_zoom":2,"min_label":3.7,"name_abb":"Syvash","label":"Syvash","wikidataid":"Q1130771","name_ar":"سيفاش","name_bn":"সিভ্যাশ","name_de":"Sywasch","name_en":"Syvash","name_es":"Mar de Syvach","name_fr":"Syvach","name_el":"Σιβάς","name_hi":"सिवाशो","name_hu":"Syvash","name_id":"Syvash","name_it":"Sivaš","name_ja":"腐海","name_ko":"시바시","name_nl":"Sivash","name_pl":"Siwasz","name_pt":"Sivash","name_ru":"Сиваш","name_sv":"Syvasj","name_tr":"Sivaş","name_vi":"Hồ Syvash","name_zh":"锡瓦什湖","ne_id":1159126643,"name_fa":"سیواش","name_he":"אגם סיואש","name_uk":"Сиваш","name_ur":"سیواش","name_zht":"錫瓦什湖"}},
{"type":"Feature","geometry":{"type":"Polygon","coordinates":[[[29.561,62],[29.342,61.971],[29.255,61.807],[28.539,61.841],[28.262,61.744],[28.185,61.544],[28.054,61.511],[27.816,61.728],[27.459,61.523],[27.296,61.557],[27.27,61.324],[27.625,61.214],[27.862,61.252],[27.988,61.08],[28.292,61.08],[28.788,61.204],[28.693,61.484],[28.73,61.671],[29.115,61.6],[29.777,61.889],[29.561,62]],[[28.496,61.478],[28.24,61.394],[28.277,61.71],[28.476,61.723],[28.496,61.478]]]},"properties":{"scalerank":2,"featurecla":"Lake","name":"Lake Saimaa","name_alt":"","note":"","admin":"","namepar":"","min_zoom":2,"min_label":3.7,"name_abb":"L.  Saimaa","label":"Lake Saimaa","wikidataid":"Q192770","name_ar":"سايما","name_bn":"লেক সাইমা","name_de":"Saimaa","name_en":"Saimaa","name_es":"Saimaa","name_fr":"Saimaa","name_el":"Σάιμαα","name_hi":"साइमा झील","name_hu":"Saimaa","name_id":"Saimaa","name_it":"Saimaa","name_ja":"サイマー湖","name_ko":"사이마호","name_nl":"Saimaameer","name_pl":"Saimaa","name_pt":"Saimaa","name_ru":"Сайма","name_sv":"Saimen","name_tr":"Saimaa","name_vi":"Saimaa","name_zh":"塞马湖","ne_id":1159113295,"name_fa":"دریاچه سایما","name_he":"סאימה","name_uk":"Саїмаа","name_ur":"سائی ما","name_zht":"塞馬湖"}},
{"type":"Feature","geometry":{"type":"Polygon","coordinates":[[[25.847,62],[25.598,62],[25.444,61.844],[25.228,61.759],[25.398,61.584],[25.188,61.532],[25.255,61.366],[25.5,61.229],[25.871,61.168],[25.977,61.255],[25.58,61.308],[25.588,61.793],[25.847,62]]]},"properties":{"scalerank":3,"featurecla":"Lake","name":"Päijänne","name_alt":"","note":"","admin":"","namepar":"","min_zoom":3,"min_label":4,"name_abb":"Päijänne","label":"Päijänne","wikidataid":"Q213769","name_ar":"باياني","name_bn":"পাইজান্নে","name_de":"Päijänne","name_en":"Päijänne","name_es":"Päijänne","name_fr":"Päijänne","name_el":"Λίμνη Πάγιαννε","name_hi":"पेजेन्ने","name_hu":"Päijänne","name_id":"Päijänne","name_it":"Päijänne","name_ja":"パイエンネ湖","name_ko":"파이옌느","name_nl":"Päijänne","name_pl":"Päijänne","name_pt":"Päijänne","name_ru":"Пяййянне","name_sv":"Päijänne","name_tr":"Päijänne","name_vi":"Hồ Päijänne","name_zh":"派延奈湖","ne_id":1159113395,"name_fa":"دریاچه پایجانی","name_he":"אגם פאאיאנה","name_uk":"Пяйянне","name_ur":"پائیجانے","name_zht":"派延奈湖"}},
{"type":"Feature","geometry":{"type":"Polygon","coordinates":[[[35.302,47.492],[35.088,47.676],[34.997,47.588],[34.487,47.593],[34.211,47.536],[33.936,47.541],[33.933,47.282],[33.63,47.034],[33.718,46.941],[33.904,47.159],[34.19,47.42],[34.592,47.52],[34.961,47.406],[35.302,47.492]]]},"properties":{"scalerank":4,"featurecla":"Reservoir","name":"Kakhovka Reservoir","name_alt":"","note":"","admin":"","namepar":"","min_zoom":4,"min_label":5,"name_abb":"Kakhovka Res.","label":"Kakhovka Reservoir","wikidataid":"Q1540436","name_ar":"خزان كاخوفكا","name_bn":"কাখোভকা রিজার্ভার","name_de":"Kachowkaer Stausee","name_en":"Kakhovka","name_es":"Kajovka","name_fr":"Kakhovka","name_el":"Τεχνητή Λίμνη Κάκοβα","name_hi":"कखोवका जलाशय","name_hu":"Kakhovka-víztározó","name_id":"Reservoir Kakhovka","name_it":"Serbatoio di Kachovka","name_ja":"カホフカ貯水池","name_ko":"카호브카 저수지","name_nl":"Kakhovka","name_pl":"Zbiornik Kachowski","name_pt":"Represa de Kakhovka","name_ru":"Каховское водохранилище","name_sv":"Kachovka-reservoaren","name_tr":"Kakhovka Rezervuarı","name_vi":"chứa nước Kakhovka","name_zh":"卡霍夫卡水库","ne_id":1159124989,"name_fa":"مخزن سد کاخووکا","name_he":"מאגר קאחובקה","name_uk":"Каховське водосховище","name_ur":"کاکھوا ریزروائر","name_zht":"卡霍夫卡水庫"}},
{"type":"Feature","geometry":{"type":"Polygon","coordinates":[[[48.387,54.168],[48.813,53.939],[48.903,53.828],[48.865,53.648],[49.009,53.46],[49.205,53.368],[49.495,53.436],[49.852,53.426],[49.882,53.486],[49.247,53.502],[49.087,53.534],[49.091,53.794],[49.19,53.807],[49.275,54.071],[49.02,54.015],[48.549,54.241],[48.499,54.334],[48.631,54.435],[48.864,54.462],[48.986,54.728],[49.008,54.97],[49.396,55.016],[49.461,55.114],[50,55.308],[49.788,55.383],[49.455,55.404],[49.172,55.293],[49.159,55.163],[48.859,55.012],[48.864,54.871],[48.745,54.675],[48.416,54.597],[48.387,54.168]]]},"properties":{"scalerank":4,"featurecla":"Reservoir","name":"Samara Reservoir","name_alt":"Kuybyshev Reservoir","note":"","admin":"","namepar":"","min_zoom":4,"min_label":5,"name_abb":"Samara Res.","label":"Samara Reservoir","wikidataid":"Q745937","name_ar":"خزان سمارة","name_bn":"সামারা জলাধার","name_de":"Kuibyschewer Stausee","name_en":"Kuybyshev","name_es":"Kúibyshev","name_fr":"Kouïbychev","name_el":"Τεχνητή Λίμνη Σαμαρά","name_hi":"समारा जलाशय","name_hu":"Kujbisevi-víztározó","name_id":"Reservoir Samara","name_it":"Samara","name_ja":"クイビシェフ湖","name_ko":"사마라 레저보어","name_nl":"Koeybisjevskoe vodochranilisjtsje","name_pl":"Zbiornik Kujbyszewski","name_pt":"Represa de Samara","name_ru":"Куйбышевское водохранилище","name_sv":"Kujbysjevreservoaren","name_tr":"Kuybışev Baraj","name_vi":"Hồ Samara","name_zh":"古比雪夫水库","ne_id":1159125013,"name_fa":"مخزن سد سامارا","name_he":"מאגר סמארה","name_uk":"Куйбишевське водосховище","name_ur":"سامارا ریزروائر","name_zht":"古比雪夫水庫"}},
{"type":"Feature","geometry":{"type":"Polygon","coordinates":[[[26.57,61.623],[26.466,61.735],[25.966,61.743],[25.9,61.647],[26.57,61.623]]]},"properties":{"scalerank":1,"featurecla":"Lake","name":"","name_alt":"","note":"_untitled_21","admin":"","namepar":"","min_zoom":4.7,"min_label":6,"name_abb":"","label":"","wikidataid":"","name_ar":"","name_bn":"","name_de":"","name_en":"","name_es":"","name_fr":"","name_el":"","name_hi":"","name_hu":"","name_id":"","name_it":"","name_ja":"","name_ko":"","name_nl":"","name_pl":"","name_pt":"","name_ru":"","name_sv":"","name_tr":"","name_vi":"","name_zh":"","ne_id":1159114511,"name_fa":"","name_he":"","name_uk":"","name_ur":"","name_zht":""}},
{"type":"Feature","geometry":{"type":"Polygon","coordinates":[[[32.234,22.674],[32.332,22.581],[32.586,22.783],[32.618,22.896],[32.744,23.033],[32.859,22.978],[32.921,23.249],[33.007,23.237],[32.911,23.584],[32.986,23.695],[32.933,23.941],[32.823,23.91],[32.87,23.76],[32.834,23.619],[32.856,23.342],[32.739,23.229],[32.501,22.758],[32.337,22.691],[32.167,22.788],[31.884,22.639],[31.785,22.483],[31.704,22.453],[31.45,22.21],[31.625,22.242],[31.645,22.312],[31.826,22.351],[32.056,22.665],[32.234,22.674]]]},"properties":{"scalerank":5,"featurecla":"Reservoir","name":"Lake Nasser","name_alt":"","note":"","admin":"","namepar":"","min_zoom":4.7,"min_label":6,"name_abb":"L.  Nasser","label":"Lake Nasser","wikidataid":"Q182796","name_ar":"بحيرة ناصر","name_bn":"নাসের হ্রদ","name_de":"Nassersee","name_en":"Nasser","name_es":"Nasser","name_fr":"Nasser","name_el":"Λίμνη Νάσερ","name_hi":"नासेर झील","name_hu":"Nasszer-tó","name_id":"Nasser","name_it":"Nasser","name_ja":"ナセル湖","name_ko":"나세르호","name_nl":"Nassermeer","name_pl":"Jezioro Nasera","name_pt":"Nasser","name_ru":"Насер","name_sv":"Nassersjön","name_tr":"Nasır","name_vi":"Hồ Nasser","name_zh":"纳赛尔湖","ne_id":1159125095,"name_fa":"دریاچه ناصر","name_he":"אגם נאצר","name_uk":"Озеро Насера","name_ur":"جھیل ناصر","name_zht":"納賽爾湖"}},
{"type":"Feature","geometry":{"type":"Polygon","coordinates":[[[24.608,61.654],[24.454,61.626],[24.043,61.423],[24.021,61.282],[23.875,61.183],[24.352,61.073],[24.355,61.162],[24.024,61.247],[24.194,61.457],[24.608,61.654]]]},"properties":{"scalerank":1,"featurecla":"Lake","name":"","name_alt":"","note":"_untitled_24","admin":"","namepar":"","min_zoom":4.7,"min_label":6,"name_abb":"","label":"","wikidataid":"","name_ar":"","name_bn":"","name_de":"","name_en":"","name_es":"","name_fr":"","name_el":"","name_hi":"","name_hu":"","name_id":"","name_it":"","name_ja":"","name_ko":"","name_nl":"","name_pl":"","name_pt":"","name_ru":"","name_sv":"","name_tr":"","name_vi":"","name_zh":"","ne_id":1159114413,"name_fa":"","name_he":"","name_uk":"","name_ur":"","name_zht":""}},
{"type":"Feature","geometry":{"type":"Polygon","coordinates":[[[23.511,61.419],[23.776,61.521],[23.739,61.651],[23.57,61.641],[23.709,61.511],[23.511,61.419]]]},"properties":{"scalerank":5,"featurecla":"Lake","name":"Pyhäjärvi","name_alt":"","note":"","admin":"","namepar":"","min_zoom":4.7,"min_label":6,"name_abb":"Pyhäjärvi","label":"Pyhäjärvi","wikidataid":"Q545559","name_ar":"بياهافي","name_bn":"প্যহাজার্ভি","name_de":"Pyhäjärvi","name_en":"Pyhäjärvi","name_es":"Pyhä","name_fr":"Pyhä","name_el":"Πουχαγάρβι","name_hi":"पाइहाजर्विक","name_hu":"Pyhäjärvi","name_id":"Pyhäjärvi","name_it":"Pyhäjärvi","name_ja":"ピュハ湖","name_ko":"피하야르비","name_nl":"Pyhäjärvi","name_pl":"Pyhäjärvi","name_pt":"Pyhäjärvi","name_ru":"озеро Нясиярви","name_sv":"Pyhäjärvi","name_tr":"Pyhäjärvi","name_vi":"Hồ Pyhäjärvi","name_zh":"皮海湖","ne_id":1159114429,"name_fa":"پیهاجاروی","name_he":"אגם פיהאיארוי","name_uk":"Пюгяярві","name_ur":"پیہاجاروی","name_zht":"皮海湖"}},
{"type":"Feature","geometry":{"type":"Polygon","coordinates":[[[43.595,33.306],[43.382,33.435],[43.304,33.309],[43.434,33.199],[43.595,33.306]]]},"properties":{"scalerank":6,"featurecla":"Lake","name":"Lake Habbaniyah","name_alt":"","note":"","admin":"","namepar":"","min_zoom":5,"min_label":6.5,"name_abb":"L.  Habbaniyah","label":"Lake Habbaniyah","wikidataid":"Q2539972","name_ar":"بحيرة الحبانية","name_bn":"লেক হাববানিয়াহ","name_de":"Al-Habbaniyya","name_en":"Habbaniyah","name_es":"Habbaniyah","name_fr":"Habbaniya","name_el":"Λίμνη Χαμπανίγια","name_hi":"हब्बानियाह झील","name_hu":"Habbaniyah-tó","name_id":"Danau Habbaniyah","name_it":"Habbaniyya","name_ja":"ハバニヤー湖","name_ko":"레이크 하바니야","name_nl":"Habbaniyah","name_pl":"Jezioro al-Habbaniyya","name_pt":"Lago Habbaniyah","name_ru":"Эль-Хаббания","name_sv":"Habbaniyyasjön","name_tr":"Habbaniye","name_vi":"Hồ Habbaniyah","name_zh":"哈巴尼亚湖","ne_id":1159123107,"name_fa":"دریاچه حبانیه","name_he":"אגם חבאנייה","name_uk":"озеро Хаббанія","name_ur":"جھیل ہیبانیاہ","name_zht":"哈巴尼亞湖"}},
{"type":"Feature","geometry":{"type":"Polygon","coordinates":[[[19.293,42.265],[19.216,42.158],[19.481,42.108],[19.364,42.29],[19.293,42.265]]]},"properties":{"scalerank":6,"featurecla":"Lake","name":"Lake Skadar","name_alt":"Lake Scutari","note":"","admin":"admin-0","namepar":"","min_zoom":5,"min_label":6.5,"name_abb":"L.  Skadar","label":"Lake Skadar","wikidataid":"Q203811","name_ar":"بحيرة سكيوتاري","name_bn":"লেক স্কাদার","name_de":"Skutarisee","name_en":"Skadar","name_es":"Skadar","name_fr":"Skadar","name_el":"Λίμνη Σκόδρας","name_hi":"स्काडार झील","name_hu":"Shkodrai-tó","name_id":"Skadar","name_it":"Scutari","name_ja":"シュコダル湖","name_ko":"슈코더르호","name_nl":"Meer van Shkodër","name_pl":"Jezioro Szkoderskie","name_pt":"Escútare","name_ru":"Шкодер","name_sv":"Shkodrasjön","name_tr":"İşkodra","name_vi":"Hồ Skadar","name_zh":"斯库台湖","ne_id":1159115429,"name_fa":"دریاچه اشکودرا","name_he":"אגם שקודרה","name_uk":"Скадарське озеро","name_ur":"جھیل اسکادار","name_zht":"斯庫台湖"}},
{"type":"Feature","geometry":{"type":"Polygon","coordinates":[[[9.128,47.671],[9.094,47.716],[8.999,47.752],[8.981,47.702],[9.128,47.671]]]},"properties":{"scalerank":1,"featurecla":"Lake","name":"","name_alt":"","note":"_untitled_46","admin":"","namepar":"","min_zoom":5,"min_label":6.5,"name_abb":"","label":"","wikidataid":"","name_ar":"","name_bn":"","name_de":"","name_en":"","name_es":"","name_fr":"","name_el":"","name_hi":"","name_hu":"","name_id":"","name_it":"","name_ja":"","name_ko":"","name_nl":"","name_pl":"","name_pt":"","name_ru":"","name_sv":"","name_tr":"","name_vi":"","name_zh":"","ne_id":1159115487,"name_fa":"","name_he":"","name_uk":"","name_ur":"","name_zht":""}},
{"type":"Feature","geometry":{"type":"Polygon","coordinates":[[[38.909,60.586],[39.188,60.496],[39.173,60.68],[38.844,60.734],[38.909,60.586]]]},"properties":{"scalerank":1,"featurecla":"Lake","name":"","name_alt":"","note":"_untitled_44","admin":"","namepar":"","min_zoom":5,"min_label":6.5,"name_abb":"","label":"","wikidataid":"","name_ar":"","name_bn":"","name_de":"","name_en":"","name_es":"","name_fr":"","name_el":"","name_hi":"","name_hu":"","name_id":"","name_it":"","name_ja":"","name_ko":"","name_nl":"","name_pl":"","name_pt":"","name_ru":"","name_sv":"","name_tr":"","name_vi":"","name_zh":"","ne_id":1159115537,"name_fa":"","name_he":"","name_uk":"","name_ur":"","name_zht":""}},
{"type":"Feature","geometry":{"type":"Polygon","coordinates":[[[11.797,61.939],[11.787,62],[11.743,62],[11.753,61.929],[11.797,61.939]]]},"properties":{"scalerank":6,"featurecla":"Lake","name":"Femunden","name_alt":"","note":"","admin":"","namepar":"","min_zoom":5,"min_label":6.5,"name_abb":"Femunden","label":"Femunden","wikidataid":"Q1324437","name_ar":"فيموندين","name_bn":"ফেমুন্ডেন","name_de":"Femundsee","name_en":"Femund","name_es":"Femund","name_fr":"Femunden","name_el":"Φεμούντεν","name_hi":"फ़ेमुंडेन","name_hu":"Femunden","name_id":"Femunden","name_it":"Femund","name_ja":"フェームンデン湖","name_ko":"페문호","name_nl":"Femund","name_pl":"Femunden","name_pt":"Femund","name_ru":"Фемунн","name_sv":"Femunden","name_tr":"Femund","name_vi":"Hồ Femunden","name_zh":"费蒙登湖","ne_id":1159115801,"name_fa":"فموندن","name_he":"פמונד","name_uk":"Фемунн","name_ur":"فیمنڈن","name_zht":"費蒙登湖"}},
{"type":"Feature","geometry":{"type":"Polygon","coordinates":[[[11.909,62],[11.859,62],[11.883,61.931],[11.927,61.931],[11.909,62]]]},"properties":{"scalerank":6,"featurecla":"Lake","name":"Femunden","name_alt":"","note":"","admin":"","namepar":"","min_zoom":5,"min_label":6.5,"name_abb":"Femunden","label":"Femunden","wikidataid":"Q1324437","name_ar":"فيموندين","name_bn":"ফেমুন্ডেন","name_de":"Femundsee","name_en":"Femund","name_es":"Femund","name_fr":"Femunden","name_el":"Φεμούντεν","name_hi":"फ़ेमुंडेन","name_hu":"Femunden","name_id":"Femunden","name_it":"Femund","name_ja":"フェームンデン湖","name_ko":"페문호","name_nl":"Femund","name_pl":"Femunden","name_pt":"Femund","name_ru":"Фемунн","name_sv":"Femunden","name_tr":"Femund","name_vi":"Hồ Femunden","name_zh":"费蒙登湖","ne_id":1159115821,"name_fa":"فموندن","name_he":"פמונד","name_uk":"Фемунн","name_ur":"فیمنڈن","name_zht":"費蒙登湖"}}
]}