{"type":"FeatureCollection", "features": [
{"type":"Feature","geometry":{"type":"MultiPolygon","coordinates":[[[[50,37.44],[50,40.319],[49.477,40.087],[49.324,39.608],[49.363,39.35],[49.013,39.134],[48.851,38.815],[48.96,37.89],[49.081,37.668],[49.47,37.497],[50,37.44]]],[[[50,40.574],[50,44.932],[50,46.634],[49.347,46.519],[49.08,46.189],[48.684,46.086],[48.159,45.737],[47.524,45.602],[47.115,44.906],[46.755,44.657],[46.753,44.421],[47.23,44.192],[47.509,43.51],[47.463,43.035],[48.229,42.181],[49.107,41.302],[49.226,41.026],[49.776,40.584],[50,40.574]]],[[[17.964,59.359],[18.285,59.109],[17.457,58.858],[16.652,58.434],[16.77,58.214],[16.555,57.812],[16.652,57.501],[16.528,57.068],[15.997,56.223],[14.782,56.162],[14.215,55.833],[14.342,55.528],[13.321,55.346],[12.886,55.411],[12.978,55.694],[12.593,56.138],[12.802,56.264],[12.884,56.618],[12.421,56.906],[11.735,57.718],[11.272,58.476],[11.196,59.078],[10.645,59.389],[10.179,59.009],[9.618,58.946],[8.521,58.301],[8.166,58.145],[7.005,58.024],[5.707,58.524],[5.517,58.727],[5.854,58.959],[5.845,59.353],[5.132,59.226],[5.305,59.643],[5.119,59.834],[5.244,60.57],[5.049,60.708],[4.985,61.9],[5.121,62],[-6.732,62],[-15,62],[-15,24.598],[-14.856,24.872],[-14.795,25.404],[-14.414,26.254],[-13.576,26.735],[-13.176,27.656],[-12.949,27.914],[-11.986,28.129],[-11.43,28.382],[-11.081,28.714],[-10.486,29.065],[-9.853,29.809],[-9.667,30.109],[-9.653,30.448],[-9.875,30.718],[-9.809,31.425],[-9.675,31.711],[-9.347,32.086],[-9.246,32.572],[-8.596,33.187],[-8.301,33.374],[-7.562,33.64],[-6.901,33.969],[-6.353,34.776],[-5.925,35.786],[-5.397,35.93],[-5.105,35.468],[-4.837,35.281],[-4.33,35.161],[-3.693,35.28],[-3.206,35.239],[-2.972,35.407],[-2.84,35.128],[-2.018,35.085],[-1.674,35.183],[-0.917,35.668],[-0.426,35.862],[0.048,35.901],[0.515,36.262],[1.257,36.52],[2.593,36.601],[2.973,36.784],[3.521,36.795],[3.779,36.896],[4.758,36.896],[5.196,36.677],[5.425,36.675],[6.065,36.864],[6.487,37.086],[6.928,36.919],[7.608,37],[7.91,36.856],[8.824,36.998],[9.142,37.195],[9.688,37.34],[10.196,37.206],[10.189,37.034],[10.571,36.879],[11.054,37.073],[11.127,36.874],[10.798,36.493],[10.526,36.323],[10.591,35.887],[11.004,35.634],[11.12,35.24],[10.535,34.545],[10.2,34.346],[10.049,34.056],[10.159,33.85],[10.723,33.514],[11.085,33.563],[11.15,33.369],[12.28,32.859],[12.754,32.801],[13.283,32.915],[14.237,32.681],[14.513,32.511],[15.177,32.391],[15.359,32.16],[15.496,31.657],[15.706,31.426],[16.123,31.264],[16.782,31.215],[17.349,31.081],[18.19,30.777],[18.936,30.29],[19.292,30.288],[19.713,30.488],[20.013,30.801],[20.151,31.079],[19.926,31.818],[20.121,32.219],[20.621,32.58],[21.062,32.776],[21.425,32.799],[21.636,32.937],[22.187,32.918],[23.091,32.619],[23.106,32.331],[23.286,32.214],[23.798,32.159],[24.13,32.009],[24.684,32.016],[25.025,31.883],[25.225,31.534],[25.893,31.621],[27.248,31.378],[27.968,31.097],[28.515,31.05],[29.072,30.83],[29.592,31.012],[29.93,31.227],[30.223,31.258],[30.395,31.458],[30.7,31.404],[31.194,31.588],[31.524,31.458],[32.102,31.093],[32.324,31.256],[32.603,31.069],[33.13,31.168],[33.667,31.13],[34.176,31.304],[34.484,31.592],[34.678,31.896],[34.922,32.614],[35.251,33.393],[35.612,34.032],[35.648,34.248],[35.978,34.547],[35.899,34.852],[35.943,35.224],[35.764,35.572],[35.957,35.998],[35.811,36.31],[36.188,36.659],[36.049,36.911],[35.537,36.597],[34.601,36.784],[34.023,36.341],[33.695,36.182],[32.795,36.036],[32.378,36.184],[32.022,36.535],[31.353,36.801],[30.644,36.866],[30.484,36.31],[29.689,36.157],[29.143,36.397],[29.038,36.693],[28.484,36.804],[27.804,36.736],[28.134,37.029],[27.349,37.02],[27.52,37.249],[27.219,37.389],[27.078,37.688],[27.232,37.979],[26.683,38.198],[26.861,38.373],[26.764,38.71],[27.014,38.887],[26.682,39.292],[26.827,39.563],[26.113,39.467],[26.181,39.99],[26.738,40.4],[27.285,40.456],[27.476,40.32],[28.289,40.403],[28.788,40.534],[29.365,40.809],[29.046,41.008],[29.322,41.228],[29.919,41.151],[30.345,41.197],[30.81,41.085],[31.255,41.108],[31.458,41.32],[32.306,41.73],[33.381,42.018],[34.75,41.957],[35.006,42.063],[35.298,41.729],[35.558,41.634],[36.052,41.683],[36.179,41.427],[36.51,41.262],[36.778,41.363],[37.066,41.184],[38.381,40.925],[39.426,41.106],[39.808,40.983],[40.265,40.961],[41.414,41.424],[41.702,41.705],[41.763,41.97],[41.489,42.659],[40.837,43.063],[40.524,43.121],[39.874,43.473],[38.717,44.288],[38.181,44.42],[37.851,44.699],[37.411,44.735],[36.941,45.29],[37.647,45.377],[37.612,45.565],[37.933,46.002],[38.184,46.095],[37.968,46.618],[39.293,47.106],[38.485,47.176],[38.178,47.08],[37.543,47.075],[37.34,46.917],[36.279,46.659],[35.827,46.624],[35.4,46.381],[35.23,46.441],[34.85,46.19],[35.023,45.701],[35.558,45.311],[36.171,45.453],[36.575,45.394],[36.393,45.065],[35.87,45.005],[35.473,45.098],[35.088,44.803],[34.717,44.807],[33.91,44.388],[33.451,44.554],[33.612,44.908],[33.555,45.098],[32.919,45.348],[32.508,45.404],[33.142,45.749],[33.665,45.947],[33.202,46.176],[32.477,46.084],[32.036,46.261],[31.974,46.709],[30.796,46.552],[30.512,46.105],[30.219,45.867],[29.602,45.683],[29.727,45.343],[29.558,44.843],[29.048,44.758],[28.645,44.296],[28.562,43.501],[28.134,43.396],[27.929,43.186],[27.889,42.75],[27.485,42.468],[27.983,42.047],[27.987,41.855],[28.346,41.466],[29.057,41.23],[28.78,40.974],[28.172,41.081],[27.499,40.973],[27.258,40.687],[26.772,40.498],[26.33,40.123],[26.254,40.315],[26.792,40.627],[26.105,40.611],[25.856,40.844],[25.104,40.995],[24.793,40.858],[24.384,40.913],[23.879,40.544],[23.665,40.224],[23.312,40.216],[22.629,40.496],[22.592,40.037],[22.919,39.629],[22.966,39.031],[22.774,38.8],[23.253,38.661],[23.684,38.352],[23.967,38.275],[24.055,37.71],[23.58,38.011],[23.194,37.959],[23.162,37.334],[22.765,37.393],[23.074,36.775],[22.608,36.78],[22.489,36.568],[22.08,37.029],[21.892,36.737],[21.583,37.081],[21.692,37.309],[21.571,37.541],[21.145,37.919],[21.404,38.197],[21.825,38.328],[22.556,38.113],[22.8,37.981],[23.122,38.073],[22.422,38.439],[21.473,38.321],[21.113,38.385],[20.777,38.808],[20.78,39.009],[20.301,39.327],[20.001,39.709],[19.852,40.044],[19.398,40.285],[19.345,40.622],[19.461,40.933],[19.441,41.425],[19.578,41.788],[19.186,41.949],[18.894,42.249],[17.824,42.797],[16.903,43.392],[15.942,43.657],[15.499,43.909],[15.123,44.257],[15.27,44.383],[14.895,44.707],[14.855,45.081],[14.386,45.342],[13.966,44.836],[13.629,45.108],[13.517,45.482],[13.206,45.771],[13.03,45.638],[12.274,45.446],[12.226,45.242],[12.523,44.968],[12.248,44.723],[12.396,44.224],[12.691,43.995],[13.564,43.571],[14.01,42.69],[14.183,42.506],[14.866,42.053],[15.169,41.934],[15.964,41.939],[16.013,41.435],[17.103,41.062],[17.955,40.655],[18.328,40.371],[18.486,40.105],[18.344,39.821],[18.078,39.937],[17.865,40.28],[17.476,40.315],[17.215,40.486],[16.928,40.458],[16.53,39.86],[16.598,39.639],[17.115,39.381],[17.175,38.998],[16.755,38.89],[16.559,38.715],[16.546,38.409],[16.282,38.25],[16.057,37.942],[15.725,37.939],[15.643,38.175],[15.822,38.303],[15.972,38.713],[16.197,38.759],[16.024,39.354],[15.693,39.99],[14.951,40.239],[14.766,40.668],[14.459,40.633],[14.102,40.827],[13.733,41.236],[13.089,41.244],[12.631,41.47],[11.637,42.288],[11.168,42.535],[10.708,42.936],[10.321,43.513],[10.246,43.852],[10.048,44.02],[9.289,44.319],[8.766,44.422],[8.552,44.346],[8.082,43.919],[7.181,43.659],[6.494,43.169],[6.116,43.072],[5.407,43.229],[5.06,43.445],[4.629,43.387],[4.053,43.593],[3.259,43.193],[3.052,42.915],[3.248,41.944],[3.005,41.767],[2.311,41.467],[2.083,41.287],[1.033,41.062],[0.715,40.823],[0.364,40.319],[-0.075,39.876],[-0.327,39.52],[-0.205,39.063],[0.202,38.759],[-0.381,38.436],[-0.647,38.152],[-0.822,37.581],[-1.328,37.561],[-1.798,37.233],[-2.112,36.777],[-2.596,36.806],[-2.788,36.715],[-3.259,36.756],[-4.367,36.718],[-4.674,36.506],[-5.171,36.424],[-5.361,36.135],[-5.625,36.026],[-6.041,36.188],[-6.492,36.955],[-6.885,37.194],[-7.494,37.168],[-7.834,37.006],[-8.598,37.121],[-8.998,37.032],[-8.814,37.431],[-8.879,37.959],[-8.802,38.184],[-8.915,38.512],[-9.474,38.731],[-9.375,39.338],[-9.148,39.543],[-8.887,40.179],[-8.656,41.029],[-8.887,42.105],[-8.691,42.274],[-9.235,42.977],[-9.178,43.174],[-8.874,43.334],[-8.537,43.337],[-8.257,43.58],[-7.698,43.765],[-7.262,43.595],[-5.666,43.582],[-4.523,43.416],[-3.605,43.519],[-3.046,43.372],[-2.875,43.454],[-2.337,43.328],[-1.631,43.438],[-1.485,43.564],[-1.246,44.56],[-1.066,45.806],[-1.146,46.311],[-1.787,46.515],[-2.059,46.81],[-2.019,47.038],[-3.159,47.695],[-3.901,47.838],[-4.312,47.823],[-4.629,48.086],[-4.393,48.368],[-4.721,48.54],[-3.231,48.841],[-2.692,48.537],[-2.446,48.648],[-1.438,48.641],[-1.583,49.202],[-1.856,49.684],[-1.259,49.68],[-1.139,49.388],[-0.163,49.297],[0.278,49.463],[0.187,49.703],[1.246,49.998],[1.552,50.294],[1.579,50.739],[1.913,50.991],[2.446,51.067],[3.587,51.454],[4.483,52.309],[4.678,52.81],[5.358,53.096],[5.532,53.269],[6.062,53.407],[6.816,53.441],[7.285,53.681],[8.009,53.691],[8.538,53.557],[8.898,53.836],[8.957,54.538],[8.682,54.792],[8.616,55.418],[8.132,55.6],[8.164,56.607],[8.619,57.111],[9.554,57.232],[9.962,57.581],[10.537,57.449],[10.296,56.999],[10.283,56.621],[10.846,56.522],[10.856,56.296],[10.319,56.213],[10.183,55.865],[9.591,55.493],[9.645,55.023],[10.212,54.409],[11.009,54.181],[11.4,53.945],[12.111,54.168],[12.575,54.467],[13.029,54.411],[13.448,54.141],[13.724,54.153],[13.866,53.853],[14.488,53.672],[14.716,54.018],[16.186,54.29],[16.56,54.554],[17.262,54.73],[18.323,54.838],[18.67,54.431],[19.407,54.386],[19.758,54.545],[19.975,54.921],[20.52,54.995],[21.189,54.935],[21.238,55.455],[21.062,55.813],[21.071,56.824],[21.351,57.018],[21.729,57.571],[22.555,57.724],[23.137,57.324],[23.287,57.09],[23.648,56.971],[24.281,57.172],[24.403,57.325],[24.302,57.784],[24.529,58.354],[23.768,58.361],[23.509,58.659],[23.494,59.196],[24.083,59.292],[24.38,59.473],[25.444,59.521],[25.509,59.639],[26.625,59.554],[26.975,59.451],[27.893,59.414],[28.454,59.814],[28.947,59.829],[29.147,60],[30.123,59.874],[29.721,60.195],[29.069,60.191],[28.643,60.375],[28.651,60.611],[27.462,60.465],[27.242,60.539],[25.656,60.333],[25.156,60.194],[23.722,59.966],[22.793,60.077],[22.576,60.359],[21.436,60.596],[21.361,60.967],[21.606,61.592],[21.26,62],[17.433,62],[17.131,61.576],[17.251,60.701],[17.956,60.59],[18.558,60.254],[18.971,59.757],[17.964,59.359]],[[-3.662,58.606],[-3.053,58.635],[-3.212,58.321],[-3.99,57.959],[-3.868,57.6],[-3.403,57.708],[-2.074,57.702],[-1.778,57.494],[-2.26,56.863],[-2.593,56.562],[-2.653,56.318],[-3.178,56.08],[-2.147,55.903],[-1.655,55.57],[-1.292,54.774],[-0.671,54.504],[-0.084,54.118],[-0.206,54.022],[0.356,53.16],[0.559,52.967],[1.056,52.959],[1.657,52.754],[1.747,52.469],[1.559,52.087],[1.274,51.845],[0.955,51.808],[0.687,51.387],[1.415,51.363],[1.398,51.182],[0.96,50.926],[0.205,50.763],[-0.785,50.765],[-1.285,50.857],[-1.517,50.747],[-2.548,50.616],[-2.999,50.717],[-3.405,50.632],[-3.793,50.229],[-4.173,50.391],[-4.728,50.29],[-5.225,50.021],[-5.342,50.246],[-4.583,50.776],[-4.188,51.189],[-3.136,51.205],[-4.386,51.741],[-4.902,51.626],[-5.125,51.706],[-5.088,51.996],[-4.383,52.197],[-3.98,52.542],[-4.111,53.219],[-3.065,53.427],[-2.925,53.733],[-3.166,54.128],[-3.569,54.468],[-3.434,54.964],[-3.958,54.781],[-4.517,54.758],[-5.135,54.858],[-4.721,55.421],[-4.892,55.699],[-5.246,55.929],[-5.556,55.39],[-5.768,55.363],[-5.61,56.055],[-5.392,56.515],[-5.937,56.606],[-5.562,57.233],[-5.818,57.436],[-5.338,58.239],[-5.067,58.52],[-4.433,58.513],[-3.662,58.606]],[[-9.835,51.483],[-9.58,51.689],[-10.379,51.869],[-9.956,52.137],[-9.906,52.404],[-9.586,52.559],[-9.299,53.098],[-9.795,53.395],[-9.856,54.004],[-9.996,54.276],[-8.623,54.347],[-8.23,54.507],[-8.764,54.681],[-8.377,54.889],[-8.275,55.146],[-7.247,55.353],[-6.699,55.193],[-6.129,55.217],[-5.47,54.5],[-5.607,54.273],[-6.345,53.987],[-6.142,53.578],[-6.027,52.927],[-6.217,52.543],[-6.561,52.189],[-7.527,52.099],[-7.665,51.98],[-8.813,51.585],[-9.835,51.483]],[[-6.015,57.052],[-6.761,57.442],[-6.247,57.651],[-6.015,57.052]],[[-6.797,57.828],[-7.085,58.182],[-6.237,58.503],[-6.425,58.021],[-6.797,57.828]],[[-14.028,28.617],[-13.828,28.585],[-13.928,28.253],[-14.232,28.216],[-14.028,28.617]],[[13.361,37.349],[12.924,37.571],[12.699,37.572],[12.436,37.82],[12.734,38.183],[12.903,38.035],[13.352,38.181],[13.682,38.001],[14.506,38.046],[14.846,38.172],[15.577,38.22],[15.234,37.785],[15.1,37.459],[15.295,37.013],[15.113,36.688],[14.502,36.799],[14.143,37.104],[13.905,37.101],[13.361,37.349]],[[27.914,36.345],[28.144,36.21],[27.843,35.929],[27.716,36.172],[27.914,36.345]],[[34.063,35.474],[33.908,35.202],[33.514,34.806],[32.942,34.576],[32.449,34.729],[32.317,34.953],[32.942,35.39],[33.459,35.336],[34.063,35.474]],[[25.611,35.007],[24.8,34.934],[24.464,35.16],[23.562,35.295],[23.57,35.535],[24.166,35.595],[24.313,35.364],[24.721,35.425],[25.476,35.306],[25.745,35.143],[26.299,35.269],[26.166,35.019],[25.611,35.007]],[[24.537,37.98],[24.212,38.118],[24.04,38.39],[23.759,38.401],[23.252,38.801],[23.472,38.85],[24.099,38.671],[24.276,38.22],[24.537,37.98]],[[26.161,39.026],[25.91,39.288],[26.348,39.383],[26.578,39.11],[26.161,39.026]],[[8.418,39.206],[8.471,40.293],[8.19,40.652],[9.283,41.202],[9.615,41.017],[9.805,40.5],[9.563,39.166],[9.056,39.239],[8.881,38.913],[8.649,38.927],[8.418,39.206]],[[3.462,39.698],[3.073,39.301],[2.371,39.613],[2.785,39.855],[3.462,39.698]],[[9.556,42.161],[9.186,41.385],[8.808,41.588],[8.701,42.096],[8.566,42.219],[8.713,42.55],[9.338,42.767],[9.526,42.553],[9.556,42.161]],[[12.04,56.052],[12.579,56.064],[12.571,55.685],[12.215,55.467],[12.05,54.815],[11.741,54.915],[11.654,55.187],[11.286,55.204],[10.979,55.722],[11.322,55.753],[12.04,56.052]],[[11.74,54.807],[11.457,54.629],[11.036,54.773],[11.258,54.952],[11.74,54.807]],[[10.255,55.088],[9.989,55.163],[9.861,55.515],[10.687,55.558],[10.819,55.322],[10.624,55.052],[10.255,55.088]],[[18.207,57.01],[18.137,57.557],[18.537,57.831],[18.814,57.706],[18.785,57.361],[18.207,57.01]],[[21.978,57.963],[21.882,58.262],[22.081,58.478],[22.547,58.627],[23.293,58.483],[22.269,58.161],[21.978,57.963]]],[[[38.612,18],[41.664,18],[41.432,18.452],[41.229,18.678],[41.116,19.082],[40.759,19.755],[40.081,20.266],[39.884,20.293],[39.614,20.518],[39.094,21.31],[39.147,21.519],[38.988,21.882],[39.096,22.393],[38.941,22.882],[38.464,23.712],[37.92,24.185],[37.543,24.292],[37.181,24.82],[37.266,24.96],[37.149,25.291],[36.763,25.751],[36.25,26.595],[35.581,27.432],[35.18,28.035],[34.616,28.148],[34.78,28.507],[34.982,29.484],[34.736,29.271],[34.617,28.758],[34.446,28.357],[34.4,28.016],[34.22,27.764],[33.76,28.048],[33.248,28.568],[33.076,29.073],[32.721,29.522],[32.566,29.974],[32.36,29.631],[32.565,29.386],[32.632,28.992],[32.898,28.565],[33.547,27.898],[33.55,27.607],[33.893,27.049],[33.959,26.649],[34.565,25.691],[35.194,24.475],[35.625,24.066],[35.504,23.779],[35.523,23.443],[35.698,22.946],[35.913,22.74],[36.23,22.629],[36.415,22.394],[36.83,22.098],[36.927,21.587],[37.212,21.186],[37.151,21.104],[37.228,20.557],[37.193,20.121],[37.248,19.582],[37.471,18.82],[37.922,18.556],[38.202,18.249],[38.612,18]]],[[[50,26.815],[50,30.207],[49.555,30.029],[48.917,30.397],[48.919,30.121],[48.454,29.938],[47.983,30.011],[47.97,29.617],[48.184,28.979],[48.339,28.763],[48.906,27.629],[49.405,27.181],[50,26.815]]]]},"properties":{"scalerank":0,"featurecla":"Ocean","min_zoom":0}}
]}