{"type":"FeatureCollection", "features": [
{"type":"Feature","geometry":{"type":"LineString","coordinates":[[50,55.367],[49.248,55.113]]},"properties":{"scalerank":6,"featurecla":"Lake Centerline","name":"Kama","note":"","min_zoom":4.7,"name_alt":"","min_label":6,"name_en":"Kama","label":"Kama","wikidataid":"Q79082","name_ar":"نهر كاما","name_bn":"কামা","name_de":"Kama","name_es":"Kama","name_fr":"Kama","name_el":"Ποταμός Κάμα","name_hi":"कामा नदी","name_hu":"Káma","name_id":"Kama","name_it":"Kama","name_ja":"カマ川","name_ko":"카마강","name_nl":"Kama","name_pl":"Kama","name_pt":"Kama","name_ru":"Кама","name_sv":"Kama","name_tr":"Kama","name_vi":"Kama","name_zh":"卡馬河","ne_id":1159125905,"name_fa":"رود کاما","name_he":"קאמה","name_uk":"Кама","name_ur":"دریائے کاما","name_zht":"卡馬河"}},
{"type":"Feature","geometry":{"type":"LineString","coordinates":[[38.561,35.863],[38.079,36.074],[38.184,36.342]]},"properties":{"scalerank":3,"featurecla":"Lake Centerline","name":"Al Furat","note":"","min_zoom":3,"name_alt":"","min_label":4,"name_en":"Euphrates","label":"Al Furat","wikidataid":"Q34589","name_ar":"الفرات","name_bn":"ফোরাত","name_de":"Euphrat","name_es":"Éufrates","name_fr":"Euphrate","name_el":"Ευφράτης","name_hi":"फ़रात नदी","name_hu":"Eufrátesz","name_id":"Efrat","name_it":"Eufrate","name_ja":"ユーフラテス川","name_ko":"유프라테스강","name_nl":"Eufraat","name_pl":"Eufrat","name_pt":"Eufrates","name_ru":"Евфрат","name_sv":"Eufrat","name_tr":"Fırat","name_vi":"Euphrates","name_zh":"幼发拉底河","ne_id":1159125935,"name_fa":"فرات","name_he":"פרת","name_uk":"Євфрат","name_ur":"دریائے فرات","name_zht":"幼发拉底河"}},
{"type":"Feature","geometry":{"type":"MultiLineString","coordinates":[[[16.434,60.156],[16.433,60.156],[16.323,60.122]],[[17.416,60.51],[16.499,60.163]],[[14.551,60.998],[14.973,60.728]],[[13.717,61.414],[13.212,61.663]]]},"properties":{"scalerank":6,"featurecla":"Lake Centerline","name":"Dalälven","note":"","min_zoom":5,"name_alt":"","min_label":6,"name_en":"Dalälven","label":"Dalälven","wikidataid":"Q216627","name_ar":"دالالڤين","name_bn":"দালালভেন","name_de":"Dalälven","name_es":"Dal","name_fr":"Dalälven","name_el":"Ντάλελβεν","name_hi":"डलालवेन","name_hu":"Dalälven","name_id":"Dalälven","name_it":"Dalälven","name_ja":"ダール湖","name_ko":"달라벤강","name_nl":"Dalälven","name_pl":"Dalälven","name_pt":"Dalälven","name_ru":"Далэльвен","name_sv":"Dalälven","name_tr":"Dalälven","name_vi":"Dalälven","name_zh":"達爾河","ne_id":1159114315,"name_fa":"داللون","name_he":"דאלאוון","name_uk":"Далельвен","name_ur":"ڈالالوین","name_zht":"達爾河"}},
{"type":"Feature","geometry":{"type":"LineString","coordinates":[[30.478,46.101],[30.269,46.32]]},"properties":{"scalerank":6,"featurecla":"Lake Centerline","name":"Dniester","note":"","min_zoom":5,"name_alt":"","min_label":6,"name_en":"Dniester","label":"Dniester","wikidataid":"Q131210","name_ar":"دنيستر","name_bn":"দনিএস্তের","name_de":"Dnister","name_es":"Dniéster","name_fr":"Dniestr","name_el":"Δνείστερος","name_hi":"डेनिस्टर","name_hu":"Dnyeszter","name_id":"Dniester","name_it":"Dnestr","name_ja":"ドニエストル川","name_ko":"드네스트르강","name_nl":"Dnjestr","name_pl":"Dniestr","name_pt":"Dniestre","name_ru":"Днестр","name_sv":"Dnestr","name_tr":"Dinyester","name_vi":"Dnister","name_zh":"德涅斯特河","ne_id":1159114439,"name_fa":"نیستر","name_he":"דניסטר","name_uk":"Дністер","name_ur":"نائیسٹر","name_zht":"德涅斯特河"}},
{"type":"Feature","geometry":{"type":"MultiLineString","coordinates":[[[33.54,46.831],[33.998,47.411],[34.448,47.542],[35.088,47.528],[35.106,47.842]],[[33.194,49.094],[31.886,49.555]],[[31.44,50],[31.486,49.871],[31.467,49.754]],[[30.508,51.217],[30.515,50.597]]]},"properties":{"scalerank":4,"featurecla":"Lake Centerline","name":"Dnipro","note":"","min_zoom":4,"name_alt":"Dnieper","min_label":5,"name_en":"Dnieper","label":"Dnipro","wikidataid":"Q40855","name_ar":"دنيبر","name_bn":"নিপার নদী","name_de":"Dnepr","name_es":"Dniéper","name_fr":"Dniepr","name_el":"Δνείπερος","name_hi":"नीपर","name_hu":"Dnyeper","name_id":"Dnieper","name_it":"Dnepr","name_ja":"ドニエプル川","name_ko":"드네프르강","name_nl":"Dnjepr","name_pl":"Dniepr","name_pt":"Dniepre","name_ru":"Днепр","name_sv":"Dnepr","name_tr":"Dinyeper","name_vi":"Dnepr","name_zh":"第聂伯河","ne_id":1159111985,"name_fa":"دنیپر","name_he":"דנייפר","name_uk":"Дніпро","name_ur":"دریائے دنیپر","name_zht":"第聂伯河"}},
{"type":"Feature","geometry":{"type":"LineString","coordinates":[[42.11,47.602],[42.881,47.885],[43.042,48.186],[43.528,48.614],[43.606,48.892],[43.896,48.968],[43.549,49.507]]},"properties":{"scalerank":6,"featurecla":"Lake Centerline","name":"Don","note":"","min_zoom":4.7,"name_alt":"","min_label":6,"name_en":"Don","label":"Don","wikidataid":"Q1229","name_ar":"نهر الدون","name_bn":"দোন নদী","name_de":"Don","name_es":"Don","name_fr":"Don","name_el":"Ντον","name_hi":"दोन नदी","name_hu":"Don","name_id":"Don","name_it":"Don","name_ja":"ドン川","name_ko":"돈강","name_nl":"Don","name_pl":"Don","name_pt":"Don","name_ru":"Дон","name_sv":"Don","name_tr":"Don","name_vi":"Đông","name_zh":"頓河","ne_id":1159115979,"name_fa":"رودخانه دان","name_he":"דון","name_uk":"Дон","name_ur":"ڈان","name_zht":"頓河"}},
{"type":"Feature","geometry":{"type":"LineString","coordinates":[[38.768,38.813],[38.74,39.078]]},"properties":{"scalerank":3,"featurecla":"Lake Centerline","name":"Firat","note":"","min_zoom":3,"name_alt":"","min_label":4,"name_en":"Euphrates","label":"Firat","wikidataid":"Q34589","name_ar":"الفرات","name_bn":"ফোরাত","name_de":"Euphrat","name_es":"Éufrates","name_fr":"Euphrate","name_el":"Ευφράτης","name_hi":"फ़रात नदी","name_hu":"Eufrátesz","name_id":"Efrat","name_it":"Eufrate","name_ja":"ユーフラテス川","name_ko":"유프라테스강","name_nl":"Eufraat","name_pl":"Eufrat","name_pt":"Eufrates","name_ru":"Евфрат","name_sv":"Eufrat","name_tr":"Fırat","name_vi":"Euphrates","name_zh":"幼发拉底河","ne_id":1159124657,"name_fa":"فرات","name_he":"פרת","name_uk":"Євфрат","name_ur":"دریائے فرات","name_zht":"幼发拉底河"}},
{"type":"Feature","geometry":{"type":"MultiLineString","coordinates":[[[35.423,31.325],[35.559,31.766]],[[35.599,32.9],[35.577,32.72]]]},"properties":{"scalerank":6,"featurecla":"Lake Centerline","name":"Jordan","note":"","min_zoom":5,"name_alt":"","min_label":6,"name_en":"Jordan","label":"Jordan","wikidataid":"Q40059","name_ar":"نهر الأردن","name_bn":"জর্দান নদী","name_de":"Jordan","name_es":"Jordán","name_fr":"Jourdain","name_el":"Ιορδάνης ποταμός","name_hi":"जॉर्डन नदी","name_hu":"Jordán","name_id":"Yordan","name_it":"Giordano","name_ja":"ヨルダン川","name_ko":"요르단강","name_nl":"Jordaan","name_pl":"Jordan","name_pt":"Jordão","name_ru":"Иордан","name_sv":"Jordan","name_tr":"Şeria","name_vi":"Jordan","name_zh":"约旦河","ne_id":1159114351,"name_fa":"اردن","name_he":"נהר הירדן","name_uk":"Йордан","name_ur":"دریائے اردن","name_zht":"約旦河"}},
{"type":"Feature","geometry":{"type":"LineString","coordinates":[[31.043,59.951],[31.414,60.235]]},"properties":{"scalerank":5,"featurecla":"Lake Centerline","name":"Neva","note":"","min_zoom":4.7,"name_alt":"","min_label":5.7,"name_en":"Neva","label":"Neva","wikidataid":"Q645","name_ar":"نهر نيفا","name_bn":"নেভা নদী","name_de":"Newa","name_es":"Nevá","name_fr":"Neva","name_el":"Νέβας","name_hi":"नेवा नदी","name_hu":"Néva","name_id":"Neva","name_it":"Neva","name_ja":"ネヴァ川","name_ko":"네바강","name_nl":"Neva","name_pl":"Newa","name_pt":"Neva","name_ru":"Нева","name_sv":"Neva","name_tr":"Neva","name_vi":"Neva","name_zh":"涅瓦河","ne_id":1159113003,"name_fa":"رود نوا","name_he":"נייבה","name_uk":"Нева","name_ur":"نیوا","name_zht":"涅瓦河"}},
{"type":"Feature","geometry":{"type":"LineString","coordinates":[[32.879,23.988],[32.914,23.332],[32.576,22.806],[32.326,22.653],[32.137,22.733],[31.544,22.252],[31.091,21.609]]},"properties":{"scalerank":1,"featurecla":"Lake Centerline","name":"Nile","note":"","min_zoom":2,"name_alt":"","min_label":3,"name_en":"Nile","label":"Nile","wikidataid":"Q3392","name_ar":"نهر النيل","name_bn":"নীলনদ","name_de":"Nil","name_es":"Nilo","name_fr":"Nil","name_el":"Νείλος","name_hi":"नील नदी","name_hu":"Nílus","name_id":"Nil","name_it":"Nilo","name_ja":"ナイル川","name_ko":"나일강","name_nl":"Nijl","name_pl":"Nil","name_pt":"Nilo","name_ru":"Нил","name_sv":"Nilen","name_tr":"Nil","name_vi":"Nin","name_zh":"尼罗河","ne_id":1159121573,"name_fa":"نیل","name_he":"נילוס","name_uk":"Ніл","name_ur":"دریائے نیل","name_zht":"尼羅河"}},
{"type":"Feature","geometry":{"type":"MultiLineString","coordinates":[[[9.128,47.671],[8.881,47.656]],[[9.183,47.671],[9.554,47.511]]]},"properties":{"scalerank":4,"featurecla":"Lake Centerline","name":"Rhein","note":"","min_zoom":4,"name_alt":"","min_label":5,"name_en":"Rhine","label":"Rhein","wikidataid":"Q584","name_ar":"راين","name_bn":"রাইন নদী","name_de":"Rhein","name_es":"Rin","name_fr":"Rhin","name_el":"Ρήνος","name_hi":"राइन नदी","name_hu":"Rajna","name_id":"Rhein","name_it":"Reno","name_ja":"ライン川","name_ko":"라인강","name_nl":"Rijn","name_pl":"Ren","name_pt":"Reno","name_ru":"Рейн","name_sv":"Rhen","name_tr":"Ren","name_vi":"Rhine","name_zh":"莱茵河","ne_id":1159110393,"name_fa":"راین","name_he":"ריין","name_uk":"Рейн","name_ur":"دریائے رائن","name_zht":"莱茵河"}},
{"type":"Feature","geometry":{"type":"LineString","coordinates":[[6.133,46.205],[6.429,46.43],[6.866,46.403]]},"properties":{"scalerank":6,"featurecla":"Lake Centerline","name":"Rhône","note":"","min_zoom":5,"name_alt":"","min_label":6,"name_en":"Rhône","label":"","wikidataid":"","name_ar":"رون","name_bn":"রোন","name_de":"Rhône","name_es":"Ródano","name_fr":"Rhône","name_el":"Ρον","name_hi":"रौन","name_hu":"Rhône","name_id":"Rhone","name_it":"Ròdano","name_ja":"ローヌ湖","name_ko":"론","name_nl":"Rhône","name_pl":"Rhône","name_pt":"Ródano","name_ru":"река Рона","name_sv":"Rhône","name_tr":"Rhône","name_vi":"Rhône","name_zh":"罗纳河","ne_id":1159115093,"name_fa":"رهون","name_he":"רונה","name_uk":"Роне","name_ur":"رہونے","name_zht":"隆河"}},
{"type":"Feature","geometry":{"type":"LineString","coordinates":[[32.561,30.181],[32.36,30.424]]},"properties":{"scalerank":6,"featurecla":"Lake Centerline","name":"Suez Canal","note":"","min_zoom":5,"name_alt":"","min_label":6,"name_en":"Suez Canal","label":"Suez Canal","wikidataid":"Q899","name_ar":"قناة السويس","name_bn":"সুয়েজ খাল","name_de":"Suezkanal","name_es":"canal de Suez","name_fr":"canal de Suez","name_el":"Διώρυγα Σουέζ","name_hi":"स्वेज़ नहर","name_hu":"Szuezi-csatorna","name_id":"Terusan Suez","name_it":"Suez","name_ja":"スエズ運河","name_ko":"수에즈 운하","name_nl":"Suezkanaal","name_pl":"Kanał Sueski","name_pt":"Canal de Suez","name_ru":"Суэцкий канал","name_sv":"Suezkanalen","name_tr":"Süveyş Kanalı","name_vi":"Kênh đào Suez","name_zh":"苏伊士运河","ne_id":1159113913,"name_fa":"کانال سوئز","name_he":"תעלת סואץ","name_uk":"Суецький канал","name_ur":"نہر سوئز","name_zht":"蘇伊士運河"}},
{"type":"Feature","geometry":{"type":"LineString","coordinates":[[39.053,59.868],[39.799,59.525]]},"properties":{"scalerank":4,"featurecla":"Lake Centerline","name":"Sukhona","note":"","min_zoom":4,"name_alt":"","min_label":5,"name_en":"Sukhona","label":"Sukhona","wikidataid":"Q82812","name_ar":"نهر سوخونا","name_bn":"সুখোনা","name_de":"Suchona","name_es":"Sújona","name_fr":"Soukhona","name_el":"Σουχόνα","name_hi":"सुखोना","name_hu":"Szuhona","name_id":"Sukhona","name_it":"Suchona","name_ja":"スホナ川","name_ko":"수코나","name_nl":"Soechona","name_pl":"Suchona","name_pt":"Sukhona","name_ru":"Сухона","name_sv":"Suchona","name_tr":"Suhona","name_vi":"Sukhona","name_zh":"蘇霍納河","ne_id":1159110557,"name_fa":"سوخونا","name_he":"סוקהונה","name_uk":"Сухона","name_ur":"سوکھونا","name_zht":"蘇霍納河"}},
{"type":"Feature","geometry":{"type":"LineString","coordinates":[[31.414,60.235],[32.086,60.629],[32.356,60.655],[32.821,60.483]]},"properties":{"scalerank":5,"featurecla":"Lake Centerline","name":"Svir","note":"","min_zoom":4.7,"name_alt":"","min_label":5.7,"name_en":"Svir","label":"Svir","wikidataid":"Q213067","name_ar":"سفير","name_bn":"এসভির","name_de":"Swir","name_es":"Svir","name_fr":"Svir","name_el":"Σβιρ","name_hi":"स्वीर","name_hu":"Szvir","name_id":"Svir","name_it":"Svir'","name_ja":"スヴィリ川","name_ko":"스비리강","name_nl":"Svir","name_pl":"Świr","name_pt":"Svir","name_ru":"Свирь","name_sv":"Svir","name_tr":"Svir","name_vi":"Svir","name_zh":"斯维里河","ne_id":1159113209,"name_fa":"رودخانه سیویر","name_he":"סביר","name_uk":"Свір","name_ur":"سوئر","name_zht":"斯維里河"}},
{"type":"Feature","geometry":{"type":"MultiLineString","coordinates":[[[-5.996,39.852],[-5.656,39.797],[-5.215,39.812]],[[-2.734,40.528],[-2.577,40.724]]]},"properties":{"scalerank":5,"featurecla":"Lake Centerline","name":"Tajo","note":"","min_zoom":4.7,"name_alt":"","min_label":5.7,"name_en":"Tagus","label":"Tajo","wikidataid":"Q14294","name_ar":"نهر تاجة","name_bn":"তাজো","name_de":"Tajo","name_es":"Tajo","name_fr":"Tage","name_el":"Τάγος","name_hi":"तैजो","name_hu":"Tajo","name_id":"Tagus","name_it":"Tago","name_ja":"タホ川","name_ko":"타구스강","name_nl":"Taag","name_pl":"Tag","name_pt":"Tejo","name_ru":"Тахо","name_sv":"Tajo","name_tr":"Tejo","name_vi":"Tagus","name_zh":"塔霍河","ne_id":1159112911,"name_fa":"تاقوس","name_he":"טחו","name_uk":"Тахо","name_ur":"تاجو","name_zht":"塔霍河"}},
{"type":"Feature","geometry":{"type":"LineString","coordinates":[[18.81,49.925],[18.937,49.932]]},"properties":{"scalerank":5,"featurecla":"Lake Centerline","name":"Vistula","note":"","min_zoom":4.7,"name_alt":"","min_label":5.7,"name_en":"Vistula","label":"Vistula","wikidataid":"Q548","name_ar":"فيستولا","name_bn":"ভিস্তুলা নদী","name_de":"Weichsel","name_es":"Vístula","name_fr":"Vistule","name_el":"Βιστούλας","name_hi":"विस्चुला नदी","name_hu":"Visztula","name_id":"Vistula","name_it":"Vistola","name_ja":"ヴィスワ川","name_ko":"비스와강","name_nl":"Wisła","name_pl":"Wisła","name_pt":"Vístula","name_ru":"Висла","name_sv":"Wisła","name_tr":"Vistül","name_vi":"Wisla","name_zh":"维斯瓦河","ne_id":1159112937,"name_fa":"ویستولا","name_he":"ויסלה","name_uk":"Вісла","name_ur":"وسٹولا","name_zht":"维斯瓦河"}},
{"type":"Feature","geometry":{"type":"MultiLineString","coordinates":[[[45.664,50.222],[45.836,50.457],[45.675,50.696],[46.03,50.866],[45.837,51.26],[46.294,51.708],[46.775,51.748]],[[49.059,55.483],[49.248,55.113],[48.9,54.91],[48.458,54.257],[48.964,53.827],[49.209,53.461],[49.905,53.457]],[[43.432,56.675],[43.082,57.156],[43.178,57.329],[42.576,57.415]],[[37.151,56.753],[36.375,56.706]],[[37.761,57.291],[38.301,57.572]],[[41.343,57.493],[40.838,57.799],[40.007,57.567]],[[38.437,58.018],[38.408,58.288],[38.704,58.113]]]},"properties":{"scalerank":3,"featurecla":"Lake Centerline","name":"Volga","note":"","min_zoom":3,"name_alt":"","min_label":4,"name_en":"Volga","label":"Volga","wikidataid":"Q626","name_ar":"فولغا","name_bn":"ভোলগা নদী","name_de":"Wolga","name_es":"Volga","name_fr":"Volga","name_el":"Βόλγας","name_hi":"वोल्गा नदी","name_hu":"Volga","name_id":"Volga","name_it":"Volga","name_ja":"ヴォルガ川","name_ko":"볼가강","name_nl":"Wolga","name_pl":"Wołga","name_pt":"Volga","name_ru":"Волга","name_sv":"Volga","name_tr":"Volga","name_vi":"Volga","name_zh":"伏尔加河","ne_id":1159125617,"name_fa":"رودخانه ولگا","name_he":"וולגה","name_uk":"Волга","name_ur":"دریائے وولگا","name_zht":"伏尔加河"}},
{"type":"Feature","geometry":{"type":"MultiLineString","coordinates":[[[11.17,59.389],[11.203,59.498]],[[11.2,59.67],[11.157,59.911]]]},"properties":{"scalerank":6,"featurecla":"Lake Centerline","name":"Vorma","note":"","min_zoom":5,"name_alt":"","min_label":6,"name_en":"Vorma","label":"Vorma","wikidataid":"Q576337","name_ar":"فورما","name_bn":"ভোরমা","name_de":"Vorma","name_es":"Vorma","name_fr":"Vorma","name_el":"Βόρμα","name_hi":"वोर्मा","name_hu":"Vorma","name_id":"Vorma","name_it":"Vorma","name_ja":"ヴォルマ湖","name_ko":"보르마","name_nl":"Vorma","name_pl":"Vorma","name_pt":"Vorma","name_ru":"Ворма","name_sv":"Vorma","name_tr":"Vorma","name_vi":"Vorma","name_zh":"沃马河","ne_id":1159115943,"name_fa":"وورما","name_he":"וורמה","name_uk":"Ворма","name_ur":"وورما","name_zht":"沃馬湖"}},
{"type":"Feature","geometry":{"type":"MultiLineString","coordinates":[[[30.478,60.574],[29.596,60.717]],[[30.534,60.63],[30.979,60.593],[31.412,60.236]]]},"properties":{"scalerank":6,"featurecla":"Lake Centerline","name":"Vuoksi","note":"","min_zoom":5,"name_alt":"","min_label":6,"name_en":"Vuoksa","label":"Vuoksi","wikidataid":"Q819448","name_ar":"فووكسي","name_bn":"ভুক্সি","name_de":"Vuoksi","name_es":"Vuoksi","name_fr":"Vuoksi","name_el":"Βουόκσι","name_hi":"वुओक्सी","name_hu":"Vuoksi","name_id":"Vuoksi","name_it":"Vuoksi","name_ja":"ヴオクサ川","name_ko":"복시","name_nl":"Vuoksi","name_pl":"Vuoksi","name_pt":"Vuoksi","name_ru":"Вуокса","name_sv":"Vuoksen","name_tr":"Vuoksi","name_vi":"Vuoksi","name_zh":"武克希河","ne_id":1159115129,"name_fa":"رودخانه ویوکسی","name_he":"וווקסי","name_uk":"Вуоксі","name_ur":"ووکسی","name_zht":"武克希河"}},
{"type":"Feature","geometry":{"type":"MultiLineString","coordinates":[[[38.56,35.863],[39.227,35.881],[39.833,35.683],[40.424,35.167],[40.475,35.016],[40.993,34.428]],[[38.026,36.836],[38.231,36.618],[38.184,36.342]]]},"properties":{"scalerank":3,"featurecla":"River","name":"Al Furat","note":"","min_zoom":3,"name_alt":"","min_label":4,"name_en":"Euphrates","label":"Al Furat","wikidataid":"Q34589","name_ar":"الفرات","name_bn":"ফোরাত","name_de":"Euphrat","name_es":"Éufrates","name_fr":"Euphrate","name_el":"Ευφράτης","name_hi":"फ़रात नदी","name_hu":"Eufrátesz","name_id":"Efrat","name_it":"Eufrate","name_ja":"ユーフラテス川","name_ko":"유프라테스강","name_nl":"Eufraat","name_pl":"Eufrat","name_pt":"Eufrates","name_ru":"Евфрат","name_sv":"Eufrat","name_tr":"Fırat","name_vi":"Euphrates","name_zh":"幼发拉底河","ne_id":1159125949,"name_fa":"فرات","name_he":"פרת","name_uk":"Євфрат","name_ur":"دریائے فرات","name_zht":"幼发拉底河"}},
{"type":"Feature","geometry":{"type":"LineString","coordinates":[[27.267,44.138],[27.93,44.486],[27.877,44.744]]},"properties":{"scalerank":2,"featurecla":"River","name":"Borcea","note":"","min_zoom":2.1,"name_alt":"","min_label":3.1,"name_en":"Borcea","label":"","wikidataid":"","name_ar":"بورسيا","name_bn":"বোরসেয়া","name_de":"Borcea","name_es":"Borcea","name_fr":"Borcea","name_el":"Μπορκέα","name_hi":"बोर्सिया","name_hu":"Borcea","name_id":"Borcea","name_it":"Borcea","name_ja":"ボルチャ川","name_ko":"보르시아","name_nl":"Borcea","name_pl":"Borcea","name_pt":"Borcea","name_ru":"Борсеа","name_sv":"Borcea","name_tr":"Borcea","name_vi":"Sông Borcea","name_zh":"博尔恰河","ne_id":1159122121,"name_fa":"بورسی","name_he":"בורצ'ה","name_uk":"Борча","name_ur":"بورسیا","name_zht":"博爾恰河"}},
{"type":"Feature","geometry":{"type":"LineString","coordinates":[[29.706,45.26],[29.224,45.403],[28.761,45.234],[28.883,45.18]]},"properties":{"scalerank":2,"featurecla":"River","name":"Bratul Chillia","note":"","min_zoom":2.1,"name_alt":"","min_label":3.1,"name_en":"Chilia branch","label":"Bratul Chillia","wikidataid":"Q1344617","name_ar":"نهر تشيليا","name_bn":"ব্র্যাতুল চিল্লিয়া","name_de":"Kilijaarm","name_es":"Bratul Chillia","name_fr":"Bras de Chilia","name_el":"Μπρατούλ Τσίλια","name_hi":"ब्रातुल चिलिया","name_hu":"Bratul Chillia","name_id":"Bratul Chillia","name_it":"Braccio di Chilia","name_ja":"チリア支流","name_ko":"브라툴 칠리아","name_nl":"Chilia-arm","name_pl":"Kilia","name_pt":"Braço de Chilia","name_ru":"Килийское гирло","name_sv":"Bratul Chillia","name_tr":"Kili kolu","name_vi":"Sông Chillia","name_zh":"基利亚分流","ne_id":1159121381,"name_fa":"براتول چیلیا","name_he":"תעלת קיליה","name_uk":"Кілійське гирло","name_ur":"براٹل چیلیا","name_zht":"基利亞分流"}},
{"type":"Feature","geometry":{"type":"LineString","coordinates":[[28.883,45.18],[28.884,45.18],[29.605,44.915]]},"properties":{"scalerank":2,"featurecla":"River","name":"Bratul Sfântu Gheorghe","note":"","min_zoom":2.1,"name_alt":"","min_label":3.1,"name_en":"Sfântu Gheorghe branch","label":"Bratul Sfântu Gheorghe","wikidataid":"Q1668781","name_ar":"فرع سفانتو جورج","name_bn":"ব্র্যাতুল স্ফান্তু ঘেওর্ঘে","name_de":"St. Georg","name_es":"Bratul Sfântu Gheorghe","name_fr":"Bras de Saint Georges","name_el":"Μπρατούλ Σφάντου Γκεόργκε","name_hi":"ब्रातुल सफ़ंतु घोरघे","name_hu":"Bratul Sfântu Gheorghe","name_id":"Bratul Sfantu Gheorghe","name_it":"Braccio di Sfântu Gheor","name_ja":"スフントゥ・ゲオルゲ支流","name_ko":"브라툴 스판투 게오르게","name_nl":"Saint George Branch","name_pl":"Dopływ Świętego Grzegorza","name_pt":"Braço Sfântu Gheorghe","name_ru":"Георгиевское гирло","name_sv":"Bratul Sfântu Gheorghe","name_tr":"Sfântu Gheorghe Kolu","name_vi":"Sông Sfântu Gheorghe","name_zh":"聖格奧爾基分支","ne_id":1159121559,"name_fa":"براتول سفانتو قورقه","name_he":"תעלת גאורגה הקדוש","name_uk":"Георгіївське гирло","name_ur":"براٹل سفانٹو غیورغے","name_zht":"聖格奧爾基分支"}},
{"type":"Feature","geometry":{"type":"LineString","coordinates":[[28.883,45.18],[28.884,45.18],[29.679,45.152]]},"properties":{"scalerank":2,"featurecla":"River","name":"Bratul Sulina","note":"","min_zoom":2.1,"name_alt":"","min_label":3.1,"name_en":"Sulina branch","label":"Bratul Sulina","wikidataid":"Q1369180","name_ar":"فرع سولينا","name_bn":"ব্র্যাতুল সুলিনা","name_de":"Sulinaarm","name_es":"Bratul Sulina","name_fr":"Bras de Sulina","name_el":"Μπρατούλ Σουλίνα","name_hi":"ब्रातुल सुलीना","name_hu":"Bratul Sulina","name_id":"Bratul Sulina","name_it":"Braccio di Sulina","name_ja":"スリナ支流","name_ko":"브라툴 술리나","name_nl":"Sulina-arm","name_pl":"Brațul Sulina","name_pt":"Braço Sulina","name_ru":"Сулинское гирло","name_sv":"Bratul Sulina","name_tr":"Sulina Kolu","name_vi":"Sông Sulina","name_zh":"蘇利納分支","ne_id":1159121753,"name_fa":"براتول سولینا","name_he":"תעלת סולינה","name_uk":"Сулинське гирло","name_ur":"براٹل سولینا","name_zht":"蘇利納分支"}},
{"type":"Feature","geometry":{"type":"MultiLineString","coordinates":[[[16.433,60.156],[16.499,60.163]],[[17.417,60.51],[17.457,60.642]],[[14.973,60.728],[15.107,60.557],[16.006,60.39],[16.323,60.122]],[[13.718,61.413],[14.552,60.997]],[[12.41,62],[13.212,61.663]]]},"properties":{"scalerank":6,"featurecla":"River","name":"Dalälven","note":"","min_zoom":5,"name_alt":"","min_label":6,"name_en":"Dalälven","label":"Dalälven","wikidataid":"Q216627","name_ar":"دالالڤين","name_bn":"দালালভেন","name_de":"Dalälven","name_es":"Dal","name_fr":"Dalälven","name_el":"Ντάλελβεν","name_hi":"डलालवेन","name_hu":"Dalälven","name_id":"Dalälven","name_it":"Dalälven","name_ja":"ダール川","name_ko":"달라벤강","name_nl":"Dalälven","name_pl":"Dalälven","name_pt":"Dalälven","name_ru":"Далэльвен","name_sv":"Dalälven","name_tr":"Dalälven","name_vi":"Sông Dalälven","name_zh":"達爾河","ne_id":1159114331,"name_fa":"داللون","name_he":"דלאלוון","name_uk":"Далельвен","name_ur":"ڈالالوین","name_zht":"達爾河"}},
{"type":"Feature","geometry":{"type":"LineString","coordinates":[[31.163,30.151],[31.078,30.325],[31.25,30.623],[31.245,30.932],[31.671,31.278],[31.839,31.526]]},"properties":{"scalerank":1,"featurecla":"River","name":"Damietta Branch","note":"","min_zoom":2,"name_alt":"","min_label":3,"name_en":"Damietta Branch","label":"","wikidataid":"","name_ar":"فرع دمياط","name_bn":"দামিয়েত্তা ব্রাঞ্চ","name_de":"Damietta Branch","name_es":"Ramal Damietta","name_fr":"Damiette","name_el":"Νταμιέτα Μπραντς","name_hi":"डेमीएटा ब्रांच","name_hu":"Damietta Branch","name_id":"Anak Sungai Damietta","name_it":"Ramo Damietta","name_ja":"ダミエッタ支流","name_ko":"다미에타 브랜치","name_nl":"Damietta Branch","name_pl":"Damietta","name_pt":"Braço Damietta","name_ru":"река Думьят","name_sv":"Damietta","name_tr":"Dimyat Kolu","name_vi":"Nhánh sông Damietta","name_zh":"达米埃塔支流","ne_id":1159113949,"name_fa":"شاخه دامیتا","name_he":"סניף בראנץ'","name_uk":"Дамієтта","name_ur":"ڈیمیٹا برانچ","name_zht":"達米埃塔河"}},
{"type":"Feature","geometry":{"type":"LineString","coordinates":[[17.206,48.061],[17.762,47.77],[19,47.819],[19.06,47.481],[18.935,47.033],[18.916,46.271],[18.748,46.063],[18.839,45.836],[18.954,45.558],[19.093,45.337],[19.907,45.259],[20.282,45.126],[20.421,44.864],[20.731,44.693],[21.36,44.827],[22.495,44.435],[23.225,43.874],[24.227,43.763],[24.431,43.794],[25.497,43.671],[26.216,44.007],[27.087,44.167],[27.267,44.138],[27.86,44.263],[28.08,44.419],[27.877,44.744],[27.965,45.269],[28.212,45.45],[28.761,45.234]]},"properties":{"scalerank":2,"featurecla":"River","name":"Danube","note":"","min_zoom":2.1,"name_alt":"","min_label":3.1,"name_en":"Danube","label":"Danube","wikidataid":"Q1653","name_ar":"دانوب","name_bn":"দানিউব নদী","name_de":"Donau","name_es":"Danubio","name_fr":"Danube","name_el":"Δούναβης","name_hi":"डैन्यूब नदी","name_hu":"Duna","name_id":"Donau","name_it":"Danubio","name_ja":"ドナウ川","name_ko":"도나우강","name_nl":"Donau","name_pl":"Dunaj","name_pt":"Danúbio","name_ru":"Дунай","name_sv":"Donau","name_tr":"Tuna","name_vi":"Đa Nuýp","name_zh":"多瑙河","ne_id":1159115307,"name_fa":"دانوب","name_he":"דנובה","name_uk":"Дунай","name_ur":"دریائے ڈینیوب","name_zht":"多瑙河"}},
{"type":"Feature","geometry":{"type":"LineString","coordinates":[[32.078,56.908],[32.318,56.75],[32.068,56.194],[31.39,55.989],[31.415,55.655],[30.643,55.436],[30.148,55.195],[29.438,55.112],[28.919,55.455],[28.087,55.62],[27.855,55.819],[27.459,55.803],[26.414,55.965],[26.064,56.418],[25.71,56.609],[25.174,56.594],[24.22,56.894],[24.054,57.066]]},"properties":{"scalerank":5,"featurecla":"River","name":"Daugava","note":"","min_zoom":4.7,"name_alt":"Zapadnaya Dvina","min_label":5.7,"name_en":"Daugava","label":"Daugava","wikidataid":"Q8197","name_ar":"نهر دفينا","name_bn":"দাউগাভা","name_de":"Düna","name_es":"Daugava","name_fr":"Daugava","name_el":"Νταουγκάβα","name_hi":"डुगावा नदी","name_hu":"Daugava","name_id":"Daugava","name_it":"Daugava","name_ja":"ダウガヴァ川","name_ko":"다우가바강","name_nl":"Westelijke Dvina","name_pl":"Dźwina","name_pt":"Duína Ocidental","name_ru":"Западная Двина","name_sv":"Daugava","name_tr":"Daugava","name_vi":"Tây Dvina","name_zh":"道加瓦河","ne_id":1159113381,"name_fa":"دائوگاوا","name_he":"דווינה","name_uk":"Західна Двіна","name_ur":"ڈوگاوا","name_zht":"道加瓦河"}},
{"type":"Feature","geometry":{"type":"LineString","coordinates":[[39.643,38.416],[40.018,38.348],[40.427,37.832],[41.8,37.709],[41.882,37.441],[42.313,37.23],[42.377,37.062]]},"properties":{"scalerank":4,"featurecla":"River","name":"Dicle","note":"","min_zoom":4,"name_alt":"","min_label":5,"name_en":"Tigris","label":"Dicle","wikidataid":"Q35591","name_ar":"دجلة","name_bn":"দজলা","name_de":"Tigris","name_es":"Tigris","name_fr":"Tigre","name_el":"Τίγρης ποταμός","name_hi":"दजला नदी","name_hu":"Tigris","name_id":"Tigris","name_it":"Tigri","name_ja":"チグリス川","name_ko":"티그리스강","name_nl":"Tigris","name_pl":"Tygrys","name_pt":"Tigre","name_ru":"Тигр","name_sv":"Tigris","name_tr":"Dicle","name_vi":"Tigris","name_zh":"底格里斯河","ne_id":1159112059,"name_fa":"دجله","name_he":"חידקל","name_uk":"Тигр","name_ur":"دریائے دجلہ","name_zht":"底格里斯河"}},
{"type":"Feature","geometry":{"type":"LineString","coordinates":[[33.735,55.874],[33.891,55.713],[33.585,55.498],[33.391,54.917]]},"properties":{"scalerank":4,"featurecla":"River","name":"Dnepre","note":"","min_zoom":4,"name_alt":"","min_label":5,"name_en":"Dnieper","label":"Dnepre","wikidataid":"Q40855","name_ar":"دنيبر","name_bn":"নিপার নদী","name_de":"Dnepr","name_es":"Dniéper","name_fr":"Dniepr","name_el":"Δνείπερος","name_hi":"नीपर","name_hu":"Dnyeper","name_id":"Dnieper","name_it":"Dnepr","name_ja":"ドニエプル川","name_ko":"드네프르강","name_nl":"Dnjepr","name_pl":"Dniepr","name_pt":"Dniepre","name_ru":"Днепр","name_sv":"Dnepr","name_tr":"Dinyeper","name_vi":"Dnepr","name_zh":"第聂伯河","ne_id":1159112073,"name_fa":"دنیپر","name_he":"דנייפר","name_uk":"Дніпро","name_ur":"دریائے دنیپر","name_zht":"第聂伯河"}},
{"type":"Feature","geometry":{"type":"MultiLineString","coordinates":[[[30.478,46.101],[30.493,46.09]],[[22.847,49.267],[23.082,49.461],[23.607,49.565],[24.019,49.481],[25.251,48.842],[25.894,48.608],[26.555,48.474],[26.804,48.579],[27.433,48.584],[28.291,48.239],[28.934,47.898],[29.154,47.235],[29.693,46.665],[30.269,46.32]]]},"properties":{"scalerank":6,"featurecla":"River","name":"Dniester","note":"","min_zoom":5,"name_alt":"","min_label":6,"name_en":"Dniester","label":"Dniester","wikidataid":"Q131210","name_ar":"دنيستر","name_bn":"দনিএস্তের","name_de":"Dnister","name_es":"Dniéster","name_fr":"Dniestr","name_el":"Δνείστερος","name_hi":"डेनिस्टर","name_hu":"Dnyeszter","name_id":"Dniester","name_it":"Dnestr","name_ja":"ドニエストル川","name_ko":"드네스트르강","name_nl":"Dnjestr","name_pl":"Dniestr","name_pt":"Dniestre","name_ru":"Днестр","name_sv":"Dnestr","name_tr":"Dinyester","name_vi":"Dnister","name_zh":"德涅斯特河","ne_id":1159114451,"name_fa":"نیستر","name_he":"דניסטר","name_uk":"Дністер","name_ur":"نائیسٹر","name_zht":"德涅斯特河"}},
{"type":"Feature","geometry":{"type":"MultiLineString","coordinates":[[[32.578,46.616],[33.54,46.831]],[[35.105,47.84],[35.113,48.394],[33.194,49.094]],[[31.888,49.554],[31.691,49.636],[31.462,49.757]],[[31.44,50],[31.071,50.023],[30.707,50.222],[30.515,50.597]],[[33.391,54.917],[32.978,55.001],[32.512,54.694],[32.006,54.777],[30.463,54.537],[30.304,54.326],[30.275,53.802],[30.371,53.297],[30.034,52.954],[30.351,52.409],[30.796,51.996],[30.551,51.658],[30.508,51.217]]]},"properties":{"scalerank":4,"featurecla":"River","name":"Dnipro","note":"","min_zoom":4,"name_alt":"Dnieper","min_label":5,"name_en":"Dnieper","label":"Dnipro","wikidataid":"Q40855","name_ar":"دنيبر","name_bn":"নিপার নদী","name_de":"Dnepr","name_es":"Dniéper","name_fr":"Dniepr","name_el":"Δνείπερος","name_hi":"नीपर","name_hu":"Dnyeper","name_id":"Dnieper","name_it":"Dnepr","name_ja":"ドニエプル川","name_ko":"드네프르강","name_nl":"Dnjepr","name_pl":"Dniepr","name_pt":"Dniepre","name_ru":"Днепр","name_sv":"Dnepr","name_tr":"Dinyeper","name_vi":"Dnepr","name_zh":"第聂伯河","ne_id":1159112001,"name_fa":"دنیپر","name_he":"דנייפר","name_uk":"Дніпро","name_ur":"دریائے دنیپر","name_zht":"第聂伯河"}},
{"type":"Feature","geometry":{"type":"MultiLineString","coordinates":[[[42.11,47.602],[40.926,47.586],[40.112,47.222],[39.293,47.106]],[[43.549,49.507],[43.042,49.351],[42.77,49.573],[41.27,49.609],[40.502,50.12],[40.04,50.103],[40.064,50.408],[39.757,50.733],[39.745,50.962],[39.143,51.024],[39.012,51.597],[39.133,52.012]],[[39.133,52.019],[38.905,52.438],[39.152,53.333],[38.998,53.576],[38.641,53.687],[38.306,54.064]]]},"properties":{"scalerank":6,"featurecla":"River","name":"Don","note":"","min_zoom":4.7,"name_alt":"","min_label":6,"name_en":"Don","label":"Don","wikidataid":"Q1229","name_ar":"نهر الدون","name_bn":"দোন নদী","name_de":"Don","name_es":"Don","name_fr":"Don","name_el":"Ντον","name_hi":"दोन नदी","name_hu":"Don","name_id":"Don","name_it":"Don","name_ja":"ドン川","name_ko":"돈강","name_nl":"Don","name_pl":"Don","name_pt":"Don","name_ru":"Дон","name_sv":"Don","name_tr":"Don","name_vi":"Đông","name_zh":"頓河","ne_id":1159115995,"name_fa":"رودخانه دان","name_he":"דון","name_uk":"Дон","name_ur":"ڈان","name_zht":"頓河"}},
{"type":"Feature","geometry":{"type":"MultiLineString","coordinates":[[[8.22,48.047],[8.49,47.931],[9.295,48.078],[10.712,48.679],[11.684,48.794],[12.242,49.018],[12.507,48.924]],[[17.206,48.061],[16.659,48.161],[16.209,48.38],[15.502,48.417],[15.265,48.229],[14.583,48.219],[13.081,48.691],[12.507,48.931]]]},"properties":{"scalerank":2,"featurecla":"River","name":"Donau","note":"","min_zoom":2.1,"name_alt":"Danube","min_label":3.1,"name_en":"Danube","label":"Donau","wikidataid":"Q1653","name_ar":"دانوب","name_bn":"দানিউব নদী","name_de":"Donau","name_es":"Danubio","name_fr":"Danube","name_el":"Δούναβης","name_hi":"डैन्यूब नदी","name_hu":"Duna","name_id":"Donau","name_it":"Danubio","name_ja":"ドナウ川","name_ko":"도나우강","name_nl":"Donau","name_pl":"Dunaj","name_pt":"Danúbio","name_ru":"Дунай","name_sv":"Donau","name_tr":"Tuna","name_vi":"Đa Nuýp","name_zh":"多瑙河","ne_id":1159118769,"name_fa":"دانوب","name_he":"דנובה","name_uk":"Дунай","name_ur":"دریائے ڈینیوب","name_zht":"多瑙河"}},
{"type":"Feature","geometry":{"type":"LineString","coordinates":[[13.822,47.09],[14.752,47.214],[15.145,47.4],[15.63,46.736],[16.042,46.663],[16.871,46.339],[17.311,45.996],[17.964,45.77],[18.283,45.765],[18.954,45.558]]},"properties":{"scalerank":6,"featurecla":"River","name":"Mur","note":"","min_zoom":5,"name_alt":"Drava","min_label":6,"name_en":"Mur","label":"Mur","wikidataid":"Q204040","name_ar":"مور","name_bn":"মুর","name_de":"Mur","name_es":"Mura","name_fr":"Mur","name_el":"Μουρ","name_hi":"मुर","name_hu":"Mura","name_id":"Mur","name_it":"Mura","name_ja":"ムール川","name_ko":"무어강","name_nl":"Mur","name_pl":"Mura","name_pt":"Mur","name_ru":"Мура","name_sv":"Mura","name_tr":"Mora","name_vi":"Sông Mur","name_zh":"穆尔河","ne_id":1159113895,"name_fa":"رودخانه مور","name_he":"מורה","name_uk":"Мура","name_ur":"مر","name_zht":"穆爾河"}},
{"type":"Feature","geometry":{"type":"LineString","coordinates":[[-2.837,41.928],[-2.444,41.797],[-2.498,41.521],[-2.935,41.508],[-3.941,41.693],[-5.307,41.464],[-6.178,41.55],[-7.011,41.079],[-7.244,41.189],[-8.425,41.084],[-8.675,41.154]]},"properties":{"scalerank":6,"featurecla":"River","name":"Duero","note":"","min_zoom":5,"name_alt":"","min_label":6,"name_en":"Douro","label":"Duero","wikidataid":"Q14299","name_ar":"دورو","name_bn":"দোরু নদী","name_de":"Douro","name_es":"Duero","name_fr":"Douro","name_el":"Δούρος","name_hi":"दयोरो","name_hu":"Duero","name_id":"Duero","name_it":"Duero","name_ja":"ドウロ川","name_ko":"도루강","name_nl":"Douro","name_pl":"Duero","name_pt":"Douro","name_ru":"Дуэро","name_sv":"Duero","name_tr":"Douro","name_vi":"Douro","name_zh":"杜罗河","ne_id":1159116751,"name_fa":"دورو","name_he":"דורו","name_uk":"Дору","name_ur":"ڈویرو","name_zht":"杜罗河"}},
{"type":"Feature","geometry":{"type":"LineString","coordinates":[[-4.189,43.011],[-4.017,42.861],[-3.011,42.755],[-2.641,42.518],[-1.994,42.391],[-1.405,41.978],[-0.301,41.309],[0.167,41.411],[0.652,41.083],[0.551,40.802],[0.891,40.722]]},"properties":{"scalerank":5,"featurecla":"River","name":"Ebro","note":"","min_zoom":4.7,"name_alt":"","min_label":5.7,"name_en":"Ebro","label":"Ebro","wikidataid":"Q10965","name_ar":"أبرة","name_bn":"এব্রো","name_de":"Ebro","name_es":"Ebro","name_fr":"Èbre","name_el":"Έβρος","name_hi":"एब्रो","name_hu":"Ebro","name_id":"Ebro","name_it":"Ebro","name_ja":"エブロ川","name_ko":"에브로강","name_nl":"Ebro","name_pl":"Ebro","name_pt":"Ebro","name_ru":"Эбро","name_sv":"Ebro","name_tr":"Ebro","name_vi":"Ebro","name_zh":"埃布羅河","ne_id":1159112595,"name_fa":"ایبرو","name_he":"אברו","name_uk":"Ебро","name_ur":"ایبرو","name_zht":"埃布羅河"}},
{"type":"Feature","geometry":{"type":"MultiLineString","coordinates":[[[15.583,50.693],[15.889,50.328],[15.817,50.107],[15.236,50.035],[14.631,50.222],[14.039,50.567],[14.136,50.918],[13.443,51.19],[13.184,51.474]],[[13.191,51.474],[12.742,51.843],[12.147,51.874],[11.691,52.072],[11.978,52.438],[12.014,52.77],[11.724,53.006],[11.106,53.151],[10.682,53.369],[10.082,53.44]]]},"properties":{"scalerank":5,"featurecla":"River","name":"Elbe","note":"","min_zoom":4.7,"name_alt":"","min_label":5.7,"name_en":"Elbe","label":"Elbe","wikidataid":"Q1644","name_ar":"إلبه","name_bn":"লাবে নদী","name_de":"Elbe","name_es":"Elba","name_fr":"Elbe","name_el":"Έλβας","name_hi":"एल्वे नदी","name_hu":"Elba","name_id":"Elbe","name_it":"Elba","name_ja":"エルベ川","name_ko":"엘베강","name_nl":"Elbe","name_pl":"Łaba","name_pt":"Elba","name_ru":"Эльба","name_sv":"Elbe","name_tr":"Elbe","name_vi":"Elbe","name_zh":"易北河","ne_id":1159112751,"name_fa":"البه","name_he":"אלבה","name_uk":"Ельба","name_ur":"ایلب","name_zht":"易北河"}},
{"type":"Feature","geometry":{"type":"MultiLineString","coordinates":[[[45.463,31.305],[46.366,30.964],[46.483,30.903],[47.441,31.004],[47.468,30.968]],[[40.993,34.428],[41.827,34.509],[42.286,34.292],[42.541,33.888],[43.032,33.503],[43.65,33.384],[44.029,33.16],[44.254,32.828],[44.237,32.624],[44.548,31.648],[44.77,31.479],[45.467,31.305]]]},"properties":{"scalerank":3,"featurecla":"River","name":"Euphrates","note":"","min_zoom":3,"name_alt":"","min_label":4,"name_en":"Euphrates","label":"Euphrates","wikidataid":"Q34589","name_ar":"الفرات","name_bn":"ফোরাত","name_de":"Euphrat","name_es":"Éufrates","name_fr":"Euphrate","name_el":"Ευφράτης","name_hi":"फ़रात नदी","name_hu":"Eufrátesz","name_id":"Efrat","name_it":"Eufrate","name_ja":"ユーフラテス川","name_ko":"유프라테스강","name_nl":"Eufraat","name_pl":"Eufrat","name_pt":"Eufrates","name_ru":"Евфрат","name_sv":"Eufrat","name_tr":"Fırat","name_vi":"Euphrates","name_zh":"幼发拉底河","ne_id":1159123947,"name_fa":"فرات","name_he":"פרת","name_uk":"Євфрат","name_ur":"دریائے فرات","name_zht":"幼发拉底河"}},
{"type":"Feature","geometry":{"type":"LineString","coordinates":[[18.92,46.267],[18.839,45.836]]},"properties":{"scalerank":6,"featurecla":"River","name":"Ferenc Csatorna","note":"","min_zoom":5,"name_alt":"","min_label":6,"name_en":"Ferenc Csatorna","label":"","wikidataid":"","name_ar":"فيرينك كساتورنا","name_bn":"ফেরেংক ক্সাতোরনা","name_de":"Donau-Theiß-Donau-Kana","name_es":"Ferenc Csatorna","name_fr":"Canal Danube-Tisa-Danub","name_el":"Φέρεντς Τσατόρνα","name_hi":"फेरेक सेसटोरना","name_hu":"Ferenc Csatorna","name_id":"Ferenc Csatorna","name_it":"Ferenc Csatorna","name_ja":"グレートバイカ運河","name_ko":"페렌츠 차토르나","name_nl":"Ferenc-tápcsatorna","name_pl":"Ferenc Csatorna","name_pt":"Canal Danúbio – Tisa – Danú","name_ru":"канал Дунай — Тиса — Дунай","name_sv":"Ferenc Csatorna","name_tr":"Ferenc Csatorna","name_vi":"Sông Ferenc Csatorna","name_zh":"弗朗西斯运河","ne_id":1159117717,"name_fa":"فرنک سیساتورنا","name_he":"פֶרֶנץ צאטורנה","name_uk":"Ференц Чаторна","name_ur":"فیرینک ساٹورنا","name_zht":"費倫茨河"}},
{"type":"Feature","geometry":{"type":"MultiLineString","coordinates":[[[38.768,38.813],[38.367,38.551],[39.075,38.34],[39.239,38.102],[38.813,37.645],[38.207,37.429],[37.966,37.425],[37.862,37.116],[38.026,36.836]],[[41.455,40.18],[40.985,39.944],[40.396,39.942],[40.122,39.568],[39.415,39.683],[38.488,39.445],[38.74,39.078]]]},"properties":{"scalerank":3,"featurecla":"River","name":"Firat","note":"","min_zoom":3,"name_alt":"","min_label":4,"name_en":"Euphrates","label":"Firat","wikidataid":"Q34589","name_ar":"الفرات","name_bn":"ফোরাত","name_de":"Euphrat","name_es":"Éufrates","name_fr":"Euphrate","name_el":"Ευφράτης","name_hi":"फ़रात नदी","name_hu":"Eufrátesz","name_id":"Efrat","name_it":"Eufrate","name_ja":"ユーフラテス川","name_ko":"유프라테스강","name_nl":"Eufraat","name_pl":"Eufrat","name_pt":"Eufrates","name_ru":"Евфрат","name_sv":"Eufrat","name_tr":"Fırat","name_vi":"Euphrates","name_zh":"幼发拉底河","ne_id":1159124669,"name_fa":"فرات","name_he":"פרת","name_uk":"Євфрат","name_ur":"دریائے فرات","name_zht":"幼发拉底河"}},
{"type":"Feature","geometry":{"type":"LineString","coordinates":[[1.809,42.627],[1.616,42.856],[1.454,43.415]]},"properties":{"scalerank":6,"featurecla":"River","name":"Ariège","note":"","min_zoom":5,"name_alt":"","min_label":6,"name_en":"Ariège","label":"Ariège","wikidataid":"Q18451","name_ar":"أرياج","name_bn":"আরিয়েজ","name_de":"Ariège","name_es":"Ariège","name_fr":"Ariège","name_el":"Αριέζ","name_hi":"एरीगे","name_hu":"Ariège","name_id":"Ariège","name_it":"Ariège","name_ja":"アリエージュ川","name_ko":"아리에주","name_nl":"Ariège","name_pl":"Ariège","name_pt":"Ariège","name_ru":"Арьеж","name_sv":"Ariège","name_tr":"Ariège","name_vi":"Ariège","name_zh":"阿列日河","ne_id":1159129235,"name_fa":"آریژی","name_he":"ארייז'","name_uk":"Ар'єж","name_ur":"آریگے","name_zht":"阿列日河"}},
{"type":"Feature","geometry":{"type":"LineString","coordinates":[[45.809,32.502],[45.989,32.219],[45.97,32.005],[46.366,30.964]]},"properties":{"scalerank":4,"featurecla":"River","name":"Gharraf Canal","note":"","min_zoom":4,"name_alt":"","min_label":5,"name_en":"Shatt al-Hayy","label":"","wikidataid":"Q2076850","name_ar":"نهر الغراف","name_bn":"ঘারাফ ক্যানেল","name_de":"Shatt Al Gharraf","name_es":"Gharraf Canal","name_fr":"Shatt Al Gharraf","name_el":"Κανάλι Γκαράφ","name_hi":"गर्राफ कैनल","name_hu":"Gharraf-csatorna","name_id":"Kanal Gharraf","name_it":"Canale di Gharraf","name_ja":"ガラフ川","name_ko":"가라프 캐널","name_nl":"Gharraf Canal","name_pl":"Kanał Gharraf","name_pt":"Canal Gharraf","name_ru":"Шатт аль-Хай","name_sv":"Gharrafkanalen","name_tr":"Gharraf Kanalı","name_vi":"Kênh Gharraf","name_zh":"加拉夫运河","ne_id":1159112397,"name_fa":"کانال قراف","name_he":"תעלת גארף","name_uk":"канал Гарраф","name_ur":"غراف کنال","name_zht":"加拉夫運河"}},
{"type":"Feature","geometry":{"type":"LineString","coordinates":[[10.828,62],[10.863,61.7],[11.579,60.849],[12.028,60.525]]},"properties":{"scalerank":6,"featurecla":"River","name":"Glomma","note":"","min_zoom":5,"name_alt":"Glåma","min_label":6,"name_en":"Glomma","label":"Glomma","wikidataid":"Q214535","name_ar":"جلوما","name_bn":"গ্লোম্মা","name_de":"Glomma","name_es":"Glomma","name_fr":"Glomma","name_el":"Γκλόμμα","name_hi":"ग्लोम्मा","name_hu":"Glomma","name_id":"Glomma","name_it":"Glomma","name_ja":"グロンマ川","name_ko":"글로마 강","name_nl":"Glomma","name_pl":"Glomma","name_pt":"Glomma","name_ru":"Гломма","name_sv":"Glomma","name_tr":"Glomma","name_vi":"Sông Glomma","name_zh":"格羅馬河","ne_id":1159117401,"name_fa":"گلوما","name_he":"גלומה","name_uk":"Гломма","name_ur":"گلوما","name_zht":"格羅馬河"}},
{"type":"Feature","geometry":{"type":"LineString","coordinates":[[12.335,58.374],[12.029,57.928],[11.729,57.764]]},"properties":{"scalerank":6,"featurecla":"River","name":"Göta älv","note":"","min_zoom":5,"name_alt":"","min_label":6,"name_en":"Göta älv","label":"Göta älv","wikidataid":"Q214748","name_ar":"جوتا","name_bn":"গোটা আল্ভ","name_de":"Göta älv","name_es":"Göta","name_fr":"Göta älv","name_el":"Γκέτα Έλβ","name_hi":"गोटा अल्व","name_hu":"Göta","name_id":"Göta älv","name_it":"Göta älv","name_ja":"イェータ川","name_ko":"예타강","name_nl":"Göta älv","name_pl":"Göta älv","name_pt":"Göta älv","name_ru":"Гёта-Эльв","name_sv":"Göta älv","name_tr":"Göta älv","name_vi":"Göta","name_zh":"约塔河","ne_id":1159117981,"name_fa":"گوته الو","name_he":"יטה אלב","name_uk":"Гета-Ельв","name_ur":"گوٹا آلو","name_zht":"約塔河"}},
{"type":"Feature","geometry":{"type":"LineString","coordinates":[[31.238,30.121],[31.64,30.484],[32.303,30.593]]},"properties":{"scalerank":6,"featurecla":"River","name":"Ismailiya Canal","note":"","min_zoom":5,"name_alt":"","min_label":6,"name_en":"Ismailiya Canal","label":"","wikidataid":"","name_ar":"قناة الإسماعيلية","name_bn":"ইস্মাইলিয়া ক্যানেল","name_de":"Ismailiakanal","name_es":"Canal Ismailiya","name_fr":"Lac Timsah","name_el":"Κανάλι Ισμαιλίγια","name_hi":"इस्माइलिया कैनल","name_hu":"Ismailiya-csatorna","name_id":"Kanal Ismailiya","name_it":"Canale di Ismailia","name_ja":"イスマイリヤ運河","name_ko":"이스마일리야 캐널","name_nl":"Ismailia Canal","name_pl":"Kanał Ismailijski","name_pt":"Canal de Ismaília","name_ru":"канал Исмаилия","name_sv":"Ismailiakanalen","name_tr":"İsmailiye Kanalı","name_vi":"Kênh Ismailiya","name_zh":"伊斯梅利亚运河","ne_id":1159113967,"name_fa":"کانال اسماعیلیه","name_he":"תעלת איסמעיליה","name_uk":"канал Ісмаїлія","name_ur":"ایسمیلیا کنال","name_zht":"伊斯梅利亞運河"}},
{"type":"Feature","geometry":{"type":"MultiLineString","coordinates":[[[35.424,31.325],[35.401,31.23]],[[35.577,32.72],[35.559,31.766]],[[35.864,33.596],[35.696,33.431],[35.599,32.9]]]},"properties":{"scalerank":6,"featurecla":"River","name":"Jordan","note":"","min_zoom":5,"name_alt":"","min_label":6,"name_en":"Jordan","label":"Jordan","wikidataid":"Q40059","name_ar":"نهر الأردن","name_bn":"জর্দান নদী","name_de":"Jordan","name_es":"Jordán","name_fr":"Jourdain","name_el":"Ιορδάνης ποταμός","name_hi":"जॉर्डन नदी","name_hu":"Jordán","name_id":"Yordan","name_it":"Giordano","name_ja":"ヨルダン川","name_ko":"요르단강","name_nl":"Jordaan","name_pl":"Jordan","name_pt":"Jordão","name_ru":"Иордан","name_sv":"Jordan","name_tr":"Şeria","name_vi":"Jordan","name_zh":"约旦河","ne_id":1159114369,"name_fa":"اردن","name_he":"נהר הירדן","name_uk":"Йордан","name_ur":"دریائے اردن","name_zht":"約旦河"}},
{"type":"Feature","geometry":{"type":"LineString","coordinates":[[22.579,61.211],[21.598,61.578]]},"properties":{"scalerank":6,"featurecla":"River","name":"Kokemäenjoki","note":"","min_zoom":5,"name_alt":"","min_label":6,"name_en":"Kokemäenjoki","label":"Kokemäenjoki","wikidataid":"Q1329599","name_ar":"كوكيماينيوكي","name_bn":"কোকেমায়েনজোকি","name_de":"Kokemäenjoki","name_es":"Kokemäenjoki","name_fr":"Kokemäenjoki","name_el":"Κοκενμαεντζόκι","name_hi":"कोकेमेनजोकी","name_hu":"Kokemäenjoki","name_id":"Kokemäenjoki","name_it":"Kokemäenjoki","name_ja":"コケマエンヨキ","name_ko":"코케마엔조키","name_nl":"Kokemäenjoki","name_pl":"Kokemäenjoki","name_pt":"Kokemäenjoki","name_ru":"Кокемяэнйоки","name_sv":"Kumo älv","name_tr":"Kokemäenjoki","name_vi":"Sông Kokemäenjoki","name_zh":"科凱邁基河","ne_id":1159118035,"name_fa":"کوکماینجوکی","name_he":"קוקמאקניוקי","name_uk":"Кокемяеньйокі","name_ur":"کوکیمینجوکی","name_zht":"科凱邁基河"}},
{"type":"Feature","geometry":{"type":"LineString","coordinates":[[5.331,51.963],[4.596,51.898],[4.085,51.994]]},"properties":{"scalerank":4,"featurecla":"River","name":"Lek","note":"","min_zoom":4,"name_alt":"","min_label":5,"name_en":"Lek","label":"Lek","wikidataid":"Q1143852","name_ar":"ليك","name_bn":"লেক","name_de":"Lek","name_es":"Lek","name_fr":"Lek","name_el":"Λεκ","name_hi":"लेक","name_hu":"Lek","name_id":"Lek","name_it":"Lek","name_ja":"レック川","name_ko":"렉강","name_nl":"Lek","name_pl":"Lek","name_pt":"Lek","name_ru":"Лек","name_sv":"Lek","name_tr":"Lek","name_vi":"Sông Lek","name_zh":"莱克河","ne_id":1159112387,"name_fa":"لک","name_he":"לק","name_uk":"Лек","name_ur":"لیک","name_zht":"萊克河"}},
{"type":"Feature","geometry":{"type":"LineString","coordinates":[[6.039,51.872],[5.331,51.963]]},"properties":{"scalerank":4,"featurecla":"River","name":"Nederrijn","note":"","min_zoom":4,"name_alt":"","min_label":5,"name_en":"Nederrijn","label":"Nederrijn","wikidataid":"Q1152951","name_ar":"نيديرراين","name_bn":"নেদেরিজিন","name_de":"Nederrijn","name_es":"Nederrijn","name_fr":"Rhin inférieur","name_el":"Νέντερραϊν","name_hi":"नेदेर्र्जिन","name_hu":"Nederrijn","name_id":"Nederrijn","name_it":"Nederrijn","name_ja":"ネーデルライン川","name_ko":"네데린","name_nl":"Nederrijn","name_pl":"Dolny Ren","name_pt":"Reno Baixo","name_ru":"Недеррейн","name_sv":"Nederrijn","name_tr":"Nederrijn","name_vi":"Sông Nederrijn","name_zh":"荷兰莱茵河","ne_id":1159112369,"name_fa":"ندرجین","name_he":"נֶדֶריאין","name_uk":"Недеррейн","name_ur":"نیدرجن","name_zht":"荷蘭萊茵河"}},
{"type":"Feature","geometry":{"type":"LineString","coordinates":[[31.043,59.951],[30.795,59.811],[30.157,59.904]]},"properties":{"scalerank":5,"featurecla":"River","name":"Neva","note":"","min_zoom":4.7,"name_alt":"","min_label":5.7,"name_en":"Neva","label":"Neva","wikidataid":"Q645","name_ar":"نهر نيفا","name_bn":"নেভা নদী","name_de":"Newa","name_es":"Nevá","name_fr":"Neva","name_el":"Νέβας","name_hi":"नेवा नदी","name_hu":"Néva","name_id":"Neva","name_it":"Neva","name_ja":"ネヴァ川","name_ko":"네바강","name_nl":"Neva","name_pl":"Newa","name_pt":"Neva","name_ru":"Нева","name_sv":"Neva","name_tr":"Neva","name_vi":"Neva","name_zh":"涅瓦河","ne_id":1159113025,"name_fa":"رود نوا","name_he":"נייבה","name_uk":"Нева","name_ur":"نیوا","name_zht":"涅瓦河"}},
{"type":"Feature","geometry":{"type":"MultiLineString","coordinates":[[[33.951,18],[33.9,18.278],[33.59,18.741],[33.539,19.173],[33.38,19.423],[33.018,19.511],[32.468,19.083],[31.642,18.223],[31.296,18.015],[30.809,18.154],[30.562,18.66],[30.458,19.471],[30.35,19.786],[30.575,19.967],[30.571,20.291],[30.317,20.616],[30.699,21.177],[31.091,21.609]],[[32.879,23.988],[32.921,24.77],[32.848,25.082],[32.54,25.35],[32.493,25.565],[32.704,25.754],[32.678,26.163],[32.362,26.067],[32.015,26.2],[31.341,27.057],[30.868,27.5],[30.863,27.985],[30.744,28.165],[30.899,28.791],[31.219,29.282],[31.287,29.783],[31.238,30.121]]]},"properties":{"scalerank":1,"featurecla":"River","name":"Nile","note":"","min_zoom":2,"name_alt":"","min_label":3,"name_en":"Nile","label":"Nile","wikidataid":"Q3392","name_ar":"نهر النيل","name_bn":"নীলনদ","name_de":"Nil","name_es":"Nilo","name_fr":"Nil","name_el":"Νείλος","name_hi":"नील नदी","name_hu":"Nílus","name_id":"Nil","name_it":"Nilo","name_ja":"ナイル川","name_ko":"나일강","name_nl":"Nijl","name_pl":"Nil","name_pt":"Nilo","name_ru":"Нил","name_sv":"Nilen","name_tr":"Nil","name_vi":"Nin","name_zh":"尼罗河","ne_id":1159121589,"name_fa":"نیل","name_he":"נילוס","name_uk":"Ніл","name_ur":"دریائے نیل","name_zht":"尼羅河"}},
{"type":"Feature","geometry":{"type":"LineString","coordinates":[[17.618,49.739],[17.946,49.637],[18.307,49.886],[18.252,50.22],[17.762,50.78],[16.869,51.229],[16.475,51.245],[16.31,51.652],[15.847,51.743],[15.682,52.011],[14.761,52.077],[14.619,52.528],[14.129,52.878],[14.369,53.106],[14.584,53.639]]},"properties":{"scalerank":4,"featurecla":"River","name":"Oder","note":"","min_zoom":4,"name_alt":"","min_label":5,"name_en":"Oder","label":"Oder","wikidataid":"Q552","name_ar":"أودر","name_bn":"ওডার নদী","name_de":"Oder","name_es":"Óder","name_fr":"Oder","name_el":"Όντερ","name_hi":"ओडर नदी","name_hu":"Odera","name_id":"Oder","name_it":"Oder","name_ja":"オーデル川","name_ko":"오데르강","name_nl":"Oder","name_pl":"Odra","name_pt":"Oder","name_ru":"Одра","name_sv":"Oder","name_tr":"Oder","name_vi":"Oder","name_zh":"奧得河","ne_id":1159112201,"name_fa":"اودر","name_he":"אודר","name_uk":"Одра","name_ur":"اوڈر","name_zht":"奧得河"}},
{"type":"Feature","geometry":{"type":"LineString","coordinates":[[7.11,44.706],[7.619,44.849],[7.824,45.19],[8.36,45.199],[8.644,45.054],[9.224,45.141],[10.05,45.06],[10.491,44.935],[11.188,45.065],[11.574,44.906],[12.085,45.02],[12.523,44.968]]},"properties":{"scalerank":6,"featurecla":"River","name":"Po","note":"","min_zoom":5,"name_alt":"","min_label":6,"name_en":"Po","label":"Po","wikidataid":"Q643","name_ar":"نهر بو","name_bn":"পো নদী","name_de":"Po","name_es":"Po","name_fr":"Pô","name_el":"Πάδος","name_hi":"पो","name_hu":"Pó","name_id":"Po","name_it":"Po","name_ja":"ポー川","name_ko":"포강","name_nl":"Po","name_pl":"Pad","name_pt":"Pó","name_ru":"По","name_sv":"Po","name_tr":"Po","name_vi":"Po","name_zh":"波河","ne_id":1159129663,"name_fa":"پو","name_he":"פו","name_uk":"По","name_ur":"دریائے پو","name_zht":"波河"}},
{"type":"Feature","geometry":{"type":"MultiLineString","coordinates":[[[8.751,46.676],[9.416,46.835]],[[9.409,46.835],[9.554,47.511]],[[9.128,47.671],[9.183,47.671]]]},"properties":{"scalerank":4,"featurecla":"River","name":"Rhein","note":"","min_zoom":4,"name_alt":"","min_label":5,"name_en":"Rhine","label":"Rhein","wikidataid":"Q584","name_ar":"راين","name_bn":"রাইন নদী","name_de":"Rhein","name_es":"Rin","name_fr":"Rhin","name_el":"Ρήνος","name_hi":"राइन नदी","name_hu":"Rajna","name_id":"Rhein","name_it":"Reno","name_ja":"ライン川","name_ko":"라인강","name_nl":"Rijn","name_pl":"Ren","name_pt":"Reno","name_ru":"Рейн","name_sv":"Rhen","name_tr":"Ren","name_vi":"Rhine","name_zh":"莱茵河","ne_id":1159110403,"name_fa":"راین","name_he":"ריין","name_uk":"Рейн","name_ur":"دریائے رائن","name_zht":"莱茵河"}},
{"type":"Feature","geometry":{"type":"LineString","coordinates":[[8.881,47.656],[8.482,47.576],[7.565,47.607],[7.584,48.064],[7.838,48.636],[8.23,48.965]]},"properties":{"scalerank":4,"featurecla":"River","name":"Rhin","note":"","min_zoom":4,"name_alt":"Rhein","min_label":5,"name_en":"Rhine","label":"Rhin","wikidataid":"Q584","name_ar":"راين","name_bn":"রাইন নদী","name_de":"Rhein","name_es":"Rin","name_fr":"Rhin","name_el":"Ρήνος","name_hi":"राइन नदी","name_hu":"Rajna","name_id":"Rhein","name_it":"Reno","name_ja":"ライン川","name_ko":"라인강","name_nl":"Rijn","name_pl":"Ren","name_pt":"Reno","name_ru":"Рейн","name_sv":"Rhen","name_tr":"Ren","name_vi":"Rhine","name_zh":"莱茵河","ne_id":1159112359,"name_fa":"راین","name_he":"ריין","name_uk":"Рейн","name_ur":"دریائے رائن","name_zht":"莱茵河"}},
{"type":"Feature","geometry":{"type":"LineString","coordinates":[[8.23,48.965],[8.498,49.397],[8.437,49.767],[8.243,50.023],[7.962,49.991],[7.607,50.222],[7.025,50.805],[6.69,51.303],[6.596,51.637],[6.039,51.872],[4.985,51.824]]},"properties":{"scalerank":4,"featurecla":"River","name":"Rhine","note":"","min_zoom":4,"name_alt":"","min_label":5,"name_en":"Rhine","label":"Rhine","wikidataid":"Q584","name_ar":"راين","name_bn":"রাইন নদী","name_de":"Rhein","name_es":"Rin","name_fr":"Rhin","name_el":"Ρήνος","name_hi":"राइन नदी","name_hu":"Rajna","name_id":"Rhein","name_it":"Reno","name_ja":"ライン川","name_ko":"라인강","name_nl":"Rijn","name_pl":"Ren","name_pt":"Reno","name_ru":"Рейн","name_sv":"Rhen","name_tr":"Ren","name_vi":"Rhine","name_zh":"莱茵河","ne_id":1159112519,"name_fa":"راین","name_he":"ריין","name_uk":"Рейн","name_ur":"دریائے رائن","name_zht":"莱茵河"}},
{"type":"Feature","geometry":{"type":"MultiLineString","coordinates":[[[4.617,43.71],[4.41,43.447]],[[6.133,46.205],[5.902,46.123],[5.676,45.676],[5.35,45.847],[4.952,45.808],[4.784,45.439],[4.864,44.911],[4.675,44.228],[4.843,44.012],[4.638,43.828],[4.787,43.401]],[[8.25,46.482],[7.089,46.152],[6.866,46.403]]]},"properties":{"scalerank":6,"featurecla":"River","name":"Rhône","note":"","min_zoom":5,"name_alt":"","min_label":6,"name_en":"Rhône","label":"Rhône","wikidataid":"Q602","name_ar":"نهر الرون","name_bn":"রোন","name_de":"Rhone","name_es":"Ródano","name_fr":"Rhône","name_el":"Ροδανός","name_hi":"रोन नदी","name_hu":"Rhône","name_id":"Rhone","name_it":"Rodano","name_ja":"ローヌ川","name_ko":"론강","name_nl":"Rhône","name_pl":"Rodan","name_pt":"Ródano","name_ru":"Рона","name_sv":"Rhône","name_tr":"Rhône","name_vi":"Rhone","name_zh":"罗讷河","ne_id":1159115107,"name_fa":"رون","name_he":"רון","name_uk":"Рона","name_ur":"دریائے رون","name_zht":"罗讷河"}},
{"type":"Feature","geometry":{"type":"LineString","coordinates":[[31.238,30.121],[31.163,30.151],[30.855,30.354],[30.715,31.065],[30.395,31.458]]},"properties":{"scalerank":1,"featurecla":"River","name":"Rosetta Branch","note":"","min_zoom":2,"name_alt":"","min_label":3,"name_en":"Rosetta Branch","label":"","wikidataid":"","name_ar":"فرع رشيد","name_bn":"রোজেটা ব্রাঞ্চ","name_de":"Rosetta Branch","name_es":"Ramal Rosetta","name_fr":"Rosetta Branch","name_el":"Παρακλάδι Ροζέτα","name_hi":"रोज़ेटा ब्रांच","name_hu":"Rosetta Ág","name_id":"Anak Sungai Rosetta","name_it":"Ramo di Rosetta","name_ja":"ロゼッタ・ブランチ川","name_ko":"로제타 브랜치","name_nl":"Rosetta-tak","name_pl":"Ramię Rosetta","name_pt":"Canal de Roseta","name_ru":"","name_sv":"Rosetta","name_tr":"Rosetta Kolu","name_vi":"Nhánh Rosetta","name_zh":"罗塞塔支流","ne_id":1159113693,"name_fa":"شاخه روزتا","name_he":"סניף רוזטה","name_uk":"Розетта-Бранч","name_ur":"روزیٹہ برانچ","name_zht":"羅塞塔支流"}},
{"type":"Feature","geometry":{"type":"LineString","coordinates":[[4.708,47.578],[4.565,47.891],[3.763,48.551],[3.038,48.393],[2.428,48.65],[2.111,48.958],[1.718,48.992],[1.189,49.307],[0.439,49.473]]},"properties":{"scalerank":4,"featurecla":"River","name":"Seine","note":"","min_zoom":4,"name_alt":"","min_label":5,"name_en":"Seine","label":"Seine","wikidataid":"Q1471","name_ar":"السين","name_bn":"সেন নদী","name_de":"Seine","name_es":"Sena","name_fr":"Seine","name_el":"Σηκουάνας","name_hi":"सेन","name_hu":"Szajna","name_id":"Seine","name_it":"Senna","name_ja":"セーヌ川","name_ko":"센강","name_nl":"Seine","name_pl":"Sekwana","name_pt":"Sena","name_ru":"Сена","name_sv":"Seine","name_tr":"Sen","name_vi":"Seine","name_zh":"塞纳河","ne_id":1159112177,"name_fa":"سن","name_he":"סן","name_uk":"Сена","name_ur":"دریائے سین","name_zht":"塞纳河"}},
{"type":"Feature","geometry":{"type":"LineString","coordinates":[[47.468,30.968],[47.785,30.561],[48.331,30.285],[48.547,29.962]]},"properties":{"scalerank":3,"featurecla":"River","name":"Shatt al-Arab","note":"","min_zoom":3,"name_alt":"","min_label":4,"name_en":"Shatt al-Arab","label":"Shatt al-Arab","wikidataid":"Q166966","name_ar":"شط العرب","name_bn":"শাতিল আরব","name_de":"Schatt al-Arab","name_es":"Shatt al-Arab","name_fr":"Chatt-el-Arab","name_el":"Στα αλ-Αράμπ","name_hi":"शत अल-अरब","name_hu":"Satt-el-Arab","name_id":"Shatt al-Arab","name_it":"Shatt al-'Arab","name_ja":"シャットゥルアラブ川","name_ko":"샤트알아랍강","name_nl":"Sjatt al-Arab","name_pl":"Szatt al-Arab","name_pt":"Chatt al-Arab","name_ru":"Шатт-эль-Араб","name_sv":"Shatt al-Arab","name_tr":"Şattülarap","name_vi":"Shatt al-Arab","name_zh":"阿拉伯河","ne_id":1159128827,"name_fa":"اروندرود","name_he":"שט אל-ערב","name_uk":"Шатт-ель-Араб","name_ur":"شط العرب","name_zht":"阿拉伯河"}},
{"type":"Feature","geometry":{"type":"LineString","coordinates":[[19.06,47.481],[18.935,47.033]]},"properties":{"scalerank":6,"featurecla":"River","name":"Soroksari Duna","note":"","min_zoom":5,"name_alt":"","min_label":6,"name_en":"Ráckeve-Soroksár Danube","label":"Soroksari Duna","wikidataid":"Q1252126","name_ar":"سوروكساري دونا","name_bn":"সোরোকসারি ডুনা","name_de":"Ráckevei (Soroksári)-D","name_es":"Soroksari-Duna","name_fr":"Ráckevei-Duna","name_el":"Σοροκσάρι Ντούνα","name_hi":"सोरोक्सारी दुना","name_hu":"Ráckevei-Duna","name_id":"Soroksari Duna","name_it":"Soroksari Duna","name_ja":"ソロクサリ・ドゥナ","name_ko":"소록사리 두나","name_nl":"Ráckevei-Duna","name_pl":"Soroksari Duna","name_pt":"Soroksári-Duna","name_ru":"река Шорокшар","name_sv":"Soroksari Duna","name_tr":"Soroksari Duna","name_vi":"Sông Soroksari Duna","name_zh":"索罗克萨里多瑙河","ne_id":1159117707,"name_fa":"سوروکساری دونا","name_he":"סורוקסרי דונה","name_uk":"Сороксарі Дуна","name_ur":"سوروکساری دونا","name_zht":"索羅克薩里多瑙河"}},
{"type":"Feature","geometry":{"type":"MultiLineString","coordinates":[[[32.561,30.182],[32.561,30.181],[32.566,29.974]],[[32.36,30.424],[32.303,30.593],[32.324,31.256]]]},"properties":{"scalerank":6,"featurecla":"River","name":"Suez Canal","note":"","min_zoom":5,"name_alt":"","min_label":6,"name_en":"Suez Canal","label":"Suez Canal","wikidataid":"Q899","name_ar":"قناة السويس","name_bn":"সুয়েজ খাল","name_de":"Suezkanal","name_es":"canal de Suez","name_fr":"canal de Suez","name_el":"Διώρυγα Σουέζ","name_hi":"स्वेज़ नहर","name_hu":"Szuezi-csatorna","name_id":"Terusan Suez","name_it":"Suez","name_ja":"スエズ運河","name_ko":"수에즈 운하","name_nl":"Suezkanaal","name_pl":"Kanał Sueski","name_pt":"Canal de Suez","name_ru":"Суэцкий канал","name_sv":"Suezkanalen","name_tr":"Süveyş Kanalı","name_vi":"Kênh đào Suez","name_zh":"苏伊士运河","ne_id":1159113931,"name_fa":"کانال سوئز","name_he":"תעלת סואץ","name_uk":"Суецький канал","name_ur":"نہر سوئز","name_zht":"蘇伊士運河"}},
{"type":"Feature","geometry":{"type":"MultiLineString","coordinates":[[[39.798,59.525],[40.532,59.318],[41.558,59.43],[42.57,59.746],[42.853,59.982],[43.731,60.19],[44.962,60.573],[46.34,60.749]],[[39.053,59.868],[38.656,59.93]]]},"properties":{"scalerank":4,"featurecla":"River","name":"Sukhona","note":"","min_zoom":4,"name_alt":"","min_label":5,"name_en":"Sukhona","label":"Sukhona","wikidataid":"Q82812","name_ar":"نهر سوخونا","name_bn":"সুখোনা","name_de":"Suchona","name_es":"Sújona","name_fr":"Soukhona","name_el":"Σουχόνα","name_hi":"सुखोना","name_hu":"Szuhona","name_id":"Sukhona","name_it":"Suchona","name_ja":"スホナ川","name_ko":"수코나","name_nl":"Soechona","name_pl":"Suchona","name_pt":"Sukhona","name_ru":"Сухона","name_sv":"Suchona","name_tr":"Suhona","name_vi":"Sông Sukhona","name_zh":"蘇霍納河","ne_id":1159110571,"name_fa":"سوخونا","name_he":"סוקהונה","name_uk":"Сухона","name_ur":"سوکھونا","name_zht":"蘇霍納河"}},
{"type":"Feature","geometry":{"type":"LineString","coordinates":[[46.34,60.749],[46.591,61.287],[45.551,61.717],[45.139,62]]},"properties":{"scalerank":4,"featurecla":"River","name":"Severnaya Dvina","note":"Northern Dvina","min_zoom":4,"name_alt":"","min_label":5,"name_en":"Northern Dvina","label":"Severnaya Dvina","wikidataid":"Q8187","name_ar":"نهر دفينا الشمالي","name_bn":"উত্তর ভিনা","name_de":"Nördliche Dwina","name_es":"Dviná Septentrional","name_fr":"Dvina septentrionale","name_el":"Ντβινά","name_hi":"सेवर्नया डिविना","name_hu":"Északi-Dvina","name_id":"Severnaya Dvina","name_it":"Dvina Settentrionale","name_ja":"北ドヴィナ川","name_ko":"세베르나야드비나 강","name_nl":"Noordelijke Dvina","name_pl":"Dwina","name_pt":"Duína do Norte","name_ru":"Северная Двина","name_sv":"Norra Dvina","name_tr":"Kuzey Dvina","name_vi":"Bắc Dvina","name_zh":"北德维纳河","ne_id":1159112289,"name_fa":"رود دوینای شمالی","name_he":"סברנאיה דבינה","name_uk":"Північна Двіна","name_ur":"سیورنایا ڈوینہ","name_zht":"北德维纳河"}},
{"type":"Feature","geometry":{"type":"LineString","coordinates":[[32.816,60.482],[32.996,60.511],[33.29,60.68],[33.713,60.811],[33.918,60.964],[34.086,60.926],[34.846,61.027]]},"properties":{"scalerank":5,"featurecla":"River","name":"Svir","note":"","min_zoom":4.7,"name_alt":"","min_label":5.7,"name_en":"Svir","label":"Svir","wikidataid":"Q213067","name_ar":"سفير","name_bn":"এসভির","name_de":"Swir","name_es":"Svir","name_fr":"Svir","name_el":"Σβιρ","name_hi":"स्वीर","name_hu":"Szvir","name_id":"Svir","name_it":"Svir'","name_ja":"スヴィリ川","name_ko":"스비리강","name_nl":"Svir","name_pl":"Świr","name_pt":"Svir","name_ru":"Свирь","name_sv":"Svir","name_tr":"Svir","name_vi":"Svir","name_zh":"斯维里河","ne_id":1159113225,"name_fa":"رودخانه سیویر","name_he":"סביר","name_uk":"Свір","name_ur":"سوئر","name_zht":"斯維里河"}},
{"type":"Feature","geometry":{"type":"MultiLineString","coordinates":[[[-5.996,39.852],[-7.118,39.682]],[[-2.733,40.528],[-3.226,40.087],[-4.318,39.839],[-4.757,39.982],[-5.071,39.803],[-5.217,39.812]],[[-1.906,40.601],[-2.242,40.811],[-2.577,40.724]]]},"properties":{"scalerank":5,"featurecla":"River","name":"Tajo","note":"","min_zoom":4.7,"name_alt":"","min_label":5.7,"name_en":"Tagus","label":"Tajo","wikidataid":"Q14294","name_ar":"نهر تاجة","name_bn":"তাজো","name_de":"Tajo","name_es":"Tajo","name_fr":"Tage","name_el":"Τάγος","name_hi":"तैजो","name_hu":"Tajo","name_id":"Tagus","name_it":"Tago","name_ja":"タホ川","name_ko":"타구스강","name_nl":"Taag","name_pl":"Tag","name_pt":"Tejo","name_ru":"Тахо","name_sv":"Tajo","name_tr":"Tejo","name_vi":"Tagus","name_zh":"塔霍河","ne_id":1159112927,"name_fa":"تاقوس","name_he":"טחו","name_uk":"Тахо","name_ur":"تاجو","name_zht":"塔霍河"}},
{"type":"Feature","geometry":{"type":"LineString","coordinates":[[-7.118,39.682],[-7.454,39.681],[-7.982,39.492],[-8.376,39.468],[-8.792,39.078]]},"properties":{"scalerank":5,"featurecla":"River","name":"Tejo","note":"","min_zoom":4.7,"name_alt":"Tagus","min_label":5.7,"name_en":"Tagus","label":"Tejo","wikidataid":"Q14294","name_ar":"نهر تاجة","name_bn":"তেজো","name_de":"Tajo","name_es":"Tajo","name_fr":"Tage","name_el":"Τάγος","name_hi":"तेजो","name_hu":"Tajo","name_id":"Tagus","name_it":"Tago","name_ja":"タホ川","name_ko":"타구스강","name_nl":"Taag","name_pl":"Tag","name_pt":"Tejo","name_ru":"Тахо","name_sv":"Tajo","name_tr":"Tejo","name_vi":"Tagus","name_zh":"塔霍河","ne_id":1159113655,"name_fa":"تاقوس","name_he":"טחו","name_uk":"Тахо","name_ur":"تیجو","name_zht":"塔霍河"}},
{"type":"Feature","geometry":{"type":"LineString","coordinates":[[-2.022,51.686],[-1.282,51.759],[-1.069,51.485],[-0.503,51.416],[0.425,51.466]]},"properties":{"scalerank":6,"featurecla":"River","name":"Thames","note":"","min_zoom":5,"name_alt":"","min_label":6,"name_en":"Thames","label":"Thames","wikidataid":"Q19686","name_ar":"نهر التمز","name_bn":"টেম্স নদী","name_de":"Themse","name_es":"Támesis","name_fr":"Tamise","name_el":"Τάμεσης","name_hi":"थेम्स नदी","name_hu":"Temze","name_id":"Thames","name_it":"Tamigi","name_ja":"テムズ川","name_ko":"템스강","name_nl":"Theems","name_pl":"Tamiza","name_pt":"Tâmisa","name_ru":"Темза","name_sv":"Themsen","name_tr":"Thames","name_vi":"Thames","name_zh":"泰晤士河","ne_id":1159116709,"name_fa":"تیمز","name_he":"תמזה","name_uk":"Темза","name_ur":"دریائے ٹیمز","name_zht":"泰晤士河"}},
{"type":"Feature","geometry":{"type":"LineString","coordinates":[[42.377,37.062],[42.771,36.54],[43.169,36.334],[43.346,35.946],[43.262,35.47],[43.568,35.006],[43.584,34.832],[43.96,34.098],[44.403,33.974],[44.361,33.347],[44.675,33.024],[45.225,32.778],[45.522,32.556],[45.809,32.502],[46.137,32.632],[46.692,32.443],[46.713,32.149],[47.139,31.826],[47.434,31.286],[47.441,31.004],[47.441,30.999]]},"properties":{"scalerank":4,"featurecla":"River","name":"Tigris","note":"","min_zoom":4,"name_alt":"","min_label":5,"name_en":"Tigris","label":"Tigris","wikidataid":"Q35591","name_ar":"دجلة","name_bn":"দজলা","name_de":"Tigris","name_es":"Tigris","name_fr":"Tigre","name_el":"Τίγρης ποταμός","name_hi":"दजला नदी","name_hu":"Tigris","name_id":"Tigris","name_it":"Tigri","name_ja":"チグリス川","name_ko":"티그리스강","name_nl":"Tigris","name_pl":"Tygrys","name_pt":"Tigre","name_ru":"Тигр","name_sv":"Tigris","name_tr":"Dicle","name_vi":"Tigris","name_zh":"底格里斯河","ne_id":1159112275,"name_fa":"دجله","name_he":"חידקל","name_uk":"Тигр","name_ur":"دریائے دجلہ","name_zht":"底格里斯河"}},
{"type":"Feature","geometry":{"type":"LineString","coordinates":[[20.179,46.261],[20.07,45.632],[20.282,45.126]]},"properties":{"scalerank":6,"featurecla":"River","name":"Tisa","note":"","min_zoom":5,"name_alt":"","min_label":6,"name_en":"Tisza","label":"Tisa","wikidataid":"Q134350","name_ar":"تيسا","name_bn":"টিসা","name_de":"Theiß","name_es":"Tisza","name_fr":"Tisza","name_el":"Τίσα","name_hi":"तिसा","name_hu":"Tisza","name_id":"Tisza","name_it":"Tibisco","name_ja":"ティサ川","name_ko":"티서강","name_nl":"Tisza","name_pl":"Cisa","name_pt":"Tisza","name_ru":"Тиса","name_sv":"Tisza","name_tr":"Tisza","name_vi":"Tisza","name_zh":"蒂萨河","ne_id":1159118059,"name_fa":"تیسزا","name_he":"טיסה","name_uk":"Тиса","name_ur":"ٹیسا","name_zht":"蒂薩河"}},
{"type":"Feature","geometry":{"type":"MultiLineString","coordinates":[[[21.346,48.026],[20.546,47.51],[20.214,47.178],[20.08,46.811],[20.179,46.261]],[[24.256,48.322],[24.17,47.955],[23.709,47.983],[23.307,48.136],[22.42,48.095],[22.219,48.415],[21.339,48.026]]]},"properties":{"scalerank":6,"featurecla":"River","name":"Tisza","note":"","min_zoom":5,"name_alt":"","min_label":6,"name_en":"Tisza","label":"Tisza","wikidataid":"Q134350","name_ar":"تيسا","name_bn":"তিসজা","name_de":"Theiß","name_es":"Tisza","name_fr":"Tisza","name_el":"Τίσα","name_hi":"टिस्ज़ा","name_hu":"Tisza","name_id":"Tisza","name_it":"Tibisco","name_ja":"ティサ川","name_ko":"티서강","name_nl":"Tisza","name_pl":"Cisa","name_pt":"Tisza","name_ru":"Тиса","name_sv":"Tisza","name_tr":"Tisza","name_vi":"Tisza","name_zh":"蒂萨河","ne_id":1159117275,"name_fa":"تیسزا","name_he":"טיסה","name_uk":"Тиса","name_ur":"ٹیسزا","name_zht":"蒂薩河"}},
{"type":"Feature","geometry":{"type":"MultiLineString","coordinates":[[[18.879,49.644],[18.81,49.925]],[[18.937,49.932],[19.2,50.042],[19.852,50.006],[20.522,50.137],[21.289,50.386],[21.784,50.689],[21.784,51.188],[21.933,51.442],[21.553,51.647],[21.221,52.067],[20.731,52.416],[19.964,52.421],[19.202,52.644],[18.766,52.928],[18.274,53.089],[18.315,53.293],[18.739,53.519],[18.976,54.349]]]},"properties":{"scalerank":5,"featurecla":"River","name":"Vistula","note":"","min_zoom":4.7,"name_alt":"","min_label":5.7,"name_en":"Vistula","label":"Vistula","wikidataid":"Q548","name_ar":"فيستولا","name_bn":"ভিস্তুলা নদী","name_de":"Weichsel","name_es":"Vístula","name_fr":"Vistule","name_el":"Βιστούλας","name_hi":"विस्चुला नदी","name_hu":"Visztula","name_id":"Vistula","name_it":"Vistola","name_ja":"ヴィスワ川","name_ko":"비스와강","name_nl":"Wisła","name_pl":"Wisła","name_pt":"Vístula","name_ru":"Висла","name_sv":"Wisła","name_tr":"Vistül","name_vi":"Wisla","name_zh":"维斯瓦河","ne_id":1159112951,"name_fa":"ویستولا","name_he":"ויסלה","name_uk":"Вісла","name_ur":"وسٹولا","name_zht":"维斯瓦河"}},
{"type":"Feature","geometry":{"type":"MultiLineString","coordinates":[[[47.842,46.735],[48.114,46.683],[48.684,46.086]],[[45.664,50.222],[44.976,49.195],[44.588,48.727],[44.596,48.545],[45.043,48.434],[45.559,48.451],[46.078,48.218],[46.147,47.994],[46.616,47.673],[47.086,47.214],[47.8,46.773],[47.998,46.37],[47.561,45.79],[47.65,45.657]],[[49.905,53.457],[50,53.455]],[[50,53.189],[48.919,53.209],[48.561,52.919],[48.035,52.271],[46.775,51.748]],[[43.432,56.675],[43.657,56.496],[44.566,56.086],[45.936,56.16],[46.492,56.336],[47.166,56.151],[47.829,56.145],[48.212,55.872],[48.809,55.784],[49.059,55.483]],[[37.148,56.752],[37.151,56.753],[37.477,56.935],[37.761,57.291]],[[32.598,57.25],[32.729,56.945],[33.675,56.765],[33.857,56.423],[34.668,56.209],[34.937,56.546],[35.908,56.867],[36.375,56.706]],[[41.344,57.493],[42.576,57.415]],[[40.007,57.567],[39.517,57.909],[38.704,58.113]],[[38.301,57.572],[38.437,58.018]]]},"properties":{"scalerank":3,"featurecla":"River","name":"Volga","note":"","min_zoom":3,"name_alt":"","min_label":4,"name_en":"Volga","label":"Volga","wikidataid":"Q626","name_ar":"فولغا","name_bn":"ভোলগা নদী","name_de":"Wolga","name_es":"Volga","name_fr":"Volga","name_el":"Βόλγας","name_hi":"वोल्गा नदी","name_hu":"Volga","name_id":"Volga","name_it":"Volga","name_ja":"ヴォルガ川","name_ko":"볼가강","name_nl":"Wolga","name_pl":"Wołga","name_pt":"Volga","name_ru":"Волга","name_sv":"Volga","name_tr":"Volga","name_vi":"Volga","name_zh":"伏尔加河","ne_id":1159125629,"name_fa":"رودخانه ولگا","name_he":"וולגה","name_uk":"Волга","name_ur":"دریائے وولگا","name_zht":"伏尔加河"}},
{"type":"Feature","geometry":{"type":"MultiLineString","coordinates":[[[11.17,59.389],[10.945,59.171]],[[11.2,59.67],[11.203,59.498]],[[12.028,60.525],[11.157,59.911]]]},"properties":{"scalerank":6,"featurecla":"River","name":"Vorma","note":"","min_zoom":5,"name_alt":"","min_label":6,"name_en":"Vorma","label":"Vorma","wikidataid":"Q576337","name_ar":"فورما","name_bn":"ভোরমা","name_de":"Vorma","name_es":"Vorma","name_fr":"Vorma","name_el":"Βόρμα","name_hi":"वोर्मा","name_hu":"Vorma","name_id":"Vorma","name_it":"Vorma","name_ja":"ヴォルマ川","name_ko":"보르마","name_nl":"Vorma","name_pl":"Vorma","name_pt":"Vorma","name_ru":"Ворма","name_sv":"Vorma","name_tr":"Vorma","name_vi":"Sông Vorma","name_zh":"沃马河","ne_id":1159115961,"name_fa":"وورما","name_he":"וורמה","name_uk":"Ворма","name_ur":"وورما","name_zht":"沃馬河"}},
{"type":"Feature","geometry":{"type":"MultiLineString","coordinates":[[[30.478,60.574],[30.534,60.63]],[[28.788,61.204],[29.596,60.717]]]},"properties":{"scalerank":6,"featurecla":"River","name":"Vuoksi","note":"","min_zoom":5,"name_alt":"","min_label":6,"name_en":"Vuoksa","label":"Vuoksi","wikidataid":"Q819448","name_ar":"فووكسي","name_bn":"ভুক্সি","name_de":"Vuoksi","name_es":"Vuoksi","name_fr":"Vuoksi","name_el":"Βουόκσι","name_hi":"वुओक्सी","name_hu":"Vuoksi","name_id":"Vuoksi","name_it":"Vuoksi","name_ja":"ヴオクサ川","name_ko":"복시","name_nl":"Vuoksi","name_pl":"Vuoksi","name_pt":"Vuoksi","name_ru":"Вуокса","name_sv":"Vuoksen","name_tr":"Vuoksi","name_vi":"Vuoksi","name_zh":"武克希河","ne_id":1159115145,"name_fa":"رودخانه ویوکسی","name_he":"וווקסי","name_uk":"Вуоксі","name_ur":"ووکسی","name_zht":"武克希河"}},
{"type":"Feature","geometry":{"type":"LineString","coordinates":[[48.641,62],[47.802,61.495],[46.591,61.287]]},"properties":{"scalerank":5,"featurecla":"River","name":"Vychegda","note":"","min_zoom":4.7,"name_alt":"","min_label":5.7,"name_en":"Vychegda","label":"Vychegda","wikidataid":"Q65383","name_ar":"فيتشيجدا","name_bn":"ভাইচেডা","name_de":"Wytschegda","name_es":"Víchegda","name_fr":"Vytchegda","name_el":"Βιτσέγκντα","name_hi":"व्याचेग्डा","name_hu":"Vicsegda","name_id":"Vychegda","name_it":"Vyčegda","name_ja":"ヴィチェグダ川","name_ko":"비체그다강","name_nl":"Vytsjegda","name_pl":"Wyczegda","name_pt":"Vychegda","name_ru":"Вычегда","name_sv":"Vytjegda","name_tr":"Vıçegda","name_vi":"Sông Vychegda","name_zh":"維切格達河","ne_id":1159113541,"name_fa":"ویچگدا","name_he":"ויצ'גדה","name_uk":"Вичегда","name_ur":"وائےچیگدا","name_zht":"維切格達河"}},
{"type":"Feature","geometry":{"type":"LineString","coordinates":[[4.985,51.824],[4.581,51.719],[3.979,51.848]]},"properties":{"scalerank":4,"featurecla":"River","name":"Waal","note":"","min_zoom":4,"name_alt":"","min_label":5,"name_en":"Waal","label":"Waal","wikidataid":"Q216171","name_ar":"فال","name_bn":"ওয়াল","name_de":"Waal","name_es":"Waal","name_fr":"Waal","name_el":"Βααλ","name_hi":"वाल","name_hu":"Waal","name_id":"Waal","name_it":"Waal","name_ja":"ワール川","name_ko":"발강","name_nl":"Waal","name_pl":"Waal","name_pt":"Waal","name_ru":"Вал","name_sv":"Waal","name_tr":"Waal","name_vi":"Sông Waal","name_zh":"瓦尔河","ne_id":1159112531,"name_fa":"وال","name_he":"וואאל","name_uk":"Вааль","name_ur":"وال","name_zht":"瓦爾河"}},
{"type":"Feature","geometry":{"type":"LineString","coordinates":[[1.454,43.415],[1.082,44.031],[0.323,44.295],[0.003,44.561],[-0.343,44.636],[-0.548,45.001]]},"properties":{"scalerank":6,"featurecla":"River","name":"Garonne","note":"","min_zoom":5,"name_alt":"","min_label":6,"name_en":"Garonne","label":"Garonne","wikidataid":"Q5077","name_ar":"نهر غارون","name_bn":"গারন নদী","name_de":"Garonne","name_es":"Garona","name_fr":"Garonne","name_el":"Γαρούνας","name_hi":"गैरोन","name_hu":"Garonne","name_id":"Garonne","name_it":"Garonna","name_ja":"ガロンヌ川","name_ko":"가론강","name_nl":"Garonne","name_pl":"Garonna","name_pt":"Garona","name_ru":"Гаронна","name_sv":"Garonne","name_tr":"Garonne","name_vi":"Garonne","name_zh":"加龍河","ne_id":1159129239,"name_fa":"گارون","name_he":"גארון","name_uk":"Гаронна","name_ur":"گارونے","name_zht":"加龍河"}},
{"type":"Feature","geometry":{"type":"MultiLineString","coordinates":[[[3.083,46.985],[2.789,47.59],[2.36,47.804],[1.769,47.866],[1.158,47.474],[-0.038,47.249],[-0.418,47.402],[-1.056,47.375],[-1.743,47.216]],[[3.083,46.985],[3.49,46.829],[3.984,46.46],[4.256,45.477],[3.91,45.116],[4.2,44.823]]]},"properties":{"scalerank":5,"featurecla":"River","name":"Loire","note":"Fixed in 4.0","min_zoom":4.7,"name_alt":"","min_label":5.7,"name_en":"Loire","label":"Loire","wikidataid":"Q1469","name_ar":"لوار","name_bn":"লোয়ার নদী","name_de":"Loire","name_es":"Loira","name_fr":"Loire","name_el":"Λίγηρας","name_hi":"लवार नदी","name_hu":"Loire","name_id":"Loire","name_it":"Loira","name_ja":"ロワール川","name_ko":"루아르강","name_nl":"Loire","name_pl":"Loara","name_pt":"Loire","name_ru":"Луара","name_sv":"Loire","name_tr":"Loire","name_vi":"Loire","name_zh":"卢瓦尔河","ne_id":1159129677,"name_fa":"لوار","name_he":"לואר","name_uk":"Луара","name_ur":"لوار","name_zht":"卢瓦尔河"}},
{"type":"Feature","geometry":{"type":"LineString","coordinates":[[37.643,59.148],[37.74,59.08],[38.042,58.918],[38.408,58.288]]},"properties":{"scalerank":7,"featurecla":"Lake Centerline","name":"Suda","note":"","min_zoom":4.7,"name_alt":"","min_label":7,"name_en":"Suda","label":"Suda","wikidataid":"Q1295629","name_ar":"سودا","name_bn":"সুদা","name_de":"Suda","name_es":"Suda","name_fr":"Souda","name_el":"Σούδα","name_hi":"सुदा","name_hu":"Suda","name_id":"Suda","name_it":"Suda","name_ja":"スダ川","name_ko":"수다","name_nl":"Soeda","name_pl":"Suda","name_pt":"Suda","name_ru":"Суда","name_sv":"Suda","name_tr":"Suda","name_vi":"Suda","name_zh":"蘇達河","ne_id":1159119561,"name_fa":"سودا","name_he":"סודה","name_uk":"Суда","name_ur":"سودا","name_zht":"蘇達河"}},
{"type":"Feature","geometry":{"type":"LineString","coordinates":[[37.74,59.08],[38.411,59.163]]},"properties":{"scalerank":9,"featurecla":"Lake Centerline","name":"Sheksna","note":"","min_zoom":4.7,"name_alt":"","min_label":8.1,"name_en":"Sheksna","label":"Sheksna","wikidataid":"Q1147118","name_ar":"نهر شيكسنا","name_bn":"শেক্সনা","name_de":"Scheksna","name_es":"Sheksná","name_fr":"Cheksna","name_el":"Σέκσνα","name_hi":"शेक्सना","name_hu":"Sheksna","name_id":"Sheksna","name_it":"Šeksna","name_ja":"シェクスナ川","name_ko":"셰크스나","name_nl":"Sjeksna","name_pl":"Szeksna","name_pt":"Cheksna","name_ru":"Шексна","name_sv":"Sjeksna","name_tr":"Şeksna","name_vi":"Sheksna","name_zh":"舍克斯纳河","ne_id":1159109447,"name_fa":"شکنسا","name_he":"שקסנה","name_uk":"Шексна","name_ur":"شیکسنا","name_zht":"舍克斯納河"}},
{"type":"Feature","geometry":{"type":"LineString","coordinates":[[38.411,59.163],[38.393,59.69],[37.983,60.094]]},"properties":{"scalerank":9,"featurecla":"River","name":"Sheksna","note":"","min_zoom":4.7,"name_alt":"","min_label":8.1,"name_en":"Sheksna","label":"Sheksna","wikidataid":"Q1147118","name_ar":"نهر شيكسنا","name_bn":"শেক্সনা","name_de":"Scheksna","name_es":"Sheksná","name_fr":"Cheksna","name_el":"Σέκσνα","name_hi":"शेक्सना","name_hu":"Sheksna","name_id":"Sheksna","name_it":"Šeksna","name_ja":"シェクスナ川","name_ko":"셰크스나","name_nl":"Sjeksna","name_pl":"Szeksna","name_pt":"Cheksna","name_ru":"Шексна","name_sv":"Sjeksna","name_tr":"Şeksna","name_vi":"Sông Sheksna","name_zh":"舍克斯纳河","ne_id":1159109461,"name_fa":"شکنسا","name_he":"שקסנה","name_uk":"Шексна","name_ur":"شیکسنا","name_zht":"舍克斯納河"}},
{"type":"Feature","geometry":{"type":"LineString","coordinates":[[37.248,60.2],[37.336,60.217],[37.983,60.094]]},"properties":{"scalerank":9,"featurecla":"Lake Centerline","name":"Sheksna","note":"","min_zoom":4.7,"name_alt":"","min_label":8.1,"name_en":"Sheksna","label":"Sheksna","wikidataid":"Q1147118","name_ar":"نهر شيكسنا","name_bn":"","name_de":"Scheksna","name_es":"Sheksná","name_fr":"Cheksna","name_el":"","name_hi":"","name_hu":"","name_id":"","name_it":"Šeksna","name_ja":"シェクスナ川","name_ko":"","name_nl":"Sjeksna","name_pl":"Szeksna","name_pt":"Cheksna","name_ru":"Шексна","name_sv":"Sjeksna","name_tr":"Şeksna","name_vi":"","name_zh":"舍克斯纳河","ne_id":1159122755,"name_fa":"","name_he":"","name_uk":"Шексна","name_ur":"","name_zht":"舍克斯納河"}},
{"type":"Feature","geometry":{"type":"LineString","coordinates":[[37.317,60.249],[37.336,60.217]]},"properties":{"scalerank":12,"featurecla":"Lake Centerline","name":"Kovzha River","note":"","min_zoom":4.7,"name_alt":"","min_label":8,"name_en":"Kovzha","label":"Kovzha River","wikidataid":"Q2305285","name_ar":"نهر كوفزا","name_bn":"কোভঝা রিভার","name_de":"Kowscha","name_es":"Kovzha","name_fr":"Kovja","name_el":"Ποταμός Κόβζα","name_hi":"कोवझा नदी","name_hu":"Kovzha-folyó","name_id":"Sungai Kovzha","name_it":"Kovža","name_ja":"コフジャ川","name_ko":"코브자 리버","name_nl":"Kovzja","name_pl":"Rzeka Kovzha","name_pt":"Rio Kovzha","name_ru":"Ковжа","name_sv":"Kovzha","name_tr":"Kovzha Nehri","name_vi":"Sông Kovzha","name_zh":"科夫扎河","ne_id":1729992317,"name_fa":"رودخانه کووژا","name_he":"נהר קובזה","name_uk":"Ковжа","name_ur":"کوزا ریور","name_zht":"科夫扎河"}},
{"type":"Feature","geometry":{"type":"LineString","coordinates":[[37.317,60.249],[37.108,60.379],[37.069,60.835],[36.26,61.108]]},"properties":{"scalerank":12,"featurecla":"River","name":"Kovzha River","note":"","min_zoom":4.7,"name_alt":"","min_label":8,"name_en":"Kovzha","label":"Kovzha River","wikidataid":"Q2305285","name_ar":"نهر كوفزا","name_bn":"কোভঝা রিভার","name_de":"Kowscha","name_es":"Kovzha","name_fr":"Kovja","name_el":"Ποταμός Κόβζα","name_hi":"कोवझा नदी","name_hu":"Kovzha-folyó","name_id":"Sungai Kovzha","name_it":"Kovža","name_ja":"コフジャ川","name_ko":"코브자 리버","name_nl":"Kovzja","name_pl":"Rzeka Kovzha","name_pt":"Rio Kovzha","name_ru":"Ковжа","name_sv":"Kovzha","name_tr":"Kovzha Nehri","name_vi":"Sông Kovzha","name_zh":"科夫扎河","ne_id":1159112613,"name_fa":"رودخانه کووژا","name_he":"נהר קובזה","name_uk":"Ковжа","name_ur":"کوزا ریور","name_zht":"科夫扎河"}},
{"type":"Feature","geometry":{"type":"LineString","coordinates":[[35.905,61.272],[36.26,61.108]]},"properties":{"scalerank":12,"featurecla":"Lake Centerline","name":"Kovzha River","note":"","min_zoom":4.7,"name_alt":"","min_label":8,"name_en":"Kovzha","label":"Kovzha River","wikidataid":"Q2305285","name_ar":"","name_bn":"","name_de":"Kowscha","name_es":"Kovzha","name_fr":"Kovja","name_el":"","name_hi":"","name_hu":"","name_id":"","name_it":"Kovža","name_ja":"コフジャ川","name_ko":"","name_nl":"Kovzja","name_pl":"","name_pt":"","name_ru":"Ковжа","name_sv":"","name_tr":"","name_vi":"","name_zh":"科夫扎河","ne_id":1729992323,"name_fa":"","name_he":"","name_uk":"Ковжа","name_ur":"","name_zht":"科夫扎河"}},
{"type":"Feature","geometry":{"type":"LineString","coordinates":[[34.327,61.866],[35.129,61.778],[35.815,61.445],[35.905,61.272],[35.833,61.035],[34.846,61.027]]},"properties":{"scalerank":5,"featurecla":"Lake Centerline","name":"Svir","note":"","min_zoom":4.7,"name_alt":"","min_label":5.7,"name_en":"Svir","label":"Svir","wikidataid":"Q213067","name_ar":"سفير","name_bn":"","name_de":"Swir","name_es":"Svir","name_fr":"Svir","name_el":"","name_hi":"","name_hu":"Szvir","name_id":"","name_it":"Svir'","name_ja":"スヴィリ川","name_ko":"스비리강","name_nl":"Svir","name_pl":"Świr","name_pt":"Svir","name_ru":"Свирь","name_sv":"Svir","name_tr":"Svir","name_vi":"Svir","name_zh":"斯维里河","ne_id":1159122959,"name_fa":"رودخانه سیویر","name_he":"","name_uk":"Свір","name_ur":"","name_zht":"斯維里河"}},
{"type":"Feature","geometry":{"type":"LineString","coordinates":[[44.56,48.573],[44.203,48.493],[43.763,48.667]]},"properties":{"scalerank":6,"featurecla":"Canal","name":"Volga-Don Canal","note":"","min_zoom":4.7,"name_alt":"","min_label":6,"name_en":"Volga–Don Canal","label":"Volga-Don Canal","wikidataid":"Q827505","name_ar":"قناة فولجا دون","name_bn":"ভোলগা-ডন ক্যানেল","name_de":"Wolga-Don-Kanal","name_es":"Canal Volga-Don","name_fr":"canal Don-Volga","name_el":"Κανάλι Βόλγα-Ντον","name_hi":"वोल्गा-डॉन नहर","name_hu":"Volga-Don csatorna","name_id":"Kanal Volga-Don","name_it":"Volga-Don","name_ja":"ヴォルガ・ドン運河","name_ko":"볼가-돈 운하","name_nl":"Wolga-Donkanaal","name_pl":"Kanał Wołga-Don","name_pt":"Canal Volga-Don","name_ru":"Волго-Донской канал","name_sv":"Volga–Donkanalen","name_tr":"Volga-Don Kanalı","name_vi":"Kênh đào Volga-Don","name_zh":"伏尔加-顿河运河","ne_id":1729992327,"name_fa":"کانال ولگا-دن","name_he":"תעלת הוולגה-דון","name_uk":"Волго-Донський канал","name_ur":"ڈون۔وولگا نہر","name_zht":"伏爾加-頓河運河"}},
{"type":"Feature","geometry":{"type":"LineString","coordinates":[[43.528,48.614],[43.763,48.667]]},"properties":{"scalerank":6,"featurecla":"Lake Centerline","name":"Volga-Don Canal","note":"","min_zoom":4.7,"name_alt":"","min_label":6,"name_en":"Volga–Don Canal","label":"Volga-Don Canal","wikidataid":"Q827505","name_ar":"قناة فولجا دون","name_bn":"ভোলগা-ডন ক্যানেল","name_de":"Wolga-Don-Kanal","name_es":"Canal Volga-Don","name_fr":"canal Don-Volga","name_el":"Κανάλι Βόλγα-Ντον","name_hi":"वोल्गा-डॉन नहर","name_hu":"Volga-Don csatorna","name_id":"Kanal Volga-Don","name_it":"Volga-Don","name_ja":"ヴォルガ・ドン運河","name_ko":"볼가-돈 운하","name_nl":"Wolga-Donkanaal","name_pl":"Kanał Wołga-Don","name_pt":"Canal Volga-Don","name_ru":"Волго-Донской канал","name_sv":"Volga–Donkanalen","name_tr":"Volga-Don Kanalı","name_vi":"Kênh đào Volga-Don","name_zh":"伏尔加-顿河运河","ne_id":1729992329,"name_fa":"کانال ولگا-دن","name_he":"תעלת הוולגה-דון","name_uk":"Волго-Донський канал","name_ur":"ڈون۔وولگا نہر","name_zht":"伏爾加-頓河運河"}},
{"type":"Feature","geometry":{"type":"LineString","coordinates":[[35.415,62],[35.129,61.778]]},"properties":{"scalerank":10,"featurecla":"Lake Centerline","name":"White Sea Canal","note":"","min_zoom":4.7,"name_alt":"Belomorcanal","min_label":7,"name_en":"White Sea – Baltic Canal","label":"White Sea Canal","wikidataid":"Q461457","name_ar":"قناة البحر الأبيض إلى بحر البلطيق","name_bn":"","name_de":"Weißmeer-Ostsee-Kanal","name_es":"Canal Mar Blanco-Báltico","name_fr":"canal de la mer Blanche","name_el":"","name_hi":"","name_hu":"Balti–Fehér-tenger-csatorna","name_id":"Bendungan Laut Putih–Baltik","name_it":"Mar Bianco-Mar Baltico","name_ja":"白海・バルト海運河","name_ko":"백해-발트 해 운하","name_nl":"Witte Zeekanaal","name_pl":"Kanał Białomorsko-Bałtycki","name_pt":"Canal Mar Branco–Báltico","name_ru":"Беломорско-Балтийский канал","name_sv":"Vitahavskanalen","name_tr":"Beyazdeniz-Baltık Kanalı","name_vi":"","name_zh":"白海-波罗的海运河","ne_id":1159127845,"name_fa":"کانال دریای سفید–بالتیک","name_he":"תעלת הים הלבן-הים הבלטי","name_uk":"Біломорсько-Балтійський канал","name_ur":"","name_zht":"白海-波羅的海運河"}}
]}